,Unnamed: 0,station,valid,lon,lat,tmpf,dwpf,relh,drct,sknt,p01i,alti,mslp,vsby,gust,skyc1,skyc2,skyc3,skyc4,skyl1,skyl2,skyl3,skyl4,wxcodes,ice_accretion_1hr,ice_accretion_3hr,ice_accretion_6hr,peak_wind_gust,peak_wind_drct,peak_wind_time,feel,metar,epoch_time,merge_id
0,5614783,CBF,2008-12-22 15:04,-95.7604,41.2611,-5.00,-11.00,74.61,0.00,0.00,M,30.43,M,10.00,M,M,M,M,M,M,M,M,M,M,M,M,M,M,M,M,-5.00,M,1229972400000.0,1229972400000.0_CBF
1,5240486,ORC,2008-11-30 07:35,-96.0606,42.9895,30.20,26.60,86.28,340.00,9.00,M,29.64,M,7.00,M,OVC,   ,   ,M,3200.00,M,M,M,-SN,M,M,M,M,M,M,21.28,METAR KORC 300735Z AUTO 34009KT 7SM -SN OVC032 M01/M03 A2964 RMK AO2,1228042800000.0,1228042800000.0_ORC
2,890933,SLB,2008-02-24 17:43,-95.2399,42.5972,36.00,34.00,92.35,240.00,13.00,M,29.92,M,1.50,M,M,M,M,M,M,M,M,M,M,M,M,M,M,M,M,26.69,M,1203886800000.0,1203886800000.0_SLB
3,4965137,C75,2008-11-13 23:04,-89.3864,41.0193,53.60,42.80,66.70,190.00,15.00,M,29.57,M,10.00,23.00,OVC,M,M,M,11000.00,M,M,M,M,M,M,M,M,M,M,53.60,KC75 132304Z AUTO 19015G23KT 10SM OVC110 12/06 A2957 RMK AO2,1226631600000.0,1226631600000.0_C75
4,4793644,SBA,2008-11-02 10:18,-119.8436,34.4261,60.80,57.20,87.92,80.00,4.00,0.06,30.05,M,1.75,M,OVC,   ,   ,   ,1200.00,M,M,M,-RA BR,M,M,M,M,M,M,60.80,KSBA 021018Z AUTO 08004KT 1 3/4SM -RA BR OVC012 16/14 A3005 RMK AO2 P0006,1225634400000.0,1225634400000.0_SBA
5,5299712,BNW,2008-12-04 03:06,-93.8486,42.0486,18.00,12.00,76.97,300.00,12.00,M,30.21,M,10.00,16.00,M,M,M,M,M,M,M,M,M,M,M,M,M,M,M,4.18,M,1228374000000.0,1228374000000.0_BNW
6,5743266,DKB,2008-12-30 05:45,-88.7057,41.9338,28.04,23.54,82.97,290.00,7.00,M,30.19,M,10.00,M,CLR,M,M,M,M,M,M,M,M,M,M,M,M,M,M,19.95,KDKB 300545Z AUTO 29007KT 10SM CLR M02/M05 A3019 RMK AO2 T10221047 10005 21025 400401048,1230627600000.0,1230627600000.0_DKB
7,319299,COE,2008-01-20 19:15,-116.8196,47.7743,21.20,12.20,67.73,50.00,20.00,M,30.11,M,10.00,24.00,BKN,   ,   ,   ,7000.00,M,M,M,M,M,M,M,M,M,M,4.79,KCOE 201915Z AUTO 05020G24KT 10SM BKN070 M06/M11 A3011 RMK AO1,1200870000000.0,1200870000000.0_COE
8,1436864,CWI,2008-03-29 11:35,-90.3328,41.8295,24.80,21.20,85.96,110.00,4.00,M,30.41,M,9.00,-99.00,M,M,M,M,M,M,M,M,M,M,M,M,M,M,M,19.01,M,1206802800000.0,1206802800000.0_CWI
9,210979,MUT,2008-01-13 23:44,-91.1406,41.367,25.00,19.00,77.62,260.00,12.00,M,30.10,M,10.00,M,M,M,M,M,M,M,M,M,M,M,M,M,M,M,M,13.09,M,1200279600000.0,1200279600000.0_MUT
10,3005747,SAN,2008-07-12 05:51,-117.1845,32.7339,68.00,60.98,78.25,300.00,3.00,M,29.99,1015.50,10.00,M,FEW,SCT,   ,   ,1200.00,10000.00,M,M,M,M,M,M,M,M,M,68.00,KSAN 120551Z 30003KT 10SM FEW012 SCT100 20/16 A2999 RMK AO2 SLP155 T02000161 10222 20200 51015,1215849600000.0,1215849600000.0_SAN
11,4390725,IKV,2008-10-07 23:53,-93.5695,41.6878,53.00,50.00,89.51,330.00,8.00,M,29.96,M,10.00,14.00,M,M,M,M,M,M,M,M,M,M,M,M,M,M,M,53.00,M,1223431200000.0,1223431200000.0_IKV
12,968361,PEA,2008-02-29 22:55,-92.9431,41.3989,41.00,28.40,60.54,260.00,8.00,M,30.16,M,10.00,M,CLR,   ,   ,M,M,M,M,M,M,M,M,M,M,M,M,35.20,METAR KPEA 292255Z AUTO 26008KT 10SM CLR 05/M02 A3016 RMK AO2,1204336800000.0,1204336800000.0_PEA
13,4134411,SAR,2008-09-22 23:05,-89.7,38.15,78.80,64.40,61.36,0.00,0.00,M,30.24,M,10.00,M,CLR,M,M,M,M,M,M,M,M,M,M,M,M,M,M,80.56,KSAR 222305Z AUTO 00000KT 10SM CLR 26/18 A3024 RMK AO2,1222135200000.0,1222135200000.0_SAR
14,3289114,FFL,2008-07-30 20:44,-91.9834,41.0521,84.00,73.00,69.59,190.00,7.00,M,29.82,M,10.00,M,M,M,M,M,M,M,M,M,M,M,M,M,M,M,M,90.34,M,1217458800000.0,1217458800000.0_FFL
15,4394692,GGI,2008-10-08 05:24,-92.7332,41.7097,46.00,44.00,92.68,290.00,4.00,M,29.93,M,10.00,M,M,M,M,M,M,M,M,M,M,M,M,M,M,M,M,43.77,M,1223452800000.0,1223452800000.0_GGI
16,654610,RIV,2008-02-10 03:55,-117.25,33.9,51.44,35.96,55.31,270.00,4.00,M,30.10,1020.10,10.00,M,CLR,   ,   ,   ,M,M,M,M,M,M,M,M,M,M,M,51.44,KRIV 100355Z AUTO 27004KT 10SM CLR 11/02 A3010 RMK AO2 SLP201 T01080022,1202626800000.0,1202626800000.0_RIV
17,1160744,GGI,2008-03-12 17:33,-92.7332,41.7097,44.00,35.00,70.42,120.00,11.00,M,29.76,M,10.00,M,M,M,M,M,M,M,M,M,M,M,M,M,M,M,M,37.63,M,1205355600000.0,1205355600000.0_GGI
18,741524,AWG,2008-02-15 17:55,-91.6748,41.2751,14.00,1.40,56.58,330.00,5.00,M,30.48,M,10.00,-99.00,M,M,M,M,M,M,M,M,M,M,M,M,M,M,M,5.02,M,1203109200000.0,1203109200000.0_AWG
19,3968155,EBS,2008-09-13 09:15,-93.8691,42.4392,64.40,62.60,93.88,60.00,4.00,M,29.71,M,1.75,-99.00,M,M,M,M,M,M,M,M,M,M,M,M,M,M,M,64.40,M,1221307200000.0,1221307200000.0_EBS
20,2685889,ALN,2008-06-21 01:45,-90.046,38.8899,73.40,68.00,83.21,170.00,3.00,M,30.02,M,10.00,M,CLR,M,M,M,M,M,M,M,M,M,M,M,M,M,M,73.40,KALN 210145Z AUTO 17003KT 10SM CLR 23/20 A3002 RMK AO2,1214020800000.0,1214020800000.0_ALN
21,2670188,MQB,2008-06-20 00:45,-90.65,40.52,78.80,51.80,39.02,0.00,0.00,M,29.92,M,10.00,M,CLR,M,M,M,M,M,M,M,M,M,M,M,M,M,M,78.80,KMQB 200045Z AUTO 00000KT 10SM CLR 26/11 A2992 RMK AO2,1213930800000.0,1213930800000.0_MQB
22,3286013,OLY,2008-07-30 15:04,-88.1764,38.7218,69.80,60.80,73.09,340.00,6.00,0.02,29.92,M,7.00,M,OVC,M,M,M,6000.00,M,M,M,TSRA,M,M,M,M,M,M,69.80,KOLY 301504Z AUTO 34006KT 7SM TSRA OVC060 21/16 A2992 RMK AO2 P0002 LTG DSNT SW THRU N,1217440800000.0,1217440800000.0_OLY
23,2176319,MWS,2008-05-17 21:49,-118.0667,34.2333,80.60,33.80,18.42,60.00,6.00,M,29.74,M,M,M,   ,   ,   ,   ,M,M,M,M,M,M,M,M,M,M,M,78.88,KMWS 172149Z 06006KT 27/01 A2974,1211068800000.0,1211068800000.0_MWS
24,4184790,CCY,2008-09-25 22:13,-92.6132,43.073,78.00,53.00,41.88,170.00,10.00,M,30.21,M,10.00,M,M,M,M,M,M,M,M,M,M,M,M,M,M,M,M,78.00,M,1222390800000.0,1222390800000.0_CCY
25,1512272,ADU,2008-04-03 13:36,-94.9204,41.6994,39.00,34.00,M,M,M,M,30.01,M,10.00,M,M,M,M,M,M,M,M,M,M,M,M,M,M,M,M,M,M,1207238400000.0,1207238400000.0_ADU
26,2337778,CMI,2008-05-28 17:53,-88.2778,40.0388,64.94,37.94,36.83,60.00,12.00,M,30.31,1026.50,10.00,18.00,CLR,M,M,M,M,M,M,M,M,M,M,M,M,M,M,64.94,KCMI 281753Z 06012G18KT 10SM CLR 18/03 A3031 RMK AO2 SLP265 T01830033 10183 20094 58005,1212004800000.0,1212004800000.0_CMI
27,2859171,3LF,2008-07-02 17:05,-89.6746,39.1625,80.60,64.40,57.84,220.00,18.00,M,29.91,M,10.00,22.00,SCT,BKN,M,M,8500.00,11000.00,M,M,M,M,M,M,M,M,M,82.27,K3LF 021705Z AUTO 22018G22KT 10SM SCT085 BKN110 27/18 A2991 RMK AO2,1215028800000.0,1215028800000.0_3LF
28,1705656,AXA,2008-04-16 12:15,-94.2724,43.0796,48.20,42.80,81.47,170.00,17.00,M,29.50,M,10.00,-99.00,M,M,M,M,M,M,M,M,M,M,M,M,M,M,M,41.30,M,1208358000000.0,1208358000000.0_AXA
29,318406,SFO,2008-01-20 17:56,-122.3749,37.619,48.92,39.02,68.51,270.00,15.00,M,30.02,1016.60,10.00,24.00,OVC,   ,   ,   ,2700.00,M,M,M,M,M,M,M,M,M,M,42.71,KSFO 201756Z 27015G24KT 10SM OVC027 09/04 A3002 RMK AO2 SLP166 T00940039 10094 20083 55002,1200862800000.0,1200862800000.0_SFO
30,309180,EBS,2008-01-20 04:15,-93.8691,42.4392,-5.80,-13.00,70.19,260.00,6.00,M,30.35,M,10.00,-99.00,M,M,M,M,M,M,M,M,M,M,M,M,M,M,M,-19.99,M,1200816000000.0,1200816000000.0_EBS
31,1731561,CSQ,2008-04-18 04:17,-94.3608,41.0188,43.00,41.00,92.58,30.00,16.00,0.01,29.81,M,3.50,25.00,M,M,M,M,M,M,M,M,M,M,M,M,M,M,M,34.76,M,1208502000000.0,1208502000000.0_CSQ
32,4722053,CUL,2008-10-28 07:07,-88.1231,38.0895,33.80,28.40,80.36,310.00,9.00,M,30.40,M,10.00,M,SCT,M,M,M,7500.00,M,M,M,M,M,M,M,M,M,M,25.75,KCUL 280707Z AUTO 31009KT 10SM SCT075 01/M02 A3040 RMK AO2,1225191600000.0,1225191600000.0_CUL
33,3257200,VTI,2008-07-28 09:05,-92.0248,42.2176,65.00,64.00,M,M,M,M,29.81,M,M,M,M,M,M,M,M,M,M,M,M,M,M,M,M,M,M,M,M,1217246400000.0,1217246400000.0_VTI
34,2035741,MXO,2008-05-08 09:55,-91.1605,42.2204,46.40,42.80,87.19,40.00,5.00,M,29.80,M,10.00,-99.00,M,M,M,M,M,M,M,M,M,M,M,M,M,M,M,43.50,M,1210248000000.0,1210248000000.0_MXO
35,3866396,AXA,2008-09-06 09:45,-94.2724,43.0796,46.00,42.00,M,M,M,M,30.01,M,0.25,M,M,M,M,M,M,M,M,M,M,M,M,M,M,M,M,M,M,1220702400000.0,1220702400000.0_AXA
36,2854095,DNS,2008-07-02 09:37,-95.38,41.9842,71.00,68.00,90.25,230.00,3.00,M,29.77,M,10.00,M,M,M,M,M,M,M,M,M,M,M,M,M,M,M,M,72.04,M,1215000000000.0,1215000000000.0_DNS
37,4744642,EMT,2008-10-29 21:47,-118.035,34.086,M,M,M,190.00,6.00,M,29.94,M,20.00,M,CLR,   ,   ,   ,M,M,M,M,M,M,M,M,M,M,M,M,KEMT 292147Z 19006KT 20SM SKC A2994,1225328400000.0,1225328400000.0_EMT
38,3834072,MYF,2008-09-04 12:53,-117.1396,32.8157,66.02,62.96,89.86,320.00,4.00,M,29.85,1010.20,0.25,M,VV ,   ,   ,   ,100.00,M,M,M,FG,M,M,M,M,M,M,66.02,KMYF 041253Z 32004KT 1/4SM FG VV001 19/17 A2985 RMK AO2 SLP102 T01890172,1220540400000.0,1220540400000.0_MYF
39,31329,CIN,2008-01-03 00:54,-94.7889,42.0444,9.00,4.00,79.67,200.00,7.00,M,30.70,M,M,M,M,M,M,M,M,M,M,M,M,M,M,M,M,M,M,-3.26,M,1199332800000.0,1199332800000.0_CIN
40,784719,HSB,2008-02-18 12:05,-88.5503,37.8113,33.80,28.40,80.36,270.00,13.00,M,29.85,M,10.00,M,SCT,SCT,SCT,M,3100.00,4100.00,10000.00,M,M,M,M,M,M,M,M,23.87,KHSB 181205Z AUTO 27013KT 10SM SCT031 SCT041 SCT100 01/M02 A2985 RMK AO2,1203350400000.0,1203350400000.0_HSB
41,1966740,SLO,2008-05-03 20:05,-88.9642,38.6429,53.60,32.00,43.61,280.00,14.00,M,29.93,M,10.00,20.00,BKN,BKN,M,M,3100.00,4100.00,M,M,M,M,M,M,M,M,M,53.60,KSLO 032005Z AUTO 28014G20KT 10SM BKN031 BKN041 12/00 A2993 RMK AO2 PWINO,1209855600000.0,1209855600000.0_SLO
42,2786830,AJG,2008-06-27 18:45,-87.7267,38.6065,78.80,71.60,78.62,180.00,11.00,M,29.88,M,10.00,M,CLR,M,M,M,M,M,M,M,M,M,M,M,M,M,M,81.70,KAJG 271845Z AUTO 18011KT 10SM CLR 26/22 A2988 RMK AO2,1214600400000.0,1214600400000.0_AJG
43,3431839,CIR,2008-08-10 03:25,-89.2196,37.0647,66.20,64.40,93.92,0.00,0.00,M,29.93,M,10.00,M,CLR,M,M,M,M,M,M,M,M,M,M,M,M,M,M,66.20,KCIR 100325Z AUTO 00000KT 10SM CLR 19/18 A2993 RMK AO2,1218348000000.0,1218348000000.0_CIR
44,965055,1H2,2008-02-29 16:08,-88.5335,39.0705,42.80,33.80,70.28,270.00,9.00,M,30.03,M,10.00,M,SCT,BKN,M,M,6500.00,10000.00,M,M,M,M,M,M,M,M,M,36.94,K1H2 291608Z AUTO 27009KT 10SM SCT065 BKN100 06/01 A3003 RMK AO2,1204315200000.0,1204315200000.0_1H2
45,545620,SBP,2008-02-03 11:25,-120.6441,35.2381,53.60,51.80,93.60,280.00,13.00,0.06,29.89,M,4.00,17.00,FEW,BKN,OVC,   ,1400.00,3300.00,4400.00,M,-RA BR,M,M,M,M,M,M,53.60,KSBP 031125Z AUTO 28013G17KT 4SM -RA BR FEW014 BKN033 OVC044 12/11 A2989 RMK AO2 P0006 TSNO,1202050800000.0,1202050800000.0_SBP
46,870436,FFL,2008-02-23 14:23,-91.9834,41.0521,5.00,1.00,83.12,M,0.00,M,30.13,M,0.24,M,M,M,M,M,M,M,M,M,M,M,M,M,M,M,M,5.00,M,1203789600000.0,1203789600000.0_FFL
47,5377416,SLO,2008-12-08 15:26,-88.9642,38.6429,38.30,22.64,52.94,170.00,9.00,M,30.04,M,10.00,14.00,CLR,M,M,M,M,M,M,M,M,M,M,M,M,M,M,31.35,KSLO 081526Z AUTO 17009G14KT 10SM CLR 04/M05 A3004 RMK AO2 T00351052,1228762800000.0,1228762800000.0_SLO
48,4135924,IKV,2008-09-23 01:13,-93.5695,41.6878,72.00,65.00,78.62,150.00,8.00,M,30.18,M,10.00,M,M,M,M,M,M,M,M,M,M,M,M,M,M,M,M,72.00,M,1222142400000.0,1222142400000.0_IKV
49,911397,SHL,2008-02-25 20:13,-95.8353,43.2082,29.00,25.00,84.79,360.00,21.00,M,29.89,M,2.50,M,M,M,M,M,M,M,M,M,M,M,M,M,M,M,M,14.85,M,1203984000000.0,1203984000000.0_SHL
50,4261485,PRO,2008-09-30 05:43,-94.1637,41.8278,46.00,45.00,96.28,310.00,3.00,M,30.16,M,10.00,M,M,M,M,M,M,M,M,M,M,M,M,M,M,M,M,44.69,M,1222761600000.0,1222761600000.0_PRO
51,650785,IKV,2008-02-09 22:15,-93.5695,41.6878,19.40,10.40,67.51,320.00,17.00,M,30.12,M,10.00,26.00,M,M,M,M,M,M,M,M,M,M,M,M,M,M,M,3.57,M,1202608800000.0,1202608800000.0_IKV
52,2957673,IKV,2008-07-09 01:55,-93.5695,41.6878,75.00,68.00,M,M,M,M,29.93,M,10.00,M,M,M,M,M,M,M,M,M,M,M,M,M,M,M,M,M,M,1215576000000.0,1215576000000.0_IKV
53,2868482,EUL,2008-07-03 07:15,-116.6358,43.6419,66.20,53.60,63.82,0.00,0.00,M,29.83,M,10.00,M,CLR,   ,   ,   ,M,M,M,M,M,M,M,M,M,M,M,66.20,KEUL 030715Z AUTO 00000KT 10SM CLR 19/12 A2983 RMK AO1,1215079200000.0,1215079200000.0_EUL
54,3560280,FWC,2008-08-18 22:05,-88.4126,38.3786,80.60,51.80,36.79,340.00,3.00,M,30.02,M,10.00,M,BKN,M,M,M,5500.00,M,M,M,M,M,M,M,M,M,M,80.60,KFWC 182205Z AUTO 34003KT 10SM BKN055 27/11 A3002 RMK AO2 TSNO,1219107600000.0,1219107600000.0_FWC
55,14975,EBS,2008-01-02 00:37,-93.8691,42.4392,4.00,-2.00,75.57,290.00,9.00,M,30.53,M,M,16.00,M,M,M,M,M,M,M,M,M,M,M,M,M,M,M,-11.30,M,1199246400000.0,1199246400000.0_EBS
56,1755183,PRO,2008-04-19 16:28,-94.1637,41.8278,45.00,45.00,100.00,330.00,13.00,M,29.92,M,7.00,M,M,M,M,M,M,M,M,M,M,M,M,M,M,M,M,38.22,M,1208631600000.0,1208631600000.0_PRO
57,4686960,MAE,2008-10-25 09:53,-120.1107,36.9849,53.06,37.94,56.34,0.00,0.00,M,30.06,1017.50,10.00,M,CLR,   ,   ,   ,M,M,M,M,M,M,M,M,M,M,M,53.06,KMAE 250953Z AUTO 00000KT 10SM CLR 12/03 A3006 RMK AO2 SLP175 T01170033,1224936000000.0,1224936000000.0_MAE
58,3831530,IKV,2008-09-04 09:33,-93.5695,41.6878,55.00,54.00,96.42,30.00,7.00,M,30.00,M,7.00,M,M,M,M,M,M,M,M,M,M,M,M,M,M,M,M,55.00,M,1220529600000.0,1220529600000.0_IKV
59,2932696,MPZ,2008-07-07 10:15,-91.5122,40.9453,71.60,71.60,100.00,180.00,5.00,M,29.87,M,10.00,-99.00,M,M,M,M,M,M,M,M,M,M,M,M,M,M,M,73.16,M,1215435600000.0,1215435600000.0_MPZ
60,4563525,EBS,2008-10-17 23:40,-93.8691,42.4392,47.00,42.00,82.65,50.00,3.00,M,30.27,M,10.00,M,M,M,M,M,M,M,M,M,M,M,M,M,M,M,M,45.84,M,1224295200000.0,1224295200000.0_EBS
61,3036067,IKV,2008-07-14 07:43,-93.5695,41.6878,59.00,58.00,M,M,M,M,29.93,M,10.00,M,M,M,M,M,M,M,M,M,M,M,M,M,M,M,M,M,M,1216029600000.0,1216029600000.0_IKV
62,1152565,EOK,2008-03-12 06:12,-91.4274,40.4615,45.00,34.00,65.13,30.00,7.00,M,29.90,M,10.00,M,M,M,M,M,M,M,M,M,M,M,M,M,M,M,M,40.63,M,1205316000000.0,1205316000000.0_EOK
63,4207755,AIO,2008-09-27 04:52,-95.0465,41.4059,64.00,59.00,83.78,200.00,4.00,M,30.06,M,7.00,M,M,M,M,M,M,M,M,M,M,M,M,M,M,M,M,64.00,M,1222498800000.0,1222498800000.0_AIO
64,4665550,NZY,2008-10-23 23:52,-117.2098,32.6922,84.92,19.94,9.04,330.00,7.00,M,29.92,1013.20,10.00,M,FEW,   ,   ,   ,25000.00,M,M,M,M,M,M,M,M,M,M,81.21,KNZY 232352Z 33007KT 10SM FEW250 29/M07 A2992 RMK AO2 SLP132 T02941067 10344 20294 53002 $,1224813600000.0,1224813600000.0_NZY
65,4642392,MVN,2008-10-22 14:35,-88.8583,38.3233,48.20,30.20,M,M,M,M,30.33,M,10.00,M,CLR,M,M,M,M,M,M,M,M,M,M,M,M,M,M,M,KMVN 221435Z AUTO 10SM CLR 09/M01 A3033 RMK AO1,1224694800000.0,1224694800000.0_MVN
66,4219391,AUN,2008-09-27 20:10,-121.0817,38.9548,91.40,37.40,15.05,230.00,6.00,M,30.00,M,10.00,M,CLR,   ,   ,   ,M,M,M,M,M,M,M,M,M,M,M,87.23,KAUN 272010Z AUTO 23006KT 040V040 10SM CLR 33/03 A3000 RMK A01 P000,1222556400000.0,1222556400000.0_AUN
67,3334678,NZJ,2008-08-03 07:05,-117.73100000000001,33.676,66.20,60.80,82.74,0.00,0.00,M,29.85,M,10.00,M,SCT,   ,   ,   ,1400.00,M,M,M,M,M,M,M,M,M,M,66.20,KSNA 030705Z 00000KT 10SM SCT014 19/16 A2985 RMK AO2,1217757600000.0,1217757600000.0_NZJ
68,218177,GGI,2008-01-14 10:14,-92.7332,41.7097,22.00,18.00,84.33,310.00,12.00,M,30.16,M,7.00,M,M,M,M,M,M,M,M,M,M,M,M,M,M,M,M,9.27,M,1200319200000.0,1200319200000.0_GGI
69,5345436,HNR,2008-12-06 21:23,-95.3355,41.5834,26.00,9.00,48.03,320.00,17.00,M,30.20,M,10.00,M,M,M,M,M,M,M,M,M,M,M,M,M,M,M,M,12.21,M,1228611600000.0,1228611600000.0_HNR
70,1668269,ADU,2008-04-14 01:35,-94.9204,41.6994,35.60,23.00,M,M,M,M,30.26,M,10.00,-99.00,M,M,M,M,M,M,M,M,M,M,M,M,M,M,M,M,M,1208145600000.0,1208145600000.0_ADU
71,5283305,SFY,2008-12-03 03:25,-90.1079,42.0458,32.18,27.50,82.65,160.00,6.00,M,29.82,M,10.00,M,CLR,M,M,M,M,M,M,M,M,M,M,M,M,M,M,25.75,KSFY 030325Z AUTO 16006KT 10SM CLR 00/M02 A2982 RMK AO2 T00011025,1228287600000.0,1228287600000.0_SFY
72,379841,OOA,2008-01-24 07:25,-92.4919,41.2273,-3.00,-10.00,71.23,310.00,12.00,M,30.33,M,10.00,M,M,M,M,M,M,M,M,M,M,M,M,M,M,M,M,-22.54,M,1201172400000.0,1201172400000.0_OOA
73,3081992,BNW,2008-07-17 07:03,-93.8486,42.0486,76.00,68.00,76.27,200.00,7.00,M,30.06,M,10.00,M,M,M,M,M,M,M,M,M,M,M,M,M,M,M,M,76.00,M,1216288800000.0,1216288800000.0_BNW
74,4648910,FFL,2008-10-22 23:54,-91.9834,41.0521,55.00,30.00,38.21,100.00,15.00,M,M,M,10.00,23.00,M,M,M,M,M,M,M,M,M,M,M,M,M,M,M,55.00,M,1224727200000.0,1224727200000.0_FFL
75,729899,CWI,2008-02-14 23:15,-90.3328,41.8295,30.20,26.60,86.28,340.00,8.00,M,29.95,M,9.00,-99.00,M,M,M,M,M,M,M,M,M,M,M,M,M,M,M,21.90,M,1203044400000.0,1203044400000.0_CWI
76,2490937,SDA,2008-06-07 21:02,-95.4112,40.7533,90.00,78.00,67.93,190.00,27.00,M,29.68,M,10.00,31.00,M,M,M,M,M,M,M,M,M,M,M,M,M,M,M,104.54,M,1212883200000.0,1212883200000.0_SDA
77,4988634,AXA,2008-11-15 11:35,-94.2724,43.0796,32.00,28.40,86.39,330.00,15.00,M,30.09,M,10.00,21.00,M,M,M,M,M,M,M,M,M,M,M,M,M,M,M,20.78,M,1226761200000.0,1226761200000.0_AXA
78,4518334,CAV,2008-10-15 08:03,-93.7593,42.743,47.00,47.00,M,M,M,M,30.13,M,5.50,M,M,M,M,M,M,M,M,M,M,M,M,M,M,M,M,M,M,1224068400000.0,1224068400000.0_CAV
79,4173393,PRG,2008-09-25 06:45,-87.67,39.7,57.20,55.40,93.69,150.00,3.00,M,30.27,M,7.00,M,CLR,M,M,M,M,M,M,M,M,M,M,M,M,M,M,57.20,KPRG 250645Z AUTO 15003KT 7SM CLR 14/13 A3027 RMK AO2,1222333200000.0,1222333200000.0_PRG
80,341200,CMI,2008-01-22 02:53,-88.2778,40.0388,32.00,15.08,49.19,170.00,13.00,M,30.18,1023.10,10.00,M,BKN,OVC,M,M,6500.00,8000.00,M,M,M,M,M,M,M,M,M,21.57,KCMI 220253Z 17013KT 10SM BKN065 OVC080 00/M09 A3018 RMK AO2 SLP231 T00001094 58029 $,1200981600000.0,1200981600000.0_CMI
81,1813383,FFL,2008-04-23 10:57,-91.9834,41.0521,50.00,45.00,82.86,60.00,7.00,M,30.16,M,10.00,M,M,M,M,M,M,M,M,M,M,M,M,M,M,M,M,46.72,M,1208955600000.0,1208955600000.0_FFL
82,807296,DEH,2008-02-19 22:15,-91.7433,43.2755,10.40,1.40,66.35,M,0.00,M,29.94,M,2.50,-99.00,M,M,M,M,M,M,M,M,M,M,M,M,M,M,M,10.40,M,1203472800000.0,1203472800000.0_DEH
83,2965272,CBF,2008-07-09 14:28,-95.7604,41.2611,76.00,68.00,M,M,M,M,30.06,M,10.00,M,M,M,M,M,M,M,M,M,M,M,M,M,M,M,M,M,M,1215622800000.0,1215622800000.0_CBF
84,2975049,EOK,2008-07-10 05:48,-91.4274,40.4615,73.00,65.00,M,M,M,M,30.04,M,10.00,M,M,M,M,M,M,M,M,M,M,M,M,M,M,M,M,M,M,1215676800000.0,1215676800000.0_EOK
85,3799951,CNC,2008-09-02 14:53,-93.3608,41.0184,80.00,71.00,74.06,210.00,9.00,M,30.00,M,10.00,M,M,M,M,M,M,M,M,M,M,M,M,M,M,M,M,83.46,M,1220374800000.0,1220374800000.0_CNC
86,4688451,CCY,2008-10-25 12:25,-92.6132,43.073,40.00,39.00,96.18,220.00,5.00,M,29.77,M,5.50,M,M,M,M,M,M,M,M,M,M,M,M,M,M,M,M,35.90,M,1224946800000.0,1224946800000.0_CCY
87,781602,COE,2008-02-18 07:15,-116.8196,47.7743,21.20,17.60,85.74,60.00,4.00,M,30.33,M,6.00,M,CLR,   ,   ,   ,M,M,M,M,M,M,M,M,M,M,M,14.81,KCOE 180715Z AUTO 06004KT 6SM CLR M06/M08 A3033 RMK AO1,1203332400000.0,1203332400000.0_COE
88,5304443,PRO,2008-12-04 10:15,-94.1637,41.8278,23.00,17.60,79.47,270.00,15.00,M,30.30,M,10.00,22.00,M,M,M,M,M,M,M,M,M,M,M,M,M,M,M,9.11,M,1228399200000.0,1228399200000.0_PRO
89,4433332,DKB,2008-10-10 09:45,-88.7057,41.9338,44.60,37.40,75.68,70.00,4.00,M,30.18,M,10.00,M,CLR,M,M,M,M,M,M,M,M,M,M,M,M,M,M,42.13,KDKB 100945Z AUTO 07004KT 10SM CLR 07/03 A3018 RMK AO2,1223640000000.0,1223640000000.0_DKB
90,378666,LRJ,2008-01-24 05:35,-96.1923,42.7754,-11.20,-14.80,83.51,190.00,3.00,M,30.34,M,10.00,-99.00,M,M,M,M,M,M,M,M,M,M,M,M,M,M,M,-20.70,M,1201165200000.0,1201165200000.0_LRJ
91,1307984,LRJ,2008-03-21 02:03,-96.1923,42.7754,49.00,42.00,76.67,100.00,12.00,M,29.94,M,10.00,17.00,M,M,M,M,M,M,M,M,M,M,M,M,M,M,M,43.64,M,1206079200000.0,1206079200000.0_LRJ
92,2563733,FEP,2008-06-13 04:10,-89.58200000000001,42.2462,71.60,68.00,88.43,290.00,5.00,M,29.85,M,10.00,M,SCT,SCT,BKN,M,6000.00,8500.00,12000.00,M,-RA,M,M,M,M,M,M,72.62,KFEP 130410Z AUTO 29005KT 10SM -RA SCT060 SCT085 BKN120 22/20 A2985 RMK AO2,1213340400000.0,1213340400000.0_FEP
93,1623684,PNT,2008-04-11 00:45,-88.6239,40.9244,62.60,57.20,82.50,140.00,26.00,M,29.50,M,10.00,31.00,SCT,OVC,M,M,4000.00,11000.00,M,M,M,M,M,M,M,M,M,62.60,KPNT 110045Z AUTO 14026G31KT 10SM SCT040 OVC110 17/14 A2950 RMK AO2 LTG DSNT N AND S,1207882800000.0,1207882800000.0_PNT
94,1352314,BOI,2008-03-23 21:53,-116.2406,43.5667,57.92,21.02,23.68,130.00,11.00,M,30.15,1021.50,10.00,M,CLR,   ,   ,   ,M,M,M,M,M,M,M,M,M,M,M,57.92,KBOI 232153Z 13011KT 10SM CLR 14/M06 A3015 RMK AO2 SLP215 T01441061 $,1206320400000.0,1206320400000.0_BOI
95,321379,CAV,2008-01-20 22:15,-93.7593,42.743,8.60,-0.40,66.11,M,0.00,M,30.47,M,10.00,-99.00,M,M,M,M,M,M,M,M,M,M,M,M,M,M,M,8.60,M,1200880800000.0,1200880800000.0_CAV
96,5707902,SAN,2008-12-28 03:51,-117.1845,32.7339,51.98,37.04,56.58,0.00,0.00,M,30.30,1026.10,10.00,M,CLR,   ,   ,   ,M,M,M,M,M,M,M,M,M,M,M,51.98,KSAN 280351Z 00000KT 10SM CLR 11/03 A3030 RMK AO2 SLP261 T01110028,1230447600000.0,1230447600000.0_SAN
97,1396373,PNT,2008-03-26 20:25,-88.6239,40.9244,53.60,21.20,27.91,350.00,3.00,M,30.09,M,10.00,M,SCT,M,M,M,11000.00,M,M,M,M,M,M,M,M,M,M,53.60,KPNT 262025Z AUTO 35003KT 10SM SCT110 12/M06 A3009 RMK AO2,1206576000000.0,1206576000000.0_PNT
98,4647731,CBF,2008-10-22 22:14,-95.7604,41.2611,53.00,50.00,89.51,130.00,10.00,M,29.85,M,7.00,16.00,M,M,M,M,M,M,M,M,M,M,M,M,M,M,M,53.00,M,1224723600000.0,1224723600000.0_CBF
99,2872377,OXV,2008-07-03 12:57,-93.1114,41.2984,66.00,58.00,75.39,50.00,7.00,M,30.03,M,10.00,M,M,M,M,M,M,M,M,M,M,M,M,M,M,M,M,66.00,M,1215097200000.0,1215097200000.0_OXV
100,5674823,VCB,2008-12-26 03:53,-121.9575,38.3775,46.94,30.02,51.55,300.00,14.00,M,29.84,1010.30,10.00,22.00,CLR,   ,   ,   ,M,M,M,M,M,M,M,M,M,M,M,40.42,KVCB 260353Z AUTO 30014G22KT 10SM CLR 08/M01 A2984 RMK AO2 SLP103 T00831011 TSNO $,1230274800000.0,1230274800000.0_VCB
101,2963242,HNR,2008-07-09 11:06,-95.3355,41.5834,62.00,61.00,M,M,M,M,30.06,M,4.00,M,M,M,M,M,M,M,M,M,M,M,M,M,M,M,M,M,M,1215612000000.0,1215612000000.0_HNR
102,3271267,DVO,2008-07-29 14:30,-122.5561,38.1436,53.60,50.00,87.56,0.00,0.00,M,30.02,M,8.00,M,CLR,   ,   ,   ,M,M,M,M,M,M,M,M,M,M,M,53.60,KDVO 291430Z AUTO 00000KT 8SM CLR 12/10 A3002 RMK AO2,1217350800000.0,1217350800000.0_DVO
103,356916,SHL,2008-01-22 23:54,-95.8353,43.2082,5.00,-2.00,72.18,230.00,7.00,M,30.03,M,10.00,M,M,M,M,M,M,M,M,M,M,M,M,M,M,M,M,-8.13,M,1201057200000.0,1201057200000.0_SHL
104,4253964,SLB,2008-09-29 19:13,-95.2399,42.5972,70.00,40.00,33.52,320.00,14.00,0.02,30.16,M,10.00,21.00,M,M,M,M,M,M,M,M,M,M,M,M,M,M,M,70.00,M,1222725600000.0,1222725600000.0_SLB
105,3772032,SNA,2008-08-31 20:53,-117.8682,33.6757,77.00,64.94,66.36,230.00,11.00,M,29.75,1007.40,10.00,M,SCT,SCT,   ,   ,2000.00,6000.00,M,M,M,M,M,M,M,M,M,77.00,KSNA 312053Z 23011KT 10SM SCT020 SCT060 25/18 A2975 RMK AO2 SLP074 T02500183 55006,1220223600000.0,1220223600000.0_SNA
106,1070539,VYS,2008-03-07 05:06,-89.1531,41.3519,24.80,17.60,73.70,340.00,4.00,M,30.28,M,10.00,M,CLR,M,M,M,M,M,M,M,M,M,M,M,M,M,M,19.01,KVYS 070506Z AUTO 34004KT 10SM CLR M04/M08 A3028 RMK AO2,1204880400000.0,1204880400000.0_VYS
107,5341384,FWC,2008-12-06 16:05,-88.4126,38.3786,33.80,26.60,74.63,220.00,10.00,M,29.92,M,10.00,M,BKN,OVC,M,M,4100.00,6000.00,M,M,M,M,M,M,M,M,M,25.23,KFWC 061605Z AUTO 22010KT 10SM BKN041 OVC060 01/M03 A2992 RMK AO2,1228593600000.0,1228593600000.0_FWC
108,4917612,RXE,2008-11-10 21:15,-111.8051,43.8339,37.40,35.60,93.14,200.00,10.00,M,29.86,M,3.00,19.00,OVC,   ,   ,   ,300.00,M,M,M,BR,M,M,M,M,M,M,29.74,KRXE 102115Z AUTO 20010G19KT 3SM BR OVC003 03/02 A2986 RMK AO2,1226365200000.0,1226365200000.0_RXE
109,4030803,VIS,2008-09-16 22:55,-119.3929,36.3187,93.20,53.60,26.31,60.00,5.00,M,29.83,M,10.00,M,CLR,   ,   ,   ,M,M,M,M,M,M,M,M,M,M,M,90.86,KVIS 162255Z AUTO 06005KT 10SM CLR 34/12 A2983 RMK AO1,1221613200000.0,1221613200000.0_VIS
110,3000877,JER,2008-07-11 21:53,-114.4566,42.7267,80.06,19.04,10.18,210.00,10.00,M,30.13,1016.60,10.00,18.00,CLR,   ,   ,   ,M,M,M,M,M,M,M,M,M,M,M,78.00,KJER 112153Z AUTO 21010G18KT 10SM CLR 27/M07 A3013 RMK AO2 SLP166 T02671072,1215820800000.0,1215820800000.0_JER
111,4748457,MUO,2008-10-30 04:55,-115.8724,43.0436,43.34,25.70,49.49,120.00,4.00,M,30.06,1018.40,10.00,M,FEW,   ,   ,   ,20000.00,M,M,M,M,M,M,M,M,M,M,40.66,KMUO 300455Z 12004KT 10SM FEW200 06/M04 A3006 RMK AO2A SLP184 T00631035,1225353600000.0,1225353600000.0_MUO
112,2093644,SHL,2008-05-12 06:14,-95.8353,43.2082,45.00,37.00,73.37,130.00,6.00,M,29.89,M,10.00,M,M,M,M,M,M,M,M,M,M,M,M,M,M,M,M,41.19,M,1210582800000.0,1210582800000.0_SHL
113,4363887,MAE,2008-10-06 10:53,-120.1107,36.9849,51.98,48.02,86.30,0.00,0.00,M,30.04,1017.00,10.00,M,CLR,   ,   ,   ,M,M,M,M,M,M,M,M,M,M,M,51.98,KMAE 061053Z AUTO 00000KT 10SM CLR 11/09 A3004 RMK AO2 SLP170 T01110089 $,1223298000000.0,1223298000000.0_MAE
114,1277434,HNR,2008-03-19 08:55,-95.3355,41.5834,30.20,30.20,100.00,M,0.00,M,30.00,M,2.00,-99.00,M,M,M,M,M,M,M,M,M,M,M,M,M,M,M,30.20,M,1205928000000.0,1205928000000.0_HNR
115,2987537,DEH,2008-07-11 00:58,-91.7433,43.2755,72.00,65.00,78.62,120.00,7.00,M,29.91,M,10.00,M,M,M,M,M,M,M,M,M,M,M,M,M,M,M,M,72.00,M,1215745200000.0,1215745200000.0_DEH
116,4994917,AWG,2008-11-15 21:26,-91.6748,41.2751,37.00,27.00,66.82,310.00,14.00,M,30.07,M,10.00,20.00,M,M,M,M,M,M,M,M,M,M,M,M,M,M,M,27.61,M,1226797200000.0,1226797200000.0_AWG
117,1315479,DEH,2008-03-21 12:24,-91.7433,43.2755,33.00,30.00,88.58,90.00,17.00,M,29.98,M,3.00,24.00,M,M,M,M,M,M,M,M,M,M,M,M,M,M,M,21.39,M,1206115200000.0,1206115200000.0_DEH
118,773254,IDA,2008-02-17 18:00,-112.0708,43.5137,19.40,15.80,85.63,30.00,3.00,M,30.25,M,2.50,M,OVC,   ,   ,   ,200.00,M,M,M,BR,M,M,M,M,M,M,14.28,KIDA 171800Z 03003KT 2 1/2SM BR OVC002 M07/M09 A3025 RMK AO2 CIG 002V006,1203285600000.0,1203285600000.0_IDA
119,5575302,LRJ,2008-12-20 06:03,-96.1923,42.7754,15.00,12.00,87.65,140.00,3.00,M,30.04,M,3.00,M,M,M,M,M,M,M,M,M,M,M,M,M,M,M,M,9.25,M,1229767200000.0,1229767200000.0_LRJ
120,1338714,OLZ,2008-03-23 00:46,-91.976,42.6831,31.00,28.00,88.48,20.00,4.00,M,30.32,M,7.00,M,M,M,M,M,M,M,M,M,M,M,M,M,M,M,M,26.25,M,1206244800000.0,1206244800000.0_OLZ
121,1749580,FOA,2008-04-19 08:05,-88.4531,38.665,50.00,42.80,76.18,210.00,7.00,M,29.78,M,10.00,M,BKN,OVC,M,M,4700.00,6000.00,M,M,M,M,M,M,M,M,M,46.72,KFOA 190805Z AUTO 21007KT 10SM BKN047 OVC060 10/06 A2978 RMK AO2,1208602800000.0,1208602800000.0_FOA
122,5342713,SHL,2008-12-06 17:53,-95.8353,43.2082,20.00,7.00,56.47,340.00,18.00,M,30.13,M,10.00,26.00,M,M,M,M,M,M,M,M,M,M,M,M,M,M,M,3.95,M,1228597200000.0,1228597200000.0_SHL
123,1277955,LRJ,2008-03-19 09:43,-96.1923,42.7754,29.00,27.00,92.12,M,0.00,M,30.00,M,0.25,M,M,M,M,M,M,M,M,M,M,M,M,M,M,M,M,29.00,M,1205931600000.0,1205931600000.0_LRJ
124,3553493,GBG,2008-08-18 11:45,-90.4311,40.938,57.20,55.40,93.69,0.00,0.00,M,30.03,M,5.00,M,CLR,M,M,M,M,M,M,M,BR,M,M,M,M,M,M,57.20,KGBG 181145Z AUTO 00000KT 5SM BR CLR 14/13 A3003 RMK AO2,1219068000000.0,1219068000000.0_GBG
125,3979194,HSB,2008-09-14 00:05,-88.5503,37.8113,86.00,68.00,55.04,210.00,4.00,M,29.78,M,10.00,M,CLR,M,M,M,M,M,M,M,M,M,M,M,M,M,M,89.41,KHSB 140005Z AUTO 21004KT 10SM CLR 30/20 A2978 RMK AO2,1221361200000.0,1221361200000.0_HSB
126,5165980,IKV,2008-11-26 02:03,-93.5695,41.6878,27.00,22.00,M,M,M,M,30.08,M,10.00,M,M,M,M,M,M,M,M,M,M,M,M,M,M,M,M,M,M,1227679200000.0,1227679200000.0_IKV
127,4189076,VTI,2008-09-26 03:54,-92.0248,42.2176,60.00,54.00,80.53,160.00,3.00,M,30.20,M,10.00,M,M,M,M,M,M,M,M,M,M,M,M,M,M,M,M,60.00,M,1222408800000.0,1222408800000.0_VTI
128,3314213,OOA,2008-08-01 20:27,-92.4919,41.2273,89.00,73.00,59.33,320.00,6.00,M,29.89,M,10.00,M,M,M,M,M,M,M,M,M,M,M,M,M,M,M,M,97.02,M,1217631600000.0,1217631600000.0_OOA
129,4762854,AIO,2008-10-31 04:59,-95.0465,41.4059,59.00,48.00,66.83,190.00,7.00,M,30.15,M,10.00,M,M,M,M,M,M,M,M,M,M,M,M,M,M,M,M,59.00,M,1225440000000.0,1225440000000.0_AIO
130,1258677,HHR,2008-03-18 07:53,-118.3352,33.9228,57.02,44.96,63.97,0.00,0.00,M,30.17,1021.60,10.00,M,CLR,   ,   ,   ,M,M,M,M,M,M,M,M,M,M,M,57.02,KHHR 180753Z AUTO 00000KT 10SM CLR 14/07 A3017 RMK AO2 SLP216 T01390072 402390117,1205838000000.0,1205838000000.0_HHR
131,4205818,OXV,2008-09-27 02:03,-93.1114,41.2984,69.00,60.00,73.02,170.00,3.00,M,30.07,M,10.00,M,M,M,M,M,M,M,M,M,M,M,M,M,M,M,M,69.00,M,1222491600000.0,1222491600000.0_OXV
132,3673835,LWV,2008-08-25 22:53,-87.6055,38.7643,80.96,62.96,54.35,90.00,6.00,M,29.91,1012.40,10.00,M,BKN,OVC,M,M,4600.00,6000.00,M,M,M,M,M,M,M,M,M,82.24,KLWV 252253Z AUTO 09006KT 10SM BKN046 OVC060 27/17 A2991 RMK AO2 SLP124 T02720172,1219712400000.0,1219712400000.0_LWV
133,4486155,C75,2008-10-13 11:04,-89.3864,41.0193,66.20,60.80,82.74,140.00,5.00,M,30.25,M,10.00,M,OVC,M,M,M,6000.00,M,M,M,M,M,M,M,M,M,M,66.20,KC75 131104Z AUTO 14005KT 10SM OVC060 19/16 A3025 RMK AO2,1223906400000.0,1223906400000.0_C75
134,3602081,DBQ,2008-08-21 13:53,-90.7091,42.3984,68.00,60.08,75.78,150.00,7.00,M,30.06,1017.40,10.00,M,FEW,   ,   ,M,10000.00,M,M,M,M,M,M,M,M,M,M,68.00,METAR KDBQ 211353Z 15007KT 10SM FEW100 20/16 A3006 RMK AO2 SLP174 T02000156,1219334400000.0,1219334400000.0_DBQ
135,1277192,CAV,2008-03-19 08:43,-93.7593,42.743,34.00,34.00,100.00,330.00,5.00,M,29.95,M,2.50,M,M,M,M,M,M,M,M,M,M,M,M,M,M,M,M,28.77,M,1205928000000.0,1205928000000.0_CAV
136,4080665,MAE,2008-09-19 20:53,-120.1107,36.9849,78.08,50.00,37.38,0.00,0.00,M,29.95,1014.00,10.00,M,CLR,   ,   ,   ,M,M,M,M,M,M,M,M,M,M,M,78.08,KMAE 192053Z AUTO 00000KT 10SM CLR 26/10 A2995 RMK AO2 SLP140 T02560100 58019,1221865200000.0,1221865200000.0_MAE
137,3282179,SBA,2008-07-30 08:53,-119.8436,34.4261,60.98,55.04,80.78,0.00,0.00,M,29.93,1013.40,10.00,M,CLR,   ,   ,   ,M,M,M,M,M,M,M,M,M,M,M,60.98,KSBA 300853Z AUTO 00000KT 10SM CLR 16/13 A2993 RMK AO2 SLP134 T01610128 56008 TSNO,1217415600000.0,1217415600000.0_SBA
138,1701097,MUO,2008-04-16 04:55,-115.8724,43.0436,30.92,14.00,49.01,300.00,8.00,M,30.09,1020.50,10.00,M,CLR,   ,   ,   ,M,M,M,M,M,M,M,M,M,M,M,22.78,KMUO 160455Z 30008KT 10SM CLR M00/M10 A3009 RMK AO2A SLP205 T10061100,1208329200000.0,1208329200000.0_MUO
139,1129436,WVI,2008-03-10 21:53,-121.79,36.9394,69.08,44.96,41.86,220.00,6.00,M,30.23,1023.60,10.00,M,CLR,   ,   ,   ,M,M,M,M,M,M,M,M,M,M,M,69.08,KWVI 102153Z AUTO 22006KT 10SM CLR 21/07 A3023 RMK AO2 SLP236 T02060072,1205197200000.0,1205197200000.0_WVI
140,3374851,SLB,2008-08-06 03:55,-95.2399,42.5972,63.00,58.00,M,M,M,M,30.12,M,10.00,M,M,M,M,M,M,M,M,M,M,M,M,M,M,M,M,M,M,1218002400000.0,1218002400000.0_SLB
141,66298,CIN,2008-01-05 06:08,-94.7889,42.0444,32.00,29.00,88.53,200.00,12.00,M,29.73,M,M,M,M,M,M,M,M,M,M,M,M,M,M,M,M,M,M,22.00,M,1199527200000.0,1199527200000.0_CIN
142,2748122,BIH,2008-06-25 04:56,-118.3636,37.3731,75.92,19.04,11.67,160.00,9.00,M,29.94,1008.40,10.00,M,CLR,   ,   ,   ,M,M,M,M,M,M,M,M,M,M,M,73.76,KBIH 250456Z AUTO 16009KT 10SM CLR 24/M07 A2994 RMK AO2 SLP084 T02441072 TSNO,1214377200000.0,1214377200000.0_BIH
143,1131386,BNW,2008-03-11 00:35,-93.8486,42.0486,32.00,26.60,80.22,170.00,4.00,M,30.33,M,10.00,-99.00,M,M,M,M,M,M,M,M,M,M,M,M,M,M,M,27.42,M,1205208000000.0,1205208000000.0_BNW
144,1389475,IGQ,2008-03-26 09:05,-87.5295,41.5349,33.80,26.60,74.63,270.00,4.00,M,30.05,M,10.00,M,CLR,M,M,M,M,M,M,M,M,M,M,M,M,M,M,29.52,KIGQ 260905Z AUTO 27004KT 10SM CLR 01/M03 A3005 RMK AO2,1206536400000.0,1206536400000.0_IGQ
145,2141238,FFL,2008-05-15 10:44,-91.9834,41.0521,48.00,41.00,76.58,50.00,5.00,M,30.01,M,10.00,M,M,M,M,M,M,M,M,M,M,M,M,M,M,M,M,45.40,M,1210856400000.0,1210856400000.0_FFL
146,4929165,MVN,2008-11-11 15:15,-88.8583,38.3233,39.20,35.60,86.79,100.00,10.00,M,30.23,M,5.00,15.00,BKN,OVC,M,M,600.00,7000.00,M,M,M,M,M,M,M,M,M,32.00,KMVN 111515Z AUTO 10010G15KT 5SM BKN006 OVC070 04/02 A3023 RMK AO1,1226430000000.0,1226430000000.0_MVN
147,1484738,SQI,2008-04-01 18:55,-89.6763,41.7428,42.80,28.40,56.48,320.00,13.00,M,30.18,M,10.00,M,OVC,M,M,M,3100.00,M,M,M,M,M,M,M,M,M,M,35.40,KSQI 011855Z 32013KT 10SM OVC031 06/M02 A3018 RMK AO1,1207083600000.0,1207083600000.0_SQI
148,2033787,DIJ,2008-05-08 06:56,-111.0979,43.7419,37.94,37.94,100.00,30.00,4.00,M,29.90,1008.70,10.00,M,BKN,OVC,   ,   ,2100.00,3000.00,M,M,M,M,M,M,M,M,M,34.36,KDIJ 080656Z AUTO 03004KT 10SM BKN021 OVC030 03/03 A2990 RMK AO2 T00330033 RAE22 P0000 SLP087 $,1210237200000.0,1210237200000.0_DIJ
149,2147973,SPI,2008-05-15 21:18,-89.6839,39.8447,51.80,50.00,93.55,20.00,11.00,0.05,29.99,M,8.00,M,SCT,OVC,M,M,2700.00,6500.00,M,M,-RA,M,M,M,M,M,M,51.80,KSPI 152118Z 02011KT 8SM -RA SCT027 OVC065 11/10 A2999 RMK AO2 P0005,1210896000000.0,1210896000000.0_SPI
150,2550697,SLB,2008-06-12 04:55,-95.2399,42.5972,64.40,60.80,88.09,280.00,8.00,0.02,29.77,M,10.00,-99.00,M,M,M,M,M,M,M,M,M,M,M,M,M,M,M,64.40,M,1213254000000.0,1213254000000.0_SLB
151,822983,SUX,2008-02-20 19:52,-96.3795,42.3917,-0.94,-11.02,61.43,100.00,6.00,M,30.48,1035.60,10.00,M,CLR,   ,   ,M,M,M,M,M,M,M,M,M,M,M,M,-14.14,METAR KSUX 201952Z 10006KT 10SM CLR M18/M24 A3048 RMK AO2 SLP356 T11831239 $,1203548400000.0,1203548400000.0_SUX
152,2476745,ORC,2008-06-06 23:55,-96.0606,42.9895,77.00,51.80,41.42,220.00,14.00,M,29.63,M,10.00,19.00,M,M,M,M,M,M,M,M,M,M,M,M,M,M,M,77.00,M,1212804000000.0,1212804000000.0_ORC
153,5089814,BNW,2008-11-21 18:53,-93.8486,42.0486,23.00,10.00,56.93,190.00,8.00,M,30.50,M,10.00,M,M,M,M,M,M,M,M,M,M,M,M,M,M,M,M,13.03,M,1227304800000.0,1227304800000.0_BNW
154,4364306,PEA,2008-10-06 11:23,-92.9431,41.3989,61.00,59.00,93.12,120.00,6.00,M,30.05,M,10.00,M,M,M,M,M,M,M,M,M,M,M,M,M,M,M,M,61.00,M,1223301600000.0,1223301600000.0_PEA
155,4836695,ICL,2008-11-05 07:36,-95.0223,40.7242,63.00,44.00,49.84,180.00,16.00,M,29.70,M,10.00,22.00,M,M,M,M,M,M,M,M,M,M,M,M,M,M,M,63.00,M,1225882800000.0,1225882800000.0_ICL
156,3196428,LWV,2008-07-24 09:53,-87.6055,38.7643,60.08,55.94,86.18,0.00,0.00,M,30.06,1017.70,5.00,M,CLR,M,M,M,M,M,M,M,BR,M,M,M,M,M,M,60.08,KLWV 240953Z AUTO 00000KT 5SM BR CLR 16/13 A3006 RMK AO2 SLP177 T01560133,1216900800000.0,1216900800000.0_LWV
157,3195736,MUT,2008-07-24 08:54,-91.1406,41.367,70.00,68.00,M,M,M,M,30.04,M,10.00,M,M,M,M,M,M,M,M,M,M,M,M,M,M,M,M,M,M,1216897200000.0,1216897200000.0_MUT
158,916690,SHL,2008-02-26 04:43,-95.8353,43.2082,17.00,12.00,80.36,340.00,22.00,M,30.14,M,7.00,M,M,M,M,M,M,M,M,M,M,M,M,M,M,M,M,-1.51,M,1204012800000.0,1204012800000.0_SHL
159,3408685,LPC,2008-08-08 13:15,-120.4675,34.6656,55.40,53.60,93.65,290.00,5.00,M,29.92,M,10.00,M,OVC,   ,   ,   ,800.00,M,M,M,M,M,M,M,M,M,M,55.40,KLPC 081315Z AUTO 29005KT 10SM OVC008 13/12 A2992 RMK AO1 PNO,1218211200000.0,1218211200000.0_LPC
160,5259744,IPL,2008-12-01 16:53,-115.5787,32.8342,66.02,42.08,41.67,0.00,0.00,M,30.13,1020.20,10.00,M,CLR,   ,   ,   ,M,M,M,M,M,M,M,M,M,M,M,66.02,KIPL 011653Z AUTO 00000KT 10SM CLR 19/06 A3013 RMK AO2 SLP202 T01890056,1228161600000.0,1228161600000.0_IPL
161,813040,FSW,2008-02-20 06:28,-91.3267,40.6615,22.00,19.00,88.02,290.00,9.00,M,30.04,M,10.00,M,M,M,M,M,M,M,M,M,M,M,M,M,M,M,M,11.08,M,1203501600000.0,1203501600000.0_FSW
162,4481626,ORC,2008-10-13 04:43,-96.0606,42.9895,68.00,64.00,87.03,170.00,8.00,0.01,30.01,M,10.00,M,M,M,M,M,M,M,M,M,M,M,M,M,M,M,M,68.00,M,1223881200000.0,1223881200000.0_ORC
163,4299671,EOK,2008-10-02 19:33,-91.4274,40.4615,67.00,49.00,52.37,260.00,6.00,M,29.97,M,10.00,15.00,M,M,M,M,M,M,M,M,M,M,M,M,M,M,M,67.00,M,1222984800000.0,1222984800000.0_EOK
164,4666804,ORC,2008-10-24 01:35,-96.0606,42.9895,42.80,41.00,93.30,90.00,6.00,M,30.04,M,5.00,-99.00,M,M,M,M,M,M,M,M,M,M,M,M,M,M,M,38.54,M,1224820800000.0,1224820800000.0_ORC
165,2223320,SQL,2008-05-21 02:47,-122.2483,37.5119,60.80,42.80,51.45,230.00,20.00,M,29.99,M,15.00,30.00,FEW,   ,   ,   ,1100.00,M,M,M,M,M,M,M,M,M,M,60.80,KSQL 210247Z 23020G30KT 15SM FEW011 16/06 A2999,1211346000000.0,1211346000000.0_SQL
166,1040106,RNM,2008-03-05 07:25,-116.9153,33.0392,39.20,35.60,86.79,0.00,0.00,M,29.99,M,2.00,M,CLR,   ,   ,   ,M,M,M,M,BR,M,M,M,M,M,M,39.20,KRNM 050725Z 00000KT 2SM BR CLR 04/02 A2999 RMK AO2,1204714800000.0,1204714800000.0_RNM
167,4833445,SHL,2008-11-05 02:15,-95.8353,43.2082,64.40,51.80,63.60,170.00,16.00,M,29.67,M,10.00,22.00,M,M,M,M,M,M,M,M,M,M,M,M,M,M,M,64.40,M,1225864800000.0,1225864800000.0_SHL
168,1554266,CIN,2008-04-06 06:36,-94.7889,42.0444,47.00,37.00,68.02,160.00,12.00,M,29.74,M,10.00,16.00,M,M,M,M,M,M,M,M,M,M,M,M,M,M,M,41.09,M,1207472400000.0,1207472400000.0_CIN
169,4163276,DEH,2008-09-24 15:55,-91.7433,43.2755,68.00,62.60,M,M,M,M,30.32,M,10.00,-99.00,M,M,M,M,M,M,M,M,M,M,M,M,M,M,M,M,M,1222279200000.0,1222279200000.0_DEH
170,700686,EDW,2008-02-13 02:55,-117.8837,34.9054,56.84,31.28,37.65,320.00,3.00,M,30.06,1018.90,45.00,M,FEW,   ,   ,   ,25000.00,M,M,M,M,M,M,M,M,M,M,56.84,KEDW 130255Z 32003KT 45SM FEW250 14/M00 A3006 RMK AO2A SLP189 T01381004 56007,1202882400000.0,1202882400000.0_EDW
171,2385372,ENL,2008-06-01 03:05,-89.0911,38.5151,69.80,60.80,73.09,0.00,0.00,M,29.95,M,10.00,M,CLR,M,M,M,M,M,M,M,M,M,M,M,M,M,M,69.80,KENL 010305Z AUTO 00000KT 10SM CLR 21/16 A2995 RMK AO2 LTG DSNT S,1212300000000.0,1212300000000.0_ENL
172,1848757,AWG,2008-04-25 18:17,-91.6748,41.2751,75.00,65.00,71.08,200.00,20.00,M,29.57,M,10.00,26.00,M,M,M,M,M,M,M,M,M,M,M,M,M,M,M,75.00,M,1209157200000.0,1209157200000.0_AWG
173,990686,MXO,2008-03-02 08:03,-91.1605,42.2204,39.00,33.00,78.86,130.00,9.00,M,29.80,M,10.00,M,M,M,M,M,M,M,M,M,M,M,M,M,M,M,M,32.22,M,1204459200000.0,1204459200000.0_MXO
174,5439850,SHL,2008-12-12 05:55,-95.8353,43.2082,19.40,17.60,92.57,30.00,5.00,M,30.18,M,10.00,-99.00,M,M,M,M,M,M,M,M,M,M,M,M,M,M,M,11.43,M,1229072400000.0,1229072400000.0_SHL
175,1982302,TNU,2008-05-04 21:37,-93.01899999999999,41.6701,71.00,27.00,19.25,220.00,15.00,M,29.98,M,10.00,20.00,M,M,M,M,M,M,M,M,M,M,M,M,M,M,M,68.70,M,1209945600000.0,1209945600000.0_TNU
176,2360074,EOK,2008-05-30 05:03,-91.4274,40.4615,71.00,60.00,68.20,140.00,4.00,M,29.91,M,10.00,M,M,M,M,M,M,M,M,M,M,M,M,M,M,M,M,71.00,M,1212134400000.0,1212134400000.0_EOK
177,2042550,OXV,2008-05-08 20:17,-93.1114,41.2984,68.00,36.00,30.69,100.00,9.00,M,29.75,M,10.00,14.00,M,M,M,M,M,M,M,M,M,M,M,M,M,M,M,68.00,M,1210287600000.0,1210287600000.0_OXV
178,3908455,OAK,2008-09-09 06:53,-122.2207,37.7213,60.98,55.94,83.47,300.00,9.00,M,29.78,1008.40,10.00,M,OVC,   ,   ,   ,1300.00,M,M,M,M,M,M,M,M,M,M,60.98,KOAK 090653Z 30009KT 10SM OVC013 16/13 A2978 RMK AO2 SLP084 T01610133,1220950800000.0,1220950800000.0_OAK
179,3365696,C75,2008-08-05 12:45,-89.3864,41.0193,71.60,68.00,88.43,330.00,4.00,0.02,29.95,M,10.00,M,SCT,SCT,BKN,M,1300.00,2600.00,12000.00,M,-RA,M,M,M,M,M,M,72.62,KC75 051245Z AUTO 33004KT 10SM -RA SCT013 SCT026 BKN120 22/20 A2995 RMK AO2 P0002 LTG DSNT SW AND W,1217948400000.0,1217948400000.0_C75
180,1141991,AIO,2008-03-11 15:32,-95.0465,41.4059,43.00,31.00,62.31,220.00,13.00,M,30.03,M,10.00,20.00,M,M,M,M,M,M,M,M,M,M,M,M,M,M,M,35.66,M,1205262000000.0,1205262000000.0_AIO
181,4857036,M30,2008-11-06 19:25,-88.7506,37.1859,64.40,59.00,82.62,170.00,5.00,M,29.86,M,10.00,M,OVC,M,M,M,3600.00,M,M,M,M,M,M,M,M,M,M,64.40,KM30 061925Z AUTO 17005KT 10SM OVC036 18/15 A2986 RMK AO2,1226012400000.0,1226012400000.0_M30
182,4695111,CIN,2008-10-26 00:24,-94.7889,42.0444,57.00,46.00,66.59,240.00,10.00,M,29.69,M,10.00,M,M,M,M,M,M,M,M,M,M,M,M,M,M,M,M,57.00,M,1224990000000.0,1224990000000.0_CIN
183,1785358,SZT,2008-04-21 15:53,-116.56,48.2994,30.20,26.60,86.28,180.00,5.00,M,29.96,M,7.00,M,BKN,OVC,   ,   ,2600.00,3300.00,M,M,-SN,M,M,M,M,M,M,24.26,KSZT 211553Z AUTO 18005KT 7SM -SN BKN026 OVC033 M01/M03 A2996 RMK AO2,1208800800000.0,1208800800000.0_SZT
184,3352869,77M,2008-08-04 14:42,-113.334,42.316,62.60,42.80,48.28,0.00,0.00,M,M,M,25.00,M,CLR,   ,   ,   ,M,M,M,M,M,M,M,M,M,M,M,62.60,K77M 041442Z 00000KT 25SM SKC 17/06 RMK SLPNO NOSPECI,1217869200000.0,1217869200000.0_77M
185,1638445,IKV,2008-04-12 00:35,-93.5695,41.6878,35.60,33.80,93.08,310.00,18.00,M,29.57,M,10.00,26.00,M,M,M,M,M,M,M,M,M,M,M,M,M,M,M,24.49,M,1207969200000.0,1207969200000.0_IKV
186,3445907,SAC,2008-08-11 02:53,-121.495,38.5069,82.94,46.94,28.44,0.00,0.00,M,29.85,1010.90,10.00,M,CLR,   ,   ,   ,M,M,M,M,M,M,M,M,M,M,M,81.04,KSAC 110253Z 00000KT 10SM CLR 28/08 A2985 RMK AO2 SLP109 T02830083 55011,1218430800000.0,1218430800000.0_SAC
187,2216296,SNA,2008-05-20 14:53,-117.8682,33.6757,64.94,59.00,81.07,M,4.00,M,29.96,1014.50,7.00,M,BKN,OVC,   ,   ,1600.00,2000.00,M,M,M,M,M,M,M,M,M,64.94,KSNA 201453Z VRB04KT 7SM BKN016 OVC020 18/15 A2996 RMK AO2 SLP145 T01830150 51015,1211302800000.0,1211302800000.0_SNA
188,1439239,AXA,2008-03-29 14:55,-94.2724,43.0796,33.80,30.20,86.49,160.00,20.00,M,30.23,M,10.00,24.00,M,M,M,M,M,M,M,M,M,M,M,M,M,M,M,21.53,M,1206813600000.0,1206813600000.0_AXA
189,3906951,CKP,2008-09-09 04:25,-95.5538,42.7304,49.00,48.00,M,M,M,M,30.19,M,10.00,M,M,M,M,M,M,M,M,M,M,M,M,M,M,M,M,M,M,1220943600000.0,1220943600000.0_CKP
190,1546366,OXV,2008-04-05 18:16,-93.1114,41.2984,63.00,39.00,41.09,190.00,13.00,M,29.92,M,10.00,M,M,M,M,M,M,M,M,M,M,M,M,M,M,M,M,63.00,M,1207429200000.0,1207429200000.0_OXV
191,3428440,CUL,2008-08-09 21:51,-88.1231,38.0895,80.60,62.60,54.30,300.00,6.00,M,29.94,M,10.00,M,CLR,M,M,M,M,M,M,M,M,M,M,M,M,M,M,81.84,KCUL 092151Z AUTO 30006KT 10SM CLR 27/17 A2994 RMK AO2,1218326400000.0,1218326400000.0_CUL
192,2317230,PNT,2008-05-27 09:25,-88.6239,40.9244,51.80,44.60,76.34,50.00,16.00,M,29.97,M,10.00,20.00,CLR,M,M,M,M,M,M,M,M,M,M,M,M,M,M,51.80,KPNT 270925Z AUTO 05016G20KT 10SM CLR 11/07 A2997 RMK AO2,1211889600000.0,1211889600000.0_PNT
193,3562646,IOW,2008-08-19 01:52,-91.5445,41.6394,75.02,62.06,64.07,210.00,3.00,M,30.01,1016.00,10.00,M,OVC,   ,   ,M,10000.00,M,M,M,M,M,M,M,M,M,M,75.02,METAR KIOW 190152Z AUTO 21003KT 10SM OVC100 24/17 A3001 RMK AO2 SLP160 T02390167,1219118400000.0,1219118400000.0_IOW
194,5440046,EBS,2008-12-12 06:21,-93.8691,42.4392,19.00,13.00,77.06,350.00,9.00,M,30.17,M,10.00,M,M,M,M,M,M,M,M,M,M,M,M,M,M,M,M,7.35,M,1229076000000.0,1229076000000.0_EBS
195,3330003,LWV,2008-08-02 22:53,-87.6055,38.7643,86.00,62.96,46.19,10.00,7.00,M,29.88,1011.10,10.00,M,CLR,M,M,M,M,M,M,M,M,M,M,M,M,M,M,86.87,KLWV 022253Z AUTO 01007KT 10SM CLR 30/17 A2988 RMK AO2 SLP111 T03000172,1217725200000.0,1217725200000.0_LWV
196,804927,OLZ,2008-02-19 18:48,-91.976,42.6831,7.00,M,M,260.00,8.00,M,30.02,M,10.00,M,M,M,M,M,M,M,M,M,M,M,M,M,M,M,M,M,M,1203458400000.0,1203458400000.0_OLZ
197,1157714,CAV,2008-03-12 13:15,-93.7593,42.743,37.40,33.80,86.69,130.00,12.00,M,29.79,M,10.00,-99.00,M,M,M,M,M,M,M,M,M,M,M,M,M,M,M,28.87,M,1205341200000.0,1205341200000.0_CAV
198,2573396,WJF,2008-06-13 19:56,-118.2186,34.7411,93.92,26.96,9.14,0.00,0.00,M,30.00,1013.80,10.00,M,CLR,   ,   ,   ,M,M,M,M,M,M,M,M,M,M,M,88.30,KWJF 131956Z 00000KT 10SM CLR 34/M03 A3000 RMK AO2 SLP138 T03441028,1213394400000.0,1213394400000.0_WJF
199,1836126,MXO,2008-04-24 22:27,-91.1605,42.2204,65.00,62.00,90.01,160.00,9.00,0.01,29.80,M,4.00,M,M,M,M,M,M,M,M,M,M,M,M,M,M,M,M,65.00,M,1209085200000.0,1209085200000.0_MXO
200,3093352,VYS,2008-07-17 23:05,-89.1531,41.3519,87.80,69.80,55.29,190.00,7.00,M,30.03,M,10.00,M,CLR,M,M,M,M,M,M,M,M,M,M,M,M,M,M,92.71,KVYS 172305Z AUTO 19007KT 10SM CLR 31/21 A3003 RMK AO2,1216346400000.0,1216346400000.0_VYS
201,5487430,JOT,2008-12-15 01:45,-88.1756,41.5177,49.46,44.60,83.26,160.00,18.00,M,29.64,M,7.00,26.00,OVC,M,M,M,2100.00,M,M,M,RA,M,M,M,M,M,M,42.73,KJOT 150145Z AUTO 16018G26KT 7SM RA OVC021 10/07 A2964 RMK AO2 T00970070,1229317200000.0,1229317200000.0_JOT
202,1596852,ARR,2008-04-09 01:08,-88.48,41.77,42.80,42.80,100.00,90.00,9.00,0.03,29.71,M,2.00,M,SCT,BKN,OVC,M,500.00,900.00,1500.00,M,RA BR,M,M,M,M,M,M,36.94,KARR 090108Z 09009KT 2SM RA BR SCT005 BKN009 OVC015 06/06 A2971 RMK AO2 CIG 006V011 P0003,1207713600000.0,1207713600000.0_ARR
203,3746078,FCH,2008-08-30 03:53,-119.8203,36.7321,93.92,50.00,22.53,270.00,3.00,M,29.64,1003.20,10.00,M,BKN,   ,   ,   ,20000.00,M,M,M,M,M,M,M,M,M,M,90.81,KFAT 300353Z 27003KT 10SM BKN200 34/10 A2964 RMK AO2 SLP032 T03440100 $,1220076000000.0,1220076000000.0_FCH
204,3279347,CSQ,2008-07-30 03:55,-94.3608,41.0188,70.00,67.00,90.21,220.00,3.00,M,29.88,M,10.00,M,M,M,M,M,M,M,M,M,M,M,M,M,M,M,M,70.00,M,1217397600000.0,1217397600000.0_CSQ
205,1987010,VYS,2008-05-05 05:26,-89.1531,41.3519,55.40,37.40,50.64,220.00,7.00,M,30.04,M,10.00,M,CLR,M,M,M,M,M,M,M,M,M,M,M,M,M,M,55.40,KVYS 050526Z AUTO 22007KT 10SM CLR 13/03 A3004 RMK AO2,1209974400000.0,1209974400000.0_VYS
206,5000924,MER,2008-11-16 06:55,-120.5682,37.3805,48.20,M,M,0.00,0.00,M,30.11,M,3.00,M,CLR,   ,   ,   ,M,M,M,M,M,M,M,M,M,M,M,M,KMER 160655Z AUTO 00000KT 3SM CLR 09/ A3011 RMK AO1,1226829600000.0,1226829600000.0_MER
207,5232741,EBS,2008-11-29 19:35,-93.8691,42.4392,35.60,33.80,93.08,210.00,4.00,M,29.72,M,4.00,-99.00,M,M,M,M,M,M,M,M,M,M,M,M,M,M,M,31.62,M,1227999600000.0,1227999600000.0_EBS
208,1088956,EBS,2008-03-08 10:46,-93.8691,42.4392,M,-3.00,M,190.00,3.00,M,30.09,M,10.00,M,M,M,M,M,M,M,M,M,M,M,M,M,M,M,M,M,M,1204984800000.0,1204984800000.0_EBS
209,2543620,PPQ,2008-06-11 17:26,-90.7784,39.6389,80.60,64.40,57.84,160.00,15.00,M,29.95,M,10.00,19.00,CLR,M,M,M,M,M,M,M,M,M,M,M,M,M,M,82.27,KPPQ 111726Z AUTO 16015G19KT 10SM CLR 27/18 A2995 RMK AO2,1213214400000.0,1213214400000.0_PPQ
210,4450088,3LF,2008-10-11 09:45,-89.6746,39.1625,59.00,50.00,72.01,120.00,6.00,M,30.17,M,10.00,M,CLR,M,M,M,M,M,M,M,M,M,M,M,M,M,M,59.00,K3LF 110945Z AUTO 12006KT 10SM CLR 15/10 A3017 RMK AO2,1223726400000.0,1223726400000.0_3LF
211,2351548,OLZ,2008-05-29 16:06,-91.976,42.6831,49.00,46.00,89.33,110.00,13.00,0.03,30.17,M,10.00,M,M,M,M,M,M,M,M,M,M,M,M,M,M,M,M,43.35,M,1212087600000.0,1212087600000.0_OLZ
212,2197897,DKB,2008-05-19 08:25,-88.7057,41.9338,44.60,33.80,65.61,0.00,0.00,M,29.70,M,10.00,M,CLR,M,M,M,M,M,M,M,M,M,M,M,M,M,M,44.60,KDKB 190825Z AUTO 00000KT 10SM CLR 07/01 A2970 RMK AO2,1211194800000.0,1211194800000.0_DKB
213,5753401,IKV,2008-12-30 18:33,-93.5695,41.6878,40.00,33.00,75.84,300.00,20.00,M,29.73,M,10.00,26.00,M,M,M,M,M,M,M,M,M,M,M,M,M,M,M,29.76,M,1230674400000.0,1230674400000.0_IKV
214,514739,HNR,2008-02-01 17:04,-95.3355,41.5834,23.00,22.00,95.88,160.00,5.00,M,30.01,M,2.50,M,M,M,M,M,M,M,M,M,M,M,M,M,M,M,M,15.71,M,1201899600000.0,1201899600000.0_HNR
215,4421900,FWC,2008-10-09 18:05,-88.4126,38.3786,73.40,41.00,31.05,70.00,3.00,M,30.09,M,10.00,M,CLR,M,M,M,M,M,M,M,M,M,M,M,M,M,M,71.90,KFWC 091805Z AUTO 07003KT 10SM CLR 23/05 A3009 RMK AO2 TSNO,1223586000000.0,1223586000000.0_FWC
216,4079668,AIO,2008-09-19 19:33,-95.0465,41.4059,78.00,59.00,52.05,210.00,11.00,M,30.12,M,10.00,16.00,M,M,M,M,M,M,M,M,M,M,M,M,M,M,M,78.00,M,1221861600000.0,1221861600000.0_AIO
217,1783454,EBS,2008-04-21 12:55,-93.8691,42.4392,55.40,50.00,81.99,150.00,8.00,M,29.85,M,10.00,-99.00,M,M,M,M,M,M,M,M,M,M,M,M,M,M,M,55.40,M,1208790000000.0,1208790000000.0_EBS
218,5467628,CCY,2008-12-13 20:33,-92.6132,43.073,40.00,33.00,75.84,160.00,12.00,M,29.50,M,10.00,16.00,M,M,M,M,M,M,M,M,M,M,M,M,M,M,M,32.18,M,1229212800000.0,1229212800000.0_CCY
219,2265314,TVK,2008-05-23 23:30,-92.8983,40.6832,55.00,51.00,86.34,60.00,13.00,0.77,30.02,M,10.00,17.00,M,M,M,M,M,M,M,M,M,M,M,M,M,M,M,55.00,M,1211594400000.0,1211594400000.0_TVK
220,551639,AIO,2008-02-03 18:55,-95.0465,41.4059,32.00,26.60,80.22,170.00,3.00,M,29.96,M,0.50,-99.00,M,M,M,M,M,M,M,M,M,M,M,M,M,M,M,28.69,M,1202076000000.0,1202076000000.0_AIO
221,4974315,PRG,2008-11-14 13:05,-87.67,39.7,50.00,46.40,87.37,190.00,13.00,0.01,29.69,M,4.00,M,SCT,BKN,OVC,M,1200.00,3500.00,4100.00,M,-RA,M,M,M,M,M,M,44.63,KPRG 141305Z AUTO 19013KT 4SM -RA SCT012 BKN035 OVC041 10/08 A2969 RMK AO2 P0001,1226682000000.0,1226682000000.0_PRG
222,4703369,DNV,2008-10-26 15:25,-87.5955,40.1997,53.60,42.80,66.70,260.00,18.00,M,29.84,M,10.00,21.00,CLR,M,M,M,M,M,M,M,M,M,M,M,M,M,M,53.60,KDNV 261525Z AUTO 26018G21KT 10SM CLR 12/06 A2984 RMK AO2,1225047600000.0,1225047600000.0_DNV
223,4415593,DVO,2008-10-09 09:50,-122.5561,38.1436,57.20,44.60,62.69,260.00,7.00,M,29.93,M,M,M,CLR,   ,   ,   ,M,M,M,M,M,M,M,M,M,M,M,57.20,KDVO 090950Z AUTO 26007KT 040V040 CLR 14/07 A2993 RMK AO2,1223553600000.0,1223553600000.0_DVO
224,3062215,MUT,2008-07-16 01:15,-91.1406,41.367,82.40,73.40,74.28,190.00,3.00,M,30.02,M,10.00,-99.00,M,M,M,M,M,M,M,M,M,M,M,M,M,M,M,88.26,M,1216180800000.0,1216180800000.0_MUT
225,599618,CNC,2008-02-06 15:34,-93.3608,41.0184,27.00,22.00,81.17,340.00,20.00,M,29.72,M,0.75,M,M,M,M,M,M,M,M,M,M,M,M,M,M,M,M,12.50,M,1202324400000.0,1202324400000.0_CNC
226,4582936,IKK,2008-10-19 02:26,-87.8463,41.0714,44.60,39.20,81.20,0.00,0.00,M,30.33,M,10.00,M,CLR,M,M,M,M,M,M,M,M,M,M,M,M,M,M,44.60,KIKK 190226Z AUTO 00000KT 10SM CLR 07/04 A3033 RMK AO2,1224392400000.0,1224392400000.0_IKK
227,5263877,CQT,2008-12-01 22:47,-118.2912,34.0235,71.06,53.96,54.73,M,3.00,M,30.05,1017.30,8.00,M,CLR,   ,   ,   ,M,M,M,M,M,M,M,M,M,M,M,71.06,KCQT 012247Z AUTO VRB03KT 8SM CLR 22/12 A3005 RMK AO2 SLP173 T02170122 TSNO $,1228183200000.0,1228183200000.0_CQT
228,3386271,RDK,2008-08-06 23:25,-95.2624,41.0106,80.00,63.00,56.16,50.00,4.00,M,30.10,M,10.00,M,M,M,M,M,M,M,M,M,M,M,M,M,M,M,M,81.41,M,1218074400000.0,1218074400000.0_RDK
229,4174613,LRJ,2008-09-25 08:23,-96.1923,42.7754,65.00,58.00,78.06,170.00,9.00,M,30.20,M,10.00,16.00,M,M,M,M,M,M,M,M,M,M,M,M,M,M,M,65.00,M,1222340400000.0,1222340400000.0_LRJ
230,2667355,CAV,2008-06-19 19:57,-93.7593,42.743,86.00,50.00,M,M,M,M,29.89,M,10.00,M,M,M,M,M,M,M,M,M,M,M,M,M,M,M,M,M,M,1213912800000.0,1213912800000.0_CAV
231,4549017,DEH,2008-10-17 03:13,-91.7433,43.2755,39.00,35.00,M,M,M,M,30.32,M,10.00,M,M,M,M,M,M,M,M,M,M,M,M,M,M,M,M,M,M,1224223200000.0,1224223200000.0_DEH
232,3763788,AXA,2008-08-31 03:35,-94.2724,43.0796,68.00,62.60,82.86,160.00,8.00,M,30.05,M,10.00,-99.00,M,M,M,M,M,M,M,M,M,M,M,M,M,M,M,68.00,M,1220162400000.0,1220162400000.0_AXA
233,4131361,EBS,2008-09-22 18:55,-93.8691,42.4392,68.00,62.60,82.86,160.00,9.00,M,30.20,M,5.00,-99.00,M,M,M,M,M,M,M,M,M,M,M,M,M,M,M,68.00,M,1222117200000.0,1222117200000.0_EBS
234,5489913,OLZ,2008-12-15 05:03,-91.976,42.6831,4.00,-5.00,65.49,280.00,24.00,M,29.90,M,7.00,29.00,M,M,M,M,M,M,M,M,M,M,M,M,M,M,M,-19.72,M,1229331600000.0,1229331600000.0_OLZ
235,2930233,EUL,2008-07-07 06:35,-116.6358,43.6419,69.80,46.40,43.13,300.00,7.00,M,29.95,M,10.00,M,CLR,   ,   ,   ,M,M,M,M,M,M,M,M,M,M,M,69.80,KEUL 070635Z AUTO 30007KT 10SM CLR 21/08 A2995 RMK AO1,1215421200000.0,1215421200000.0_EUL
236,5204855,SNS,2008-11-28 05:13,-121.6093,36.6635,53.60,50.00,87.56,330.00,3.00,M,30.18,M,7.00,M,BKN,   ,   ,   ,2200.00,M,M,M,M,M,M,M,M,M,M,53.60,KSNS 280513Z AUTO 33003KT 7SM BKN022 12/10 A3018 RMK AO2,1227862800000.0,1227862800000.0_SNS
237,3880693,ADU,2008-09-07 09:14,-94.9204,41.6994,43.00,42.00,M,M,M,M,30.07,M,1.75,M,M,M,M,M,M,M,M,M,M,M,M,M,M,M,M,M,M,1220788800000.0,1220788800000.0_ADU
238,4273045,SQI,2008-10-01 06:15,-89.6763,41.7428,46.40,39.20,75.84,340.00,6.00,M,29.97,M,10.00,M,CLR,M,M,M,M,M,M,M,M,M,M,M,M,M,M,42.87,KSQI 010615Z 34006KT 10SM CLR 08/04 A2997 RMK AO1 TSNO,1222851600000.0,1222851600000.0_SQI
239,3633386,HNR,2008-08-23 13:23,-95.3355,41.5834,61.00,54.00,M,M,M,M,30.23,M,10.00,M,M,M,M,M,M,M,M,M,M,M,M,M,M,M,M,M,M,1219507200000.0,1219507200000.0_HNR
240,5055387,HNR,2008-11-19 18:15,-95.3355,41.5834,51.80,33.80,50.08,340.00,18.00,M,30.06,M,10.00,22.00,M,M,M,M,M,M,M,M,M,M,M,M,M,M,M,51.80,M,1227132000000.0,1227132000000.0_HNR
241,4883064,MYL,2008-11-08 14:38,-116.1017,44.8889,33.80,33.80,100.00,250.00,3.00,M,30.08,M,1.75,M,FEW,SCT,   ,   ,300.00,4900.00,M,M,BR,M,M,M,M,M,M,30.75,KMYL 081438Z AUTO 25003KT 1 3/4SM BR FEW003 SCT049 01/01 A3008 RMK AO2 FZRANO,1226167200000.0,1226167200000.0_MYL
242,4990933,MXO,2008-11-15 15:05,-91.1605,42.2204,35.00,29.00,78.51,330.00,10.00,M,30.00,M,10.00,19.00,M,M,M,M,M,M,M,M,M,M,M,M,M,M,M,26.73,M,1226775600000.0,1226775600000.0_MXO
243,5009847,PRO,2008-11-16 20:56,-94.1637,41.8278,44.00,29.00,55.29,320.00,14.00,M,30.05,M,10.00,21.00,M,M,M,M,M,M,M,M,M,M,M,M,M,M,M,36.63,M,1226880000000.0,1226880000000.0_PRO
244,3307188,CBF,2008-08-01 08:55,-95.7604,41.2611,75.20,71.60,88.59,360.00,7.00,M,29.85,M,7.00,-99.00,M,M,M,M,M,M,M,M,M,M,M,M,M,M,M,76.58,M,1217588400000.0,1217588400000.0_CBF
245,5080456,FEP,2008-11-21 06:05,-89.58200000000001,42.2462,18.14,6.26,59.13,330.00,11.00,M,30.44,M,10.00,M,CLR,M,M,M,M,M,M,M,M,M,M,M,M,M,M,4.95,KFEP 210605Z AUTO 33011KT 10SM CLR M08/M14 A3044 RMK AO2 T10771143,1227261600000.0,1227261600000.0_FEP
246,2785355,FOD,2008-06-27 16:35,-94.2032,42.5497,78.80,69.80,73.95,250.00,11.00,M,29.73,M,10.00,-99.00,M,M,M,M,M,M,M,M,M,M,M,M,M,M,M,81.39,M,1214593200000.0,1214593200000.0_FOD
247,1178940,PEA,2008-03-13 18:43,-92.9431,41.3989,54.00,37.00,52.45,260.00,6.00,M,29.80,M,10.00,M,M,M,M,M,M,M,M,M,M,M,M,M,M,M,M,54.00,M,1205445600000.0,1205445600000.0_PEA
248,4973573,NJK,2008-11-14 11:56,-115.6717,32.8292,59.00,33.98,38.83,300.00,6.00,M,29.88,1013.40,10.00,M,CLR,   ,   ,   ,M,M,M,M,M,M,M,M,M,M,M,59.00,KNJK 141156Z AUTO 30006KT 10SM CLR 15/01 A2988 RMK AO2 SLP134 T01500011 10194 20144 53007 TSNO,1226674800000.0,1226674800000.0_NJK
249,924617,FSW,2008-02-26 17:33,-91.3267,40.6615,25.00,15.00,65.30,330.00,16.00,M,30.06,M,10.00,23.00,M,M,M,M,M,M,M,M,M,M,M,M,M,M,M,11.29,M,1204059600000.0,1204059600000.0_FSW
250,1365371,EOK,2008-03-24 18:46,-91.4274,40.4615,44.00,23.00,43.11,170.00,9.00,M,30.32,M,10.00,M,M,M,M,M,M,M,M,M,M,M,M,M,M,M,M,38.44,M,1206396000000.0,1206396000000.0_EOK
251,278418,NJK,2008-01-18 04:56,-115.6717,32.8292,39.02,8.96,28.40,240.00,4.00,M,30.15,1022.40,10.00,M,FEW,   ,   ,   ,20000.00,M,M,M,M,M,M,M,M,M,M,35.62,KNJK 180456Z 24004KT 10SM FEW200 04/M13 A3015 RMK AO2 SLP224 T00391128 $,1200643200000.0,1200643200000.0_NJK
252,3064957,SZT,2008-07-16 05:08,-116.56,48.2994,60.80,41.00,48.00,0.00,0.00,M,29.93,M,10.00,M,CLR,   ,   ,   ,M,M,M,M,M,M,M,M,M,M,M,60.80,KSZT 160508Z AUTO 00000KT 10SM CLR 16/05 A2993 RMK AO2,1216195200000.0,1216195200000.0_SZT
253,148071,SLO,2008-01-10 08:54,-88.9642,38.6429,37.40,35.60,93.14,90.00,5.00,M,29.94,M,7.00,M,CLR,M,M,M,M,M,M,M,M,M,M,M,M,M,M,32.81,KSLO 100854Z AUTO 09005KT 7SM CLR 03/02 A2994 RMK AO2,1199966400000.0,1199966400000.0_SLO
254,5281455,GBG,2008-12-03 00:45,-90.4311,40.938,37.40,30.20,74.98,170.00,9.00,M,29.81,M,10.00,M,CLR,M,M,M,M,M,M,M,M,M,M,M,M,M,M,30.23,KGBG 030045Z AUTO 17009KT 10SM CLR 03/M01 A2981 RMK AO2,1228276800000.0,1228276800000.0_GBG
255,5368409,FSW,2008-12-08 03:53,-91.3267,40.6615,23.00,13.00,65.03,140.00,6.00,M,29.98,M,10.00,M,M,M,M,M,M,M,M,M,M,M,M,M,M,M,M,14.69,M,1228719600000.0,1228719600000.0_FSW
256,1601956,1H2,2008-04-09 14:05,-88.5335,39.0705,42.80,37.40,81.07,330.00,8.00,M,30.16,M,10.00,M,OVC,M,M,M,1200.00,M,M,M,M,M,M,M,M,M,M,37.42,K1H2 091405Z AUTO 33008KT 10SM OVC012 06/03 A3016 RMK AO2,1207760400000.0,1207760400000.0_1H2
257,5683638,RDK,2008-12-26 16:55,-95.2624,41.0106,48.20,44.60,87.28,170.00,11.00,M,29.58,M,4.00,-99.00,M,M,M,M,M,M,M,M,M,M,M,M,M,M,M,42.94,M,1230321600000.0,1230321600000.0_RDK
258,335786,VYS,2008-01-21 19:25,-89.1531,41.3519,28.40,10.40,46.32,150.00,20.00,M,30.30,M,10.00,M,SCT,BKN,BKN,M,7000.00,8500.00,11000.00,M,M,M,M,M,M,M,M,14.36,KVYS 211925Z AUTO 15020KT 10SM SCT070 BKN085 BKN110 M02/M12 A3030 RMK AO2,1200956400000.0,1200956400000.0_VYS
259,1464109,BFL,2008-03-31 03:54,-119.0542,35.4344,55.04,28.94,36.54,30.00,5.00,M,30.05,1017.50,10.00,M,CLR,   ,   ,   ,M,M,M,M,M,M,M,M,M,M,M,55.04,KBFL 310354Z 03005KT 10SM CLR 13/M02 A3005 RMK AO2 SLP175 T01281017,1206943200000.0,1206943200000.0_BFL
260,3324224,HSB,2008-08-02 13:05,-88.5503,37.8113,82.40,77.00,83.77,0.00,0.00,M,29.88,M,7.00,M,CLR,M,M,M,M,M,M,M,M,M,M,M,M,M,M,90.85,KHSB 021305Z AUTO 00000KT 7SM CLR 28/25 A2988 RMK AO2,1217692800000.0,1217692800000.0_HSB
261,3957045,HNR,2008-09-12 16:45,-95.3355,41.5834,64.00,63.00,96.55,50.00,5.00,0.03,30.01,M,5.50,M,M,M,M,M,M,M,M,M,M,M,M,M,M,M,M,64.00,M,1221246000000.0,1221246000000.0_HNR
262,5592715,RPJ,2008-12-21 07:45,-89.0783,41.893,-3.46,-7.78,81.19,280.00,11.00,M,29.90,M,1.75,M,VV ,M,M,M,700.00,M,M,M,BR,M,M,M,M,M,M,-22.35,KRPJ 210745Z AUTO 28011KT 1 3/4SM BR VV007 M20/M22 A2990 RMK AO2 T11971221,1229857200000.0,1229857200000.0_RPJ
263,4049244,PSP,2008-09-18 00:53,-116.5067,33.8297,93.02,62.06,35.87,100.00,8.00,M,29.85,1010.40,10.00,M,FEW,SCT,   ,   ,5000.00,11000.00,M,M,M,M,M,M,M,M,M,93.02,KPSP 180053Z 10008KT 10SM FEW050 SCT110 34/17 A2985 RMK AO2 SLP104 T03390167 $,1221706800000.0,1221706800000.0_PSP
264,943131,SMF,2008-02-27 18:53,-121.5908,38.6954,59.00,50.00,72.01,300.00,4.00,M,30.20,1022.60,10.00,M,CLR,   ,   ,   ,M,M,M,M,M,M,M,M,M,M,M,59.00,KSMF 271853Z 30004KT 10SM CLR 15/10 A3020 RMK AO2 SLP226 T01500100,1204149600000.0,1204149600000.0_SMF
265,5205549,TRK,2008-11-28 06:10,-120.1396,39.32,26.60,26.60,100.00,0.00,0.00,M,30.26,M,0.25,M,OVC,   ,   ,   ,100.00,M,M,M,FZFG,M,M,M,M,M,M,26.60,KTRK 280610Z AUTO 00000KT M1/4SM FZFG OVC001 M03/M03 A3026 RMK AO2,1227866400000.0,1227866400000.0_TRK
266,315833,MPZ,2008-01-20 14:15,-91.5122,40.9453,-4.00,-8.00,82.42,M,0.00,M,30.54,M,10.00,M,M,M,M,M,M,M,M,M,M,M,M,M,M,M,M,-4.00,M,1200852000000.0,1200852000000.0_MPZ
267,1954200,HHR,2008-05-02 23:53,-118.3352,33.9228,75.92,42.08,29.76,270.00,11.00,M,29.94,1013.70,10.00,M,CLR,   ,   ,   ,M,M,M,M,M,M,M,M,M,M,M,74.61,KHHR 022353Z 27011KT 10SM CLR 24/06 A2994 RMK AO2 SLP137 T02440056 10272 20239 56008,1209780000000.0,1209780000000.0_HHR
268,1996171,AWG,2008-05-05 19:57,-91.6748,41.2751,78.00,37.00,22.79,280.00,7.00,M,30.02,M,10.00,14.00,M,M,M,M,M,M,M,M,M,M,M,M,M,M,M,76.57,M,1210024800000.0,1210024800000.0_AWG
269,3723319,CZZ,2008-08-28 21:52,-116.4683,32.6261,95.00,53.06,24.40,220.00,13.00,M,29.80,1005.20,M,19.00,   ,   ,   ,   ,M,M,M,M,M,M,M,M,M,M,M,92.57,KCZZ 282152Z AUTO 22013G19KT 35/12 A2980 RMK AO2 SLP052 T03500117 PWINO TSNO,1219968000000.0,1219968000000.0_CZZ
270,4737374,IKK,2008-10-29 09:25,-87.8463,41.0714,30.20,24.80,80.07,280.00,8.00,M,30.13,M,10.00,M,CLR,M,M,M,M,M,M,M,M,M,M,M,M,M,M,21.90,KIKK 290925Z AUTO 28008KT 10SM CLR M01/M04 A3013 RMK AO2,1225285200000.0,1225285200000.0_IKK
271,3998042,CZZ,2008-09-15 01:52,-116.4683,32.6261,82.94,44.96,26.39,0.00,0.00,M,29.93,1010.70,M,M,   ,   ,   ,   ,M,M,M,M,M,M,M,M,M,M,M,80.88,KCZZ 150152Z AUTO 00000KT 28/07 A2993 RMK AO2 SLP107 T02830072 PWINO TSNO,1221451200000.0,1221451200000.0_CZZ
272,534661,ADU,2008-02-02 21:04,-94.9204,41.6994,28.00,24.00,84.72,280.00,4.00,M,30.02,M,4.00,M,M,M,M,M,M,M,M,M,M,M,M,M,M,M,M,22.75,M,1202000400000.0,1202000400000.0_ADU
273,5449550,CKP,2008-12-12 18:55,-95.5538,42.7304,35.60,26.60,69.46,220.00,8.00,M,30.02,M,10.00,-99.00,M,M,M,M,M,M,M,M,M,M,M,M,M,M,M,28.55,M,1229119200000.0,1229119200000.0_CKP
274,5269617,SUN,2008-12-02 07:10,-114.2956,43.5038,32.00,28.40,86.39,320.00,5.00,M,29.99,M,10.00,M,CLR,   ,   ,   ,M,M,M,M,M,M,M,M,M,M,M,26.40,KSUN 020710Z AUTO 32005KT 10SM CLR 00/M02 A2999 RMK AO2,1228215600000.0,1228215600000.0_SUN
275,2205993,MPZ,2008-05-19 21:45,-91.5122,40.9453,64.00,47.00,53.92,90.00,7.00,M,29.59,M,10.00,M,M,M,M,M,M,M,M,M,M,M,M,M,M,M,M,64.00,M,1211241600000.0,1211241600000.0_MPZ
276,5176556,RSV,2008-11-26 16:05,-87.6498,39.016,41.00,30.74,66.60,160.00,3.00,M,30.11,M,10.00,M,CLR,M,M,M,M,M,M,M,M,M,M,M,M,M,M,38.98,KRSV 261605Z AUTO 16003KT 10SM CLR 05/M01 A3011 RMK AO2 T00501007,1227729600000.0,1227729600000.0_RSV
277,2113118,TAZ,2008-05-13 13:25,-89.3278,39.5342,53.60,44.60,71.45,150.00,11.00,M,30.03,M,10.00,M,CLR,M,M,M,M,M,M,M,M,M,M,M,M,M,M,53.60,KTAZ 131325Z AUTO 15011KT 10SM CLR 12/07 A3003 RMK AO2 LTG DSNT SW,1210694400000.0,1210694400000.0_TAZ
278,3756460,CQT,2008-08-30 17:47,-118.2912,34.0235,80.06,64.94,59.99,0.00,0.00,M,29.74,1006.90,7.00,M,CLR,   ,   ,   ,M,M,M,M,M,M,M,M,M,M,M,81.88,KCQT 301747Z AUTO 00000KT 7SM CLR 27/18 A2974 RMK AO2 SLP069 T02670183 10267 20206 50007 TSNO $,1220126400000.0,1220126400000.0_CQT
279,1941658,CCY,2008-05-02 03:55,-92.6132,43.073,59.00,55.40,87.83,100.00,16.00,M,29.49,M,5.00,-99.00,M,M,M,M,M,M,M,M,M,M,M,M,M,M,M,59.00,M,1209708000000.0,1209708000000.0_CCY
280,386811,ICL,2008-01-24 16:54,-95.0223,40.7242,1.00,-9.00,61.96,M,0.00,M,30.49,M,10.00,M,M,M,M,M,M,M,M,M,M,M,M,M,M,M,M,1.00,M,1201204800000.0,1201204800000.0_ICL
281,1960426,SLI,2008-05-03 09:55,-118.052,33.79,57.20,52.34,83.77,0.00,0.00,M,29.94,1013.90,10.00,M,CLR,   ,   ,   ,M,M,M,M,M,M,M,M,M,M,M,57.20,KSLI 030955Z AUTO 00000KT 10SM CLR 14/11 A2994 RMK AO2 SLP139 T01400113,1209816000000.0,1209816000000.0_SLI
282,1726994,CIR,2008-04-17 21:05,-89.2196,37.0647,69.80,50.00,49.37,200.00,10.00,M,30.04,M,10.00,19.00,CLR,M,M,M,M,M,M,M,M,M,M,M,M,M,M,69.80,KCIR 172105Z AUTO 20010G19KT 10SM CLR 21/10 A3004 RMK AO2,1208476800000.0,1208476800000.0_CIR
283,2178056,EOK,2008-05-18 00:34,-91.4274,40.4615,79.00,45.00,30.05,260.00,10.00,M,29.57,M,10.00,16.00,M,M,M,M,M,M,M,M,M,M,M,M,M,M,M,79.00,M,1211079600000.0,1211079600000.0_EOK
284,2006175,AWG,2008-05-06 11:57,-91.6748,41.2751,56.00,50.00,M,M,M,M,29.95,M,10.00,M,M,M,M,M,M,M,M,M,M,M,M,M,M,M,M,M,M,1210082400000.0,1210082400000.0_AWG
285,1675350,NXP,2008-04-14 12:56,-116.1622,34.2962,55.04,15.98,21.17,300.00,3.00,M,30.04,1014.10,M,M,CLR,   ,   ,   ,M,M,M,M,M,M,M,M,M,M,M,55.04,KNXP 141256Z AUTO 30003KT CLR 13/M09 A3004 RMK AO2 SLP141 T01281089 $,1208185200000.0,1208185200000.0_NXP
286,1370510,LGB,2008-03-25 02:53,-118.1472,33.8118,64.04,44.06,48.17,350.00,3.00,M,29.97,1014.80,10.00,M,CLR,   ,   ,   ,M,M,M,M,M,M,M,M,M,M,M,64.04,KLGB 250253Z 35003KT 10SM CLR 18/07 A2997 RMK AO2 SLP148 T01780067 51007,1206424800000.0,1206424800000.0_LGB
287,1224931,LWV,2008-03-16 08:21,-87.6055,38.7643,35.60,32.00,86.59,340.00,7.00,T,30.11,M,4.00,M,FEW,OVC,M,M,900.00,2900.00,M,M,-RA BR,M,M,M,M,M,M,29.17,KLWV 160821Z AUTO 34007KT 4SM -RA BR FEW009 OVC029 02/00 A3011 RMK AO2 P0000,1205668800000.0,1205668800000.0_LWV
288,3692252,AIO,2008-08-27 02:32,-95.0465,41.4059,66.00,59.00,M,M,M,M,29.93,M,10.00,M,M,M,M,M,M,M,M,M,M,M,M,M,M,M,M,M,M,1219813200000.0,1219813200000.0_AIO
289,1641725,ARR,2008-04-12 05:52,-88.48,41.77,41.00,37.94,88.76,240.00,16.00,M,29.50,999.10,10.00,22.00,OVC,M,M,M,1000.00,M,M,M,M,M,M,M,M,M,M,32.15,KARR 120552Z AUTO 24016G22KT 10SM OVC010 05/03 A2950 RMK AO2 SLP991 60001 T00500033 10056 20044 401610044 55001,1207987200000.0,1207987200000.0_ARR
290,3589362,C09,2008-08-20 18:25,-88.4186,41.4253,82.40,66.20,58.08,130.00,6.00,M,30.12,M,10.00,M,SCT,SCT,M,M,6500.00,11000.00,M,M,M,M,M,M,M,M,M,84.63,KC09 201825Z AUTO 13006KT 10SM SCT065 SCT110 28/19 A3012 RMK AO2,1219266000000.0,1219266000000.0_C09
291,1715264,CMA,2008-04-17 02:55,-119.0944,34.2137,59.00,42.98,55.24,200.00,3.00,M,29.99,1016.30,10.00,M,CLR,   ,   ,   ,M,M,M,M,M,M,M,M,M,M,M,59.00,KCMA 170255Z 20003KT 10SM CLR 15/06 A2999 RMK AO2 SLP163 T01500061 53002,1208408400000.0,1208408400000.0_CMA
292,2176483,SLI,2008-05-17 21:55,-118.052,33.79,85.64,50.72,30.03,190.00,10.00,M,29.95,1014.40,10.00,M,CLR,   ,   ,   ,M,M,M,M,M,M,M,M,M,M,M,83.43,KSLI 172155Z 19010KT 10SM CLR 30/10 A2995 RMK AO2A SLP144 T02980104,1211068800000.0,1211068800000.0_SLI
293,484066,CUL,2008-01-30 14:05,-88.1231,38.0895,19.40,6.80,57.41,280.00,8.00,M,30.19,M,10.00,M,CLR,M,M,M,M,M,M,M,M,M,M,M,M,M,M,8.59,KCUL 301405Z AUTO 28008KT 10SM CLR M07/M14 A3019 RMK AO2,1201716000000.0,1201716000000.0_CUL
294,1359147,SDB,2008-03-24 08:52,-118.7253,34.7434,53.06,23.00,30.71,340.00,10.00,M,30.18,1018.10,10.00,M,CLR,   ,   ,   ,M,M,M,M,M,M,M,M,M,M,M,53.06,KSDB 240852Z AUTO 34010KT 10SM CLR 12/M05 A3018 RMK AO2 SLP181 T01171050 58008 TSNO,1206360000000.0,1206360000000.0_SDB
295,1243918,IKV,2008-03-17 11:32,-93.5695,41.6878,33.00,30.00,88.58,120.00,8.00,M,30.23,M,10.00,M,M,M,M,M,M,M,M,M,M,M,M,M,M,M,M,25.34,M,1205766000000.0,1205766000000.0_IKV
296,3014264,IFA,2008-07-12 18:55,-93.2651,42.4691,75.20,50.00,41.14,290.00,15.00,M,30.04,M,7.00,-99.00,M,M,M,M,M,M,M,M,M,M,M,M,M,M,M,75.20,M,1215896400000.0,1215896400000.0_IFA
297,5324430,ENL,2008-12-05 16:45,-89.0911,38.5151,23.00,1.40,38.45,260.00,6.00,M,30.50,M,10.00,M,CLR,M,M,M,M,M,M,M,M,M,M,M,M,M,M,14.69,KENL 051645Z AUTO 26006KT 10SM CLR M05/M17 A3050 RMK AO2,1228507200000.0,1228507200000.0_ENL
298,3278045,PWK,2008-07-30 01:52,-87.9047,42.1208,82.94,69.98,65.00,200.00,7.00,M,29.82,1009.10,10.00,M,BKN,M,M,M,11000.00,M,M,M,M,M,M,M,M,M,M,86.99,KPWK 300152Z 20007KT 10SM BKN110 28/21 A2982 RMK AO2 SLP091 T02830211,1217390400000.0,1217390400000.0_PWK
299,5507585,ADU,2008-12-16 05:12,-94.9204,41.6994,-5.00,-10.00,78.39,0.00,0.00,M,30.60,M,10.00,M,M,M,M,M,M,M,M,M,M,M,M,M,M,M,M,-5.00,M,1229418000000.0,1229418000000.0_ADU
300,4217127,PRG,2008-09-27 17:05,-87.67,39.7,75.20,53.60,46.98,360.00,9.00,M,30.04,M,10.00,14.00,CLR,M,M,M,M,M,M,M,M,M,M,M,M,M,M,75.20,KPRG 271705Z AUTO 36009G14KT 10SM CLR 24/12 A3004 RMK AO2,1222545600000.0,1222545600000.0_PRG
301,3111246,OXV,2008-07-19 01:13,-93.1114,41.2984,70.00,66.00,87.14,140.00,4.00,M,29.95,M,10.00,M,M,M,M,M,M,M,M,M,M,M,M,M,M,M,M,70.00,M,1216440000000.0,1216440000000.0_OXV
302,1165592,1H2,2008-03-13 00:26,-88.5335,39.0705,57.20,41.00,54.60,140.00,8.00,M,29.74,M,7.00,M,CLR,M,M,M,M,M,M,M,M,M,M,M,M,M,M,57.20,K1H2 130026Z AUTO 14008KT 7SM CLR 14/05 A2974 RMK AO2,1205380800000.0,1205380800000.0_1H2
303,5067888,CCY,2008-11-20 13:15,-92.6132,43.073,28.40,21.20,74.08,320.00,12.00,M,30.38,M,10.00,-99.00,M,M,M,M,M,M,M,M,M,M,M,M,M,M,M,17.42,M,1227200400000.0,1227200400000.0_CCY
304,5470610,AAA,2008-12-14 00:45,-89.335,40.1587,38.48,30.20,71.87,170.00,17.00,M,29.80,M,10.00,26.00,BKN,M,M,M,12000.00,M,M,M,M,M,M,M,M,M,M,28.56,KAAA 140045Z AUTO 17017G26KT 10SM BKN120 04/M01 A2980 RMK AO2 T00361010,1229227200000.0,1229227200000.0_AAA
305,1966852,OLZ,2008-05-03 20:17,-91.976,42.6831,56.00,36.00,46.88,300.00,21.00,M,29.83,M,10.00,28.00,M,M,M,M,M,M,M,M,M,M,M,M,M,M,M,56.00,M,1209855600000.0,1209855600000.0_OLZ
306,5409747,TNU,2008-12-10 11:23,-93.01899999999999,41.6701,7.00,3.00,83.27,0.00,0.00,M,30.28,M,10.00,M,M,M,M,M,M,M,M,M,M,M,M,M,M,M,M,7.00,M,1228921200000.0,1228921200000.0_TNU
307,3875005,MIW,2008-09-06 23:53,-92.9163,42.1106,60.98,53.96,77.66,250.00,4.00,M,30.02,1016.80,10.00,M,FEW,   ,   ,M,3900.00,M,M,M,M,M,M,M,M,M,M,60.98,METAR KMIW 062353Z AUTO 25004KT 10SM FEW039 16/12 A3002 RMK AO2 SLP168 T01610122 10189 20161 58001,1220752800000.0,1220752800000.0_MIW
308,5539049,BNW,2008-12-18 01:53,-93.8486,42.0486,6.00,2.00,83.19,0.00,0.00,M,30.23,M,7.00,M,M,M,M,M,M,M,M,M,M,M,M,M,M,M,M,6.00,M,1229576400000.0,1229576400000.0_BNW
309,2367155,PWK,2008-05-30 16:44,-87.9047,42.1208,66.20,64.40,93.92,210.00,12.00,0.07,29.82,M,2.50,21.00,OVC,M,M,M,3200.00,M,M,M,RA BR,M,M,M,M,M,M,66.20,KPWK 301644Z 21012G21KT 2 1/2SM RA BR OVC032 19/18 A2982 RMK AO2 PK WND 21028/1557 PRESFR P0007,1212174000000.0,1212174000000.0_PWK
310,4907171,OLZ,2008-11-10 04:46,-91.976,42.6831,26.00,19.00,74.46,310.00,9.00,M,30.12,M,10.00,M,M,M,M,M,M,M,M,M,M,M,M,M,M,M,M,16.05,M,1226304000000.0,1226304000000.0_OLZ
311,3844079,OLZ,2008-09-05 01:55,-91.976,42.6831,53.60,50.00,87.56,10.00,7.00,M,29.91,M,10.00,-99.00,M,M,M,M,M,M,M,M,M,M,M,M,M,M,M,53.60,M,1220587200000.0,1220587200000.0_OLZ
312,3454347,MQB,2008-08-11 17:03,-90.65,40.52,73.40,53.60,49.90,0.00,0.00,M,30.07,M,10.00,M,SCT,M,M,M,3900.00,M,M,M,M,M,M,M,M,M,M,73.40,KMQB 111703Z AUTO 00000KT 10SM SCT039 23/12 A3007 RMK AO2,1218484800000.0,1218484800000.0_MQB
313,108665,SLO,2008-01-08 00:10,-88.9642,38.6429,64.40,57.20,77.45,170.00,11.00,M,29.95,M,10.00,17.00,BKN,M,M,M,2500.00,M,M,M,M,M,M,M,M,M,M,64.40,KSLO 080010Z AUTO 17011G17KT 10SM BKN025 18/14 A2995 RMK AO2,1199764800000.0,1199764800000.0_SLO
314,4812115,CZZ,2008-11-03 17:52,-116.4683,32.6261,57.92,41.00,53.20,270.00,7.00,M,30.01,1014.90,M,M,   ,   ,   ,   ,M,M,M,M,M,M,M,M,M,M,M,57.92,KCZZ 031752Z AUTO 27007KT 14/05 A3001 RMK AO2 SLP149 T01440050 10144 20033 58001 PWINO TSNO,1225746000000.0,1225746000000.0_CZZ
315,4636423,IFA,2008-10-22 05:54,-93.2651,42.4691,45.00,34.00,65.13,120.00,13.00,M,30.20,M,10.00,19.00,M,M,M,M,M,M,M,M,M,M,M,M,M,M,M,38.22,M,1224662400000.0,1224662400000.0_IFA
316,1716493,NZJ,2008-04-17 04:53,-117.73100000000001,33.676,57.92,50.00,74.86,210.00,5.00,M,30.01,1016.20,9.00,M,CLR,   ,   ,   ,M,M,M,M,M,M,M,M,M,M,M,57.92,KSNA 170453Z 21005KT 9SM CLR 14/10 A3001 RMK AO2 SLP162 T01440100,1208415600000.0,1208415600000.0_NZJ
317,5269102,EUL,2008-12-02 06:15,-116.6358,43.6419,37.40,35.60,93.14,250.00,3.00,M,30.01,M,0.50,M,OVC,   ,   ,   ,200.00,M,M,M,M,M,M,M,M,M,M,34.86,KEUL 020615Z AUTO 25003KT 1/2SM OVC002 03/02 A3001 RMK AO1,1228212000000.0,1228212000000.0_EUL
318,3914776,CKP,2008-09-09 17:25,-95.5538,42.7304,68.00,48.00,48.73,180.00,6.00,M,30.16,M,10.00,M,M,M,M,M,M,M,M,M,M,M,M,M,M,M,M,68.00,M,1220990400000.0,1220990400000.0_CKP
319,3313908,SDA,2008-08-01 19:54,-95.4112,40.7533,90.00,75.00,61.49,20.00,10.00,M,29.91,M,10.00,M,M,M,M,M,M,M,M,M,M,M,M,M,M,M,M,100.53,M,1217628000000.0,1217628000000.0_SDA
320,3548657,CBF,2008-08-18 03:57,-95.7604,41.2611,71.00,60.00,M,M,M,M,30.03,M,10.00,M,M,M,M,M,M,M,M,M,M,M,M,M,M,M,M,M,M,1219039200000.0,1219039200000.0_CBF
321,2726887,HNR,2008-06-23 19:27,-95.3355,41.5834,81.00,45.00,28.15,30.00,5.00,M,30.12,M,10.00,M,M,M,M,M,M,M,M,M,M,M,M,M,M,M,M,79.68,M,1214258400000.0,1214258400000.0_HNR
322,2141433,BAB,2008-05-15 10:55,-121.4366,39.1361,83.84,43.88,24.60,30.00,15.00,M,29.92,1013.30,10.00,24.00,CLR,   ,   ,   ,M,M,M,M,M,M,M,M,26.00,40.00,2008-05-15 10:37,81.42,KBAB 151055Z AUTO 03015G24KT 10SM CLR 29/07 A2992 RMK AO2 PK WND 04026/1037 SLP133 T02880066 RVRNO $,1210856400000.0,1210856400000.0_BAB
323,1441597,RDK,2008-03-29 18:26,-95.2624,41.0106,55.00,23.00,28.61,130.00,17.00,M,30.08,M,10.00,22.00,M,M,M,M,M,M,M,M,M,M,M,M,M,M,M,55.00,M,1206828000000.0,1206828000000.0_RDK
324,5704444,MIW,2008-12-27 22:53,-92.9163,42.1106,21.92,17.06,81.25,320.00,15.00,M,29.64,1004.90,10.00,M,SCT,OVC,   ,M,1700.00,5500.00,M,M,M,M,M,M,M,M,M,7.71,METAR KMIW 272253Z AUTO 32015KT 10SM SCT017 OVC055 M06/M08 A2964 RMK AO2 SLP049 T10561083,1230429600000.0,1230429600000.0_MIW
325,2167906,AIO,2008-05-17 05:14,-95.0465,41.4059,63.00,44.00,49.84,230.00,8.00,M,29.82,M,10.00,M,M,M,M,M,M,M,M,M,M,M,M,M,M,M,M,63.00,M,1211011200000.0,1211011200000.0_AIO
326,4128215,U78,2008-09-22 14:40,-111.5799,42.6416,42.80,37.40,81.07,0.00,0.00,M,30.08,M,3.00,M,OVC,   ,   ,   ,1000.00,M,M,M,-RA BR,M,M,M,M,M,M,42.80,KU78 221440Z 00000KT 3SM -RA BR OVC010 06/03 A3008 RMK SLPNO NOPSECI,1222102800000.0,1222102800000.0_U78
327,5690898,SLB,2008-12-27 03:33,-95.2399,42.5972,34.00,31.00,88.63,300.00,24.00,M,29.56,M,10.00,29.00,M,M,M,M,M,M,M,M,M,M,M,M,M,M,M,20.76,M,1230361200000.0,1230361200000.0_SLB
328,4465378,FFL,2008-10-12 06:23,-91.9834,41.0521,67.00,61.00,81.05,150.00,6.00,M,30.17,M,10.00,M,M,M,M,M,M,M,M,M,M,M,M,M,M,M,M,67.00,M,1223802000000.0,1223802000000.0_FFL
329,4887355,SUN,2008-11-08 21:47,-114.2956,43.5038,51.80,37.40,57.77,150.00,6.00,M,30.01,M,30.00,M,SCT,SCT,   ,   ,8000.00,12000.00,M,M,M,M,M,M,M,M,M,51.80,KSUN 082147Z 15006KT 30SM SCT080 SCT120 11/03 A3001,1226192400000.0,1226192400000.0_SUN
330,1405313,LRJ,2008-03-27 10:35,-96.1923,42.7754,32.00,32.00,100.00,80.00,10.00,M,29.93,M,1.00,16.00,M,M,M,M,M,M,M,M,M,M,M,M,M,M,M,22.97,M,1206626400000.0,1206626400000.0_LRJ
331,4383491,AIO,2008-10-07 14:03,-95.0465,41.4059,55.00,50.00,83.20,360.00,14.00,M,30.02,M,10.00,20.00,M,M,M,M,M,M,M,M,M,M,M,M,M,M,M,55.00,M,1223398800000.0,1223398800000.0_AIO
332,2384345,HHR,2008-06-01 00:53,-118.3352,33.9228,69.08,53.06,56.66,290.00,9.00,M,30.00,1015.90,10.00,M,CLR,   ,   ,   ,M,M,M,M,M,M,M,M,M,M,M,69.08,KHHR 010053Z 29009KT 10SM CLR 21/12 A3000 RMK AO2 SLP159 T02060117,1212289200000.0,1212289200000.0_HHR
333,1436174,SQI,2008-03-29 10:35,-89.6763,41.7428,23.00,19.40,85.85,70.00,6.00,M,30.40,M,8.00,M,CLR,M,M,M,M,M,M,M,M,M,M,M,M,M,M,14.69,KSQI 291035Z 07006KT 8SM CLR M05/M07 A3040 RMK AO1,1206799200000.0,1206799200000.0_SQI
334,2529754,AUN,2008-06-10 19:30,-121.0817,38.9548,78.80,26.60,14.59,310.00,11.00,M,29.95,M,10.00,16.00,CLR,   ,   ,   ,M,M,M,M,M,M,M,M,M,M,M,77.07,KAUN 101930Z AUTO 31011G16KT 040V050 10SM CLR 26/M03 A2995 RMK A01 P000,1213135200000.0,1213135200000.0_AUN
335,2152894,PIA,2008-05-16 04:54,-89.6839,40.6675,46.94,41.00,79.70,0.00,0.00,M,30.04,1017.30,10.00,M,CLR,M,M,M,M,M,M,M,M,M,M,M,M,M,M,46.94,KPIA 160454Z 00000KT 10SM CLR 08/05 A3004 RMK AO2 SLP173 T00830050,1210921200000.0,1210921200000.0_PIA
336,3467478,MUT,2008-08-12 14:55,-91.1406,41.367,72.00,66.00,81.41,170.00,4.00,M,29.91,M,10.00,M,M,M,M,M,M,M,M,M,M,M,M,M,M,M,M,72.00,M,1218560400000.0,1218560400000.0_MUT
337,4841961,BNW,2008-11-05 15:56,-93.8486,42.0486,61.00,55.00,80.61,170.00,17.00,M,29.65,M,10.00,26.00,M,M,M,M,M,M,M,M,M,M,M,M,M,M,M,61.00,M,1225911600000.0,1225911600000.0_BNW
338,5255550,MLP,2008-12-01 11:09,-115.6697,47.4542,35.60,35.60,100.00,M,6.00,M,30.08,M,1.25,M,BKN,   ,   ,   ,100.00,M,M,M,BR,M,M,M,M,M,M,29.87,KMLP 011109Z AUTO VRB06KT 1 1/4SM BR BKN001 02/02 A3008 RMK AO2 VIS 1/2V5,1228143600000.0,1228143600000.0_MLP
339,840826,PIA,2008-02-21 22:27,-89.6839,40.6675,19.40,15.80,85.63,70.00,8.00,T,30.07,M,1.25,M,FEW,OVC,M,M,1400.00,4100.00,M,M,-SN,M,M,M,M,M,M,8.59,KPIA 212227Z 07008KT 1 1/4SM R13/6000VP6000FT -SN FEW014 OVC041 M07/M09 A3007 RMK AO2 SNB17 P0000,1203645600000.0,1203645600000.0_PIA
340,3000335,NXP,2008-07-11 20:56,-116.1622,34.2962,91.94,60.08,34.58,110.00,8.00,M,29.98,1011.30,10.00,M,CLR,   ,   ,   ,M,M,M,M,M,M,M,M,M,M,M,91.94,KNXP 112056Z AUTO 11008KT 10SM CLR 33/16 A2998 RMK AO2 SLP113 T03330156 58006 $,1215817200000.0,1215817200000.0_NXP
341,4871508,DNS,2008-11-07 19:55,-95.38,41.9842,32.00,30.20,92.97,280.00,16.00,M,29.72,M,1.75,24.00,M,M,M,M,M,M,M,M,M,M,M,M,M,M,M,20.42,M,1226098800000.0,1226098800000.0_DNS
342,1948296,OXV,2008-05-02 14:27,-93.1114,41.2984,60.00,57.00,89.80,100.00,10.00,M,29.32,M,10.00,M,M,M,M,M,M,M,M,M,M,M,M,M,M,M,M,60.00,M,1209747600000.0,1209747600000.0_OXV
343,2954007,HNR,2008-07-08 19:56,-95.3355,41.5834,84.00,72.00,67.28,350.00,4.00,M,29.92,M,10.00,M,M,M,M,M,M,M,M,M,M,M,M,M,M,M,M,89.62,M,1215554400000.0,1215554400000.0_HNR
344,3992024,ADU,2008-09-14 17:33,-94.9204,41.6994,59.00,50.00,72.01,330.00,14.00,M,29.91,M,10.00,21.00,M,M,M,M,M,M,M,M,M,M,M,M,M,M,M,59.00,M,1221422400000.0,1221422400000.0_ADU
345,1819311,SDM,2008-04-23 19:53,-116.98,32.57,64.04,46.94,53.73,280.00,8.00,M,30.07,1018.10,10.00,M,CLR,   ,   ,   ,M,M,M,M,M,M,M,M,M,M,M,64.04,KSDM 231953Z 28008KT 260V320 10SM CLR 18/08 A3007 RMK AO2 SLP181 T01780083,1208988000000.0,1208988000000.0_SDM
346,5004793,CAV,2008-11-16 12:56,-93.7593,42.743,32.00,31.00,96.04,160.00,3.00,M,29.90,M,10.00,M,M,M,M,M,M,M,M,M,M,M,M,M,M,M,M,28.69,M,1226851200000.0,1226851200000.0_CAV
347,79730,CCY,2008-01-06 02:45,-92.6132,43.073,35.00,35.00,100.00,140.00,9.00,M,29.65,M,M,M,M,M,M,M,M,M,M,M,M,M,M,M,M,M,M,27.24,M,1199599200000.0,1199599200000.0_CCY
348,4067075,3A6,2008-09-19 01:50,-118.5667,34.3667,78.80,49.46,35.78,30.00,5.00,M,29.91,1011.00,M,M,   ,   ,   ,   ,M,M,M,M,M,M,M,M,M,M,M,78.80,K3A6 190150Z AUTO 03005KT 26/10 A2991 RMK AO1 SLP110 T02600097,1221796800000.0,1221796800000.0_3A6
349,2577982,MIW,2008-06-14 02:53,-92.9163,42.1106,64.94,50.00,58.39,210.00,6.00,M,29.95,1013.80,10.00,M,CLR,   ,   ,M,M,M,M,M,M,M,M,M,M,M,M,64.94,METAR KMIW 140253Z AUTO 21006KT 10SM CLR 18/10 A2995 RMK AO2 SLP138 T01830100 51011,1213419600000.0,1213419600000.0_MIW
350,4704251,HSB,2008-10-26 17:25,-88.5503,37.8113,66.20,44.60,45.60,230.00,5.00,M,29.98,M,10.00,M,CLR,M,M,M,M,M,M,M,M,M,M,M,M,M,M,66.20,KHSB 261725Z AUTO 23005KT 10SM CLR 19/07 A2998 RMK AO2,1225054800000.0,1225054800000.0_HSB
351,5691184,PIA,2008-12-27 03:54,-89.6839,40.6675,53.06,51.98,96.10,180.00,10.00,0.01,29.81,1009.70,0.25,M,VV ,M,M,M,100.00,M,M,M,FG,M,M,M,M,M,M,53.06,KPIA 270354Z 18010KT 1/4SM R13/2400V4000FT FG VV001 12/11 A2981 RMK AO2 SLP097 P0001 T01170111,1230361200000.0,1230361200000.0_PIA
352,1009384,AWG,2008-03-03 11:23,-91.6748,41.2751,30.00,26.00,84.85,330.00,20.00,M,29.85,M,10.00,28.00,M,M,M,M,M,M,M,M,M,M,M,M,M,M,M,16.48,M,1204556400000.0,1204556400000.0_AWG
353,2137424,CNC,2008-05-15 04:24,-93.3608,41.0184,54.00,40.00,58.99,30.00,3.00,M,30.03,M,10.00,M,M,M,M,M,M,M,M,M,M,M,M,M,M,M,M,54.00,M,1210834800000.0,1210834800000.0_CNC
354,4491818,AWG,2008-10-13 19:03,-91.6748,41.2751,78.00,62.00,57.90,190.00,15.00,M,30.14,M,10.00,M,M,M,M,M,M,M,M,M,M,M,M,M,M,M,M,78.00,M,1223935200000.0,1223935200000.0_AWG
355,3938168,MAE,2008-09-11 08:53,-120.1107,36.9849,62.06,55.04,77.75,0.00,0.00,M,29.80,1008.90,10.00,M,CLR,   ,   ,   ,M,M,M,M,M,M,M,M,M,M,M,62.06,KMAE 110853Z AUTO 00000KT 10SM CLR 17/13 A2980 RMK AO2 SLP089 T01670128 51006,1221130800000.0,1221130800000.0_MAE
356,2711978,MCW,2008-06-22 19:53,-93.3261,43.1544,80.06,44.96,28.98,320.00,17.00,M,29.98,1014.10,10.00,25.00,CLR,   ,   ,M,M,M,M,M,M,M,M,M,M,M,M,80.06,METAR KMCW 221953Z AUTO 32017G25KT 10SM CLR 27/07 A2998 RMK AO2 SLP141 T02670072 $,1214172000000.0,1214172000000.0_MCW
357,4489012,DIJ,2008-10-13 15:10,-111.0979,43.7419,21.20,21.20,100.00,0.00,0.00,M,30.45,M,0.25,M,OVC,   ,   ,   ,200.00,M,M,M,FZFG,M,M,M,M,M,M,21.20,KDIJ 131510Z AUTO 00000KT 1/4SM FZFG OVC002 M06/M06 A3045 RMK AO2 FZRANO,1223920800000.0,1223920800000.0_DIJ
358,3979329,BNW,2008-09-14 00:15,-93.8486,42.0486,69.80,60.80,73.09,290.00,7.00,M,29.71,M,10.00,-99.00,M,M,M,M,M,M,M,M,M,M,M,M,M,M,M,69.80,M,1221361200000.0,1221361200000.0_BNW
359,3124738,MPZ,2008-07-19 23:35,-91.5122,40.9453,82.40,71.60,69.90,190.00,3.00,M,29.89,M,10.00,-99.00,M,M,M,M,M,M,M,M,M,M,M,M,M,M,M,87.18,M,1216519200000.0,1216519200000.0_MPZ
360,1738010,MQB,2008-04-18 14:45,-90.65,40.52,60.80,53.60,77.14,140.00,11.00,M,29.75,M,10.00,14.00,SCT,SCT,SCT,M,5500.00,7500.00,8500.00,M,-RA,M,M,M,M,M,M,60.80,KMQB 181445Z AUTO 14011G14KT 10SM -RA SCT055 SCT075 SCT085 16/12 A2975 RMK AO2,1208538000000.0,1208538000000.0_MQB
361,333121,CWI,2008-01-21 15:35,-90.3328,41.8295,12.20,6.80,78.51,120.00,16.00,M,30.50,M,10.00,-99.00,M,M,M,M,M,M,M,M,M,M,M,M,M,M,M,-5.39,M,1200942000000.0,1200942000000.0_CWI
362,3663591,MUT,2008-08-25 08:15,-91.1406,41.367,59.00,55.40,87.83,10.00,5.00,M,30.09,M,10.00,-99.00,M,M,M,M,M,M,M,M,M,M,M,M,M,M,M,59.00,M,1219662000000.0,1219662000000.0_MUT
363,3305785,DKB,2008-08-01 06:45,-88.7057,41.9338,71.60,68.00,88.43,210.00,4.00,M,29.81,M,5.00,M,CLR,M,M,M,M,M,M,M,BR,M,M,M,M,M,M,72.62,KDKB 010645Z AUTO 21004KT 5SM BR CLR 22/20 A2981 RMK AO2,1217581200000.0,1217581200000.0_DKB
364,486549,OAK,2008-01-30 17:53,-122.2207,37.7213,46.94,41.00,79.70,160.00,3.00,M,30.39,1029.10,10.00,M,FEW,   ,   ,   ,1200.00,M,M,M,M,M,M,M,M,M,M,45.77,KOAK 301753Z 16003KT 10SM FEW012 08/05 A3039 RMK AO2 SLP291 60001 T00830050 10083 20033 51022,1201726800000.0,1201726800000.0_OAK
365,185606,RFD,2008-01-12 11:54,-89.09299999999999,42.1927,28.94,24.98,84.93,110.00,3.00,M,29.96,1015.50,5.00,M,OVC,M,M,M,3700.00,M,M,M,BR,M,M,M,M,M,M,25.19,KRFD 121154Z 11003KT 5SM BR OVC037 M02/M04 A2996 RMK AO2 SLP155 T10171039 11017 21044 53002,1200150000000.0,1200150000000.0_RFD
366,2687009,SFY,2008-06-21 03:26,-90.1079,42.0458,71.60,59.00,64.48,0.00,0.00,M,29.98,M,10.00,M,CLR,M,M,M,M,M,M,M,M,M,M,M,M,M,M,71.60,KSFY 210326Z AUTO 00000KT 10SM CLR 22/15 A2998 RMK AO2,1214028000000.0,1214028000000.0_SFY
367,2375827,IJX,2008-05-31 05:45,-90.2383,39.7746,68.00,64.40,88.26,220.00,6.00,M,29.85,M,5.00,M,CLR,M,M,M,M,M,M,M,BR,M,M,M,M,M,M,68.00,KIJX 310545Z AUTO 22006KT 5SM BR CLR 20/18 A2985 RMK AO2,1212220800000.0,1212220800000.0_IJX
368,1761509,CKP,2008-04-20 02:15,-95.5538,42.7304,51.80,46.40,81.74,90.00,4.00,M,29.92,M,10.00,-99.00,M,M,M,M,M,M,M,M,M,M,M,M,M,M,M,51.80,M,1208667600000.0,1208667600000.0_CKP
369,4417635,TVK,2008-10-09 12:31,-92.8983,40.6832,44.00,41.00,M,M,M,M,30.11,M,10.00,M,M,M,M,M,M,M,M,M,M,M,M,M,M,M,M,M,M,1223564400000.0,1223564400000.0_TVK
370,2801359,TOA,2008-06-28 16:47,-118.3396,33.8034,69.80,59.00,68.55,310.00,7.00,M,30.03,M,5.00,M,BKN,   ,   ,   ,1600.00,M,M,M,BR,M,M,M,M,M,M,69.80,KTOA 281647Z 31007KT 5SM BR BKN016 21/15 A3003,1214679600000.0,1214679600000.0_TOA
371,4613079,SHL,2008-10-20 21:03,-95.8353,43.2082,60.00,30.00,31.92,50.00,5.00,M,30.38,M,10.00,9.00,M,M,M,M,M,M,M,M,M,M,M,M,M,M,M,60.00,M,1224547200000.0,1224547200000.0_SHL
372,1937709,AWG,2008-05-01 21:57,-91.6748,41.2751,77.00,58.00,51.90,180.00,13.00,M,29.49,M,10.00,20.00,M,M,M,M,M,M,M,M,M,M,M,M,M,M,M,77.00,M,1209686400000.0,1209686400000.0_AWG
373,2591031,ORC,2008-06-14 22:32,-96.0606,42.9895,84.00,46.00,26.52,270.00,11.00,M,29.87,M,10.00,14.00,M,M,M,M,M,M,M,M,M,M,M,M,M,M,M,81.69,M,1213491600000.0,1213491600000.0_ORC
374,1172131,AIO,2008-03-13 09:52,-95.0465,41.4059,35.00,28.00,75.36,170.00,3.00,M,29.80,M,10.00,M,M,M,M,M,M,M,M,M,M,M,M,M,M,M,M,32.12,M,1205413200000.0,1205413200000.0_AIO
375,342186,SDB,2008-01-22 04:05,-118.7253,34.7434,30.20,28.40,92.92,190.00,9.00,M,29.98,M,1.50,M,BKN,OVC,   ,   ,200.00,800.00,M,M,BR,M,M,M,M,M,M,21.28,KSDB 220405Z AUTO 19009KT 1 1/2SM BR BKN002 OVC008 M01/M02 A2998 RMK AO2 FZRANO TSNO,1200988800000.0,1200988800000.0_SDB
376,5005994,MRY,2008-11-16 14:54,-121.8488,36.5904,57.02,37.04,47.08,0.00,0.00,M,30.07,1019.30,10.00,M,CLR,   ,   ,   ,M,M,M,M,M,M,M,M,M,M,M,57.02,KMRY 161454Z 00000KT 10SM CLR 14/03 A3007 RMK AO2 SLP193 T01390028 53008,1226858400000.0,1226858400000.0_MRY
377,1693519,DEH,2008-04-15 17:07,-91.7433,43.2755,55.00,26.00,32.42,170.00,18.00,M,30.01,M,10.00,26.00,M,M,M,M,M,M,M,M,M,M,M,M,M,M,M,55.00,M,1208289600000.0,1208289600000.0_DEH
378,3613589,TRK,2008-08-22 07:50,-120.1396,39.32,48.20,44.60,87.28,0.00,0.00,M,30.12,M,10.00,M,CLR,   ,   ,   ,M,M,M,M,M,M,M,M,M,M,M,48.20,KTRK 220750Z AUTO 00000KT 10SM CLR 09/07 A3012 RMK AO2,1219399200000.0,1219399200000.0_TRK
379,4794760,HNR,2008-11-02 11:53,-95.3355,41.5834,53.00,52.00,96.39,190.00,4.00,M,30.12,M,2.50,M,M,M,M,M,M,M,M,M,M,M,M,M,M,M,M,53.00,M,1225638000000.0,1225638000000.0_HNR
380,3329052,HNR,2008-08-02 21:15,-95.3355,41.5834,86.00,70.00,58.95,120.00,16.00,M,29.87,M,10.00,20.00,M,M,M,M,M,M,M,M,M,M,M,M,M,M,M,90.73,M,1217721600000.0,1217721600000.0_HNR
381,2892492,IJX,2008-07-04 19:25,-90.2383,39.7746,73.40,55.40,53.29,10.00,5.00,M,30.05,M,10.00,M,SCT,SCT,M,M,4200.00,4900.00,M,M,M,M,M,M,M,M,M,73.40,KIJX 041925Z AUTO 01005KT 10SM SCT042 SCT049 23/13 A3005 RMK AO2,1215208800000.0,1215208800000.0_IJX
382,1976456,EOK,2008-05-04 12:07,-91.4274,40.4615,41.00,35.00,79.02,220.00,3.00,M,30.10,M,10.00,M,M,M,M,M,M,M,M,M,M,M,M,M,M,M,M,38.98,M,1209913200000.0,1209913200000.0_EOK
383,1446867,MWA,2008-03-30 02:25,-89.0111,37.755,48.20,33.80,57.26,100.00,3.00,M,30.17,M,10.00,M,OVC,M,M,M,2700.00,M,M,M,M,M,M,M,M,M,M,47.21,KMWA 300225Z AUTO 10003KT 10SM OVC027 09/01 A3017 RMK AO2,1206853200000.0,1206853200000.0_MWA
384,2197479,CMI,2008-05-19 07:53,-88.2778,40.0388,46.04,37.94,73.18,0.00,0.00,M,29.70,1005.80,10.00,M,CLR,M,M,M,M,M,M,M,M,M,M,M,M,M,M,46.04,KCMI 190753Z AUTO 00000KT 10SM CLR 08/03 A2970 RMK AO2 SLP058 T00780033,1211191200000.0,1211191200000.0_CMI
385,4733428,LWD,2008-10-29 02:53,-93.9005,40.6306,35.96,21.02,54.21,210.00,7.00,M,30.30,1027.20,10.00,M,CLR,   ,   ,M,M,M,M,M,M,M,M,M,M,M,M,29.61,METAR KLWD 290253Z AUTO 21007KT 10SM CLR 02/M06 A3030 RMK AO2 SLP272 T00221061 56013,1225260000000.0,1225260000000.0_LWD
386,212486,OTM,2008-01-14 01:53,-92.4446,41.1008,26.06,19.04,74.41,230.00,5.00,M,30.09,1020.20,10.00,M,BKN,OVC,   ,M,3300.00,4000.00,M,M,M,M,M,M,M,M,M,19.34,METAR KOTM 140153Z AUTO 23005KT 10SM BKN033 OVC040 M03/M07 A3009 RMK AO2 SLP202 T10331072,1200286800000.0,1200286800000.0_OTM
387,1797744,AXA,2008-04-22 11:07,-94.2724,43.0796,39.00,34.00,82.08,350.00,10.00,M,30.01,M,10.00,M,M,M,M,M,M,M,M,M,M,M,M,M,M,M,M,31.75,M,1208872800000.0,1208872800000.0_AXA
388,4389157,MER,2008-10-07 21:50,-120.5682,37.3805,84.20,46.40,26.76,310.00,8.00,M,30.08,M,10.00,M,CLR,   ,   ,   ,M,M,M,M,M,M,M,M,M,M,M,81.87,KMER 072150Z 31008KT 10SM SKC 29/08 A3008,1223424000000.0,1223424000000.0_MER
389,4027240,CNC,2008-09-16 18:03,-93.3608,41.0184,74.00,52.00,46.11,220.00,13.00,M,30.21,M,10.00,17.00,M,M,M,M,M,M,M,M,M,M,M,M,M,M,M,74.00,M,1221598800000.0,1221598800000.0_CNC
390,1204389,FSW,2008-03-15 04:53,-91.3267,40.6615,39.00,32.00,75.75,20.00,6.00,M,29.78,M,10.00,M,M,M,M,M,M,M,M,M,M,M,M,M,M,M,M,33.96,M,1205568000000.0,1205568000000.0_FSW
391,3286291,FOA,2008-07-30 15:45,-88.4531,38.665,68.00,68.00,100.00,80.00,3.00,0.49,29.94,M,4.00,M,SCT,SCT,SCT,M,100.00,1300.00,2000.00,M,RA,M,M,M,M,M,M,68.00,KFOA 301545Z AUTO 08003KT 4SM RA SCT001 SCT013 SCT020 20/20 A2994 RMK AO2 P0049,1217440800000.0,1217440800000.0_FOA
392,4200211,PTV,2008-09-26 18:35,-119.0627,36.0296,84.20,50.00,30.62,180.00,6.00,M,29.96,M,10.00,M,CLR,   ,   ,   ,M,M,M,M,M,M,M,M,M,M,M,82.24,KPTV 261835Z AUTO 18006KT 10SM CLR 29/10 A2996 RMK AO1 PNO,1222462800000.0,1222462800000.0_PTV
393,4656273,AIO,2008-10-23 10:43,-95.0465,41.4059,45.00,41.00,85.77,100.00,8.00,0.01,29.96,M,2.50,17.00,M,M,M,M,M,M,M,M,M,M,M,M,M,M,M,40.13,M,1224766800000.0,1224766800000.0_AIO
394,750,CBF,2008-01-01 01:55,-95.7604,41.2611,24.80,17.60,73.70,320.00,9.00,M,30.20,M,10.00,14.00,CLR,   ,   ,M,M,M,M,M,M,M,M,M,M,M,M,14.56,METAR KCBF 010155Z AUTO 32009G14KT 10SM CLR M04/M08 A3020 RMK AO2,1199163600000.0,1199163600000.0_CBF
395,4379359,AXA,2008-10-07 08:13,-94.2724,43.0796,61.00,56.00,83.59,160.00,10.00,M,29.92,M,10.00,15.00,M,M,M,M,M,M,M,M,M,M,M,M,M,M,M,61.00,M,1223377200000.0,1223377200000.0_AXA
396,84430,MQB,2008-01-06 09:40,-90.65,40.52,44.60,42.80,93.35,160.00,9.00,M,29.72,M,1.75,M,VV ,M,M,M,700.00,M,M,M,BR,M,M,M,M,M,M,39.18,KMQB 060940Z AUTO 16009KT 1 3/4SM BR VV007 07/06 A2972 RMK AO2,1199624400000.0,1199624400000.0_MQB
397,5457109,PEA,2008-12-13 05:15,-92.9431,41.3989,32.00,26.60,80.22,160.00,7.00,M,29.95,M,10.00,-99.00,M,M,M,M,M,M,M,M,M,M,M,M,M,M,M,24.78,M,1229158800000.0,1229158800000.0_PEA
398,1198952,TNU,2008-03-14 21:32,-93.01899999999999,41.6701,47.00,38.00,70.74,360.00,10.00,M,29.74,M,10.00,M,M,M,M,M,M,M,M,M,M,M,M,M,M,M,M,41.78,M,1205542800000.0,1205542800000.0_TNU
399,5154397,SMF,2008-11-25 09:53,-121.5908,38.6954,50.00,46.04,86.19,220.00,4.00,M,30.01,1016.30,6.00,M,CLR,   ,   ,   ,M,M,M,M,BR,M,M,M,M,M,M,48.44,KSMF 250953Z 22004KT 6SM BR CLR 10/08 A3001 RMK AO2 SLP163 T01000078,1227618000000.0,1227618000000.0_SMF
400,3521380,BNW,2008-08-16 09:17,-93.8486,42.0486,59.00,56.00,M,M,M,M,30.25,M,10.00,M,M,M,M,M,M,M,M,M,M,M,M,M,M,M,M,M,M,1218888000000.0,1218888000000.0_BNW
401,1941117,PEA,2008-05-02 02:58,-92.9431,41.3989,72.00,62.00,70.77,150.00,6.00,M,29.46,M,10.00,M,M,M,M,M,M,M,M,M,M,M,M,M,M,M,M,72.00,M,1209704400000.0,1209704400000.0_PEA
402,3858855,MAE,2008-09-05 21:53,-120.1107,36.9849,98.06,46.04,17.10,300.00,8.00,M,29.76,1007.50,10.00,M,CLR,   ,   ,   ,M,M,M,M,M,M,M,M,M,M,M,94.24,KMAE 052153Z AUTO 30008KT 10SM CLR 37/08 A2976 RMK AO2 SLP075 T03670078,1220659200000.0,1220659200000.0_MAE
403,1718565,TVK,2008-04-17 08:03,-92.8983,40.6832,55.00,48.00,77.21,10.00,10.00,M,29.89,M,10.00,M,M,M,M,M,M,M,M,M,M,M,M,M,M,M,M,55.00,M,1208430000000.0,1208430000000.0_TVK
404,923669,CBF,2008-02-26 16:14,-95.7604,41.2611,25.00,17.00,71.22,310.00,16.00,M,30.31,M,10.00,21.00,M,M,M,M,M,M,M,M,M,M,M,M,M,M,M,11.29,M,1204056000000.0,1204056000000.0_CBF
405,5114024,CAV,2008-11-23 03:43,-93.7593,42.743,31.00,31.00,M,M,M,M,30.20,M,7.00,M,M,M,M,M,M,M,M,M,M,M,M,M,M,M,M,M,M,1227423600000.0,1227423600000.0_CAV
406,3224145,RDK,2008-07-26 00:25,-95.2624,41.0106,82.00,75.00,79.40,10.00,5.00,M,30.00,M,10.00,M,M,M,M,M,M,M,M,M,M,M,M,M,M,M,M,88.64,M,1217041200000.0,1217041200000.0_RDK
407,5563266,MDH,2008-12-19 12:30,-89.25,37.78,57.20,55.40,93.69,220.00,20.00,M,29.76,M,10.00,28.00,OVC,M,M,M,1200.00,M,M,M,M,M,M,M,28.00,220.00,2008-12-19 12:30,57.20,KMDH 191230Z AUTO 22020G28KT 10SM OVC012 14/13 A2976 RMK AO2 PK WND 22028/1230,1229702400000.0,1229702400000.0_MDH
408,4281000,IKV,2008-10-01 17:15,-93.5695,41.6878,60.80,44.60,55.12,30.00,8.00,M,30.13,M,10.00,14.00,M,M,M,M,M,M,M,M,M,M,M,M,M,M,M,60.80,M,1222891200000.0,1222891200000.0_IKV
409,4446805,IKV,2008-10-11 05:03,-93.5695,41.6878,60.00,52.00,74.83,150.00,3.00,M,30.05,M,10.00,M,M,M,M,M,M,M,M,M,M,M,M,M,M,M,M,60.00,M,1223712000000.0,1223712000000.0_IKV
410,1574122,DSM,2008-04-07 12:54,-93.6531,41.5339,33.98,24.08,66.72,290.00,15.00,M,29.97,1015.10,10.00,M,BKN,M,M,M,2400.00,M,M,M,M,M,M,M,M,M,M,23.35,KDSM 071254Z 29015KT 10SM BKN024 01/M04 A2997 RMK AO2 SLP151 T00111044,1207580400000.0,1207580400000.0_DSM
411,4367345,ADU,2008-10-06 15:35,-94.9204,41.6994,71.60,60.80,68.75,160.00,11.00,M,30.02,M,10.00,-99.00,M,M,M,M,M,M,M,M,M,M,M,M,M,M,M,71.60,M,1223316000000.0,1223316000000.0_ADU
412,2457394,TIP,2008-06-05 18:45,-88.1424,40.2936,86.00,73.40,66.15,230.00,18.00,M,29.82,M,10.00,24.00,SCT,SCT,SCT,M,3600.00,4400.00,5000.00,M,M,M,M,M,M,M,M,93.45,KTIP 051845Z AUTO 23018G24KT 10SM SCT036 SCT044 SCT050 30/23 A2982 RMK AO2,1212699600000.0,1212699600000.0_TIP
413,4729238,PRO,2008-10-28 19:35,-94.1637,41.8278,53.00,9.00,16.75,280.00,6.00,M,30.39,M,10.00,M,M,M,M,M,M,M,M,M,M,M,M,M,M,M,M,53.00,M,1225234800000.0,1225234800000.0_PRO
414,397984,SMF,2008-01-25 08:53,-121.5908,38.6954,46.04,39.92,79.07,140.00,9.00,M,29.81,1009.30,10.00,M,FEW,BKN,   ,   ,7500.00,10000.00,M,M,M,M,M,M,M,M,M,40.97,KSMF 250853Z 14009KT 10SM FEW075 BKN100 08/04 A2981 RMK AO2 SLP093 T00780044 51015,1201262400000.0,1201262400000.0_SMF
415,5153876,GBG,2008-11-25 09:05,-90.4311,40.938,30.20,24.80,80.07,310.00,6.00,M,30.09,M,10.00,M,CLR,M,M,M,M,M,M,M,M,M,M,M,M,M,M,23.36,KGBG 250905Z AUTO 31006KT 10SM CLR M01/M04 A3009 RMK AO2,1227618000000.0,1227618000000.0_GBG
416,3766613,SNS,2008-08-31 08:53,-121.6093,36.6635,57.92,51.98,80.55,270.00,5.00,M,29.77,1008.80,6.00,M,OVC,   ,   ,   ,1100.00,M,M,M,HZ,M,M,M,M,M,M,57.92,KSNS 310853Z AUTO 27005KT 6SM HZ OVC011 14/11 A2977 RMK AO2 SLP088 T01440111 51009,1220180400000.0,1220180400000.0_SNS
417,3714625,FFL,2008-08-28 09:55,-91.9834,41.0521,69.80,64.40,82.98,140.00,7.00,0.01,29.76,M,5.00,-99.00,M,M,M,M,M,M,M,M,M,M,M,M,M,M,M,69.80,M,1219924800000.0,1219924800000.0_FFL
418,1275653,MXO,2008-03-19 06:35,-91.1605,42.2204,37.40,33.80,86.69,350.00,11.00,M,29.89,M,5.00,-99.00,M,M,M,M,M,M,M,M,M,M,M,M,M,M,M,29.29,M,1205920800000.0,1205920800000.0_MXO
419,1340827,EBS,2008-03-23 03:55,-93.8691,42.4392,32.00,28.40,86.39,340.00,10.00,M,30.38,M,10.00,-99.00,M,M,M,M,M,M,M,M,M,M,M,M,M,M,M,22.97,M,1206255600000.0,1206255600000.0_EBS
420,3054931,DEH,2008-07-15 13:53,-91.7433,43.2755,75.00,65.00,71.08,220.00,7.00,M,29.96,M,10.00,M,M,M,M,M,M,M,M,M,M,M,M,M,M,M,M,75.00,M,1216137600000.0,1216137600000.0_DEH
421,802510,CBF,2008-02-19 15:09,-95.7604,41.2611,14.00,7.00,73.19,170.00,7.00,M,30.05,M,10.00,M,M,M,M,M,M,M,M,M,M,M,M,M,M,M,M,2.84,M,1203447600000.0,1203447600000.0_CBF
422,2417538,ONT,2008-06-03 08:53,-117.6012,34.056,57.92,51.98,80.55,250.00,4.00,M,29.93,1012.40,8.00,M,CLR,   ,   ,   ,M,M,M,M,M,M,M,M,M,M,M,57.92,KONT 030853Z 25004KT 8SM CLR 14/11 A2993 RMK AO2 SLP124 T01440111 58010,1212490800000.0,1212490800000.0_ONT
423,796745,FWC,2008-02-19 06:25,-88.4126,38.3786,24.80,10.40,53.75,310.00,5.00,M,30.06,M,10.00,M,CLR,M,M,M,M,M,M,M,M,M,M,M,M,M,M,17.84,KFWC 190625Z AUTO 31005KT 10SM CLR M04/M12 A3006 RMK AO2,1203415200000.0,1203415200000.0_FWC
424,5275836,IDA,2008-12-02 16:30,-112.0708,43.5137,30.20,26.60,86.28,50.00,4.00,M,29.83,M,0.50,M,BKN,   ,   ,   ,100.00,M,M,M,FZFG,M,M,M,M,M,M,25.32,KIDA 021630Z 05004KT 1/2SM R20/P6000FT FZFG BKN001 M01/M03 A2983 RMK AO2,1228248000000.0,1228248000000.0_IDA
425,39371,DEH,2008-01-03 13:34,-91.7433,43.2755,10.00,1.00,66.29,190.00,9.00,M,30.45,M,M,14.00,M,M,M,M,M,M,M,M,M,M,M,M,M,M,M,-3.84,M,1199379600000.0,1199379600000.0_DEH
426,5185702,BLV,2008-11-27 03:55,-89.8352,38.5452,30.38,27.14,87.58,0.00,0.00,M,30.02,1017.10,7.00,M,CLR,M,M,M,M,M,M,M,M,M,M,M,M,M,M,30.38,KBLV 270355Z AUTO 00000KT 7SM CLR M01/M03 A3002 RMK AO2 SLP171 T10091027 $,1227769200000.0,1227769200000.0_BLV
427,3103168,DSM,2008-07-18 13:54,-93.6531,41.5339,69.98,66.02,87.26,310.00,5.00,M,29.98,1014.50,10.00,M,SCT,BKN,OVC,M,12000.00,15000.00,20000.00,M,M,M,M,M,M,M,M,69.98,KDSM 181354Z 31005KT 10SM SCT120 BKN150 OVC200 21/19 A2998 RMK AO2 SLP145 T02110189,1216396800000.0,1216396800000.0_DSM
428,1098335,RFD,2008-03-09 00:54,-89.09299999999999,42.1927,21.02,8.06,56.73,290.00,4.00,M,30.08,1019.90,10.00,M,FEW,M,M,M,25000.00,M,M,M,M,M,M,M,M,M,M,14.60,KRFD 090054Z 29004KT 10SM FEW250 M06/M13 A3008 RMK AO2 SLP199 T10611133,1205035200000.0,1205035200000.0_RFD
429,5242433,NZJ,2008-11-30 11:10,-117.73100000000001,33.676,55.40,55.40,100.00,30.00,3.00,M,30.11,M,1.00,M,OVC,   ,   ,   ,100.00,M,M,M,BR,M,M,M,M,M,M,55.40,KSNA 301110Z 03003KT 1SM BR OVC001 13/13 A3011 RMK AO2,1228057200000.0,1228057200000.0_NZJ
430,606764,SHL,2008-02-07 01:44,-95.8353,43.2082,16.00,14.00,91.64,M,0.00,M,29.88,M,2.00,M,M,M,M,M,M,M,M,M,M,M,M,M,M,M,M,16.00,M,1202360400000.0,1202360400000.0_SHL
431,5511618,ADU,2008-12-16 11:02,-94.9204,41.6994,1.00,-6.00,71.71,130.00,6.00,M,30.47,M,10.00,M,M,M,M,M,M,M,M,M,M,M,M,M,M,M,M,-11.81,M,1229439600000.0,1229439600000.0_ADU
432,2970196,LWS,2008-07-09 21:56,-117.0154,46.3745,96.98,37.04,12.49,340.00,9.00,M,29.90,1011.40,10.00,M,CLR,   ,   ,   ,M,M,M,M,M,M,M,M,M,M,M,92.12,KLWS 092156Z 34009KT 10SM CLR 36/03 A2990 RMK AO2 SLP114 T03610028,1215648000000.0,1215648000000.0_LWS
433,1153320,BNW,2008-03-12 07:13,-93.8486,42.0486,37.00,33.00,85.29,80.00,3.00,M,29.87,M,10.00,M,M,M,M,M,M,M,M,M,M,M,M,M,M,M,M,34.40,M,1205319600000.0,1205319600000.0_BNW
434,1622806,CAV,2008-04-10 23:16,-93.7593,42.743,43.00,43.00,100.00,80.00,26.00,M,29.29,M,7.00,33.00,M,M,M,M,M,M,M,M,M,M,M,M,M,M,M,32.52,M,1207879200000.0,1207879200000.0_CAV
435,2718702,MPZ,2008-06-23 06:46,-91.5122,40.9453,62.00,53.00,M,M,M,M,29.99,M,10.00,M,M,M,M,M,M,M,M,M,M,M,M,M,M,M,M,M,M,1214211600000.0,1214211600000.0_MPZ
436,5309402,TNU,2008-12-04 17:36,-93.01899999999999,41.6701,23.00,10.00,56.93,320.00,18.00,M,30.45,M,7.00,27.00,M,M,M,M,M,M,M,M,M,M,M,M,M,M,M,7.90,M,1228424400000.0,1228424400000.0_TNU
437,1164992,PEA,2008-03-12 23:35,-92.9431,41.3989,59.00,41.00,51.18,240.00,10.00,M,29.61,M,10.00,16.00,M,M,M,M,M,M,M,M,M,M,M,M,M,M,M,59.00,M,1205377200000.0,1205377200000.0_PEA
438,4741186,TRM,2008-10-29 15:52,-116.1597,33.6267,68.00,44.06,41.98,0.00,0.00,M,30.01,1016.30,10.00,M,CLR,   ,   ,   ,M,M,M,M,M,M,M,M,M,M,M,68.00,KTRM 291552Z AUTO 00000KT 10SM CLR 20/07 A3001 RMK AO2 SLP163 T02000067,1225306800000.0,1225306800000.0_TRM
439,5688555,GGI,2008-12-27 00:04,-92.7332,41.7097,44.00,43.00,96.24,160.00,15.00,M,29.59,M,M,M,M,M,M,M,M,M,M,M,M,M,M,M,M,M,M,36.34,M,1230350400000.0,1230350400000.0_GGI
440,1121579,SBP,2008-03-10 10:56,-120.6441,35.2381,46.04,39.92,79.07,0.00,0.00,M,30.19,1022.30,10.00,M,CLR,   ,   ,   ,M,M,M,M,M,M,M,M,M,M,M,46.04,KSBP 101056Z 00000KT 10SM CLR 08/04 A3019 RMK AO2 SLP223 T00780044 $,1205157600000.0,1205157600000.0_SBP
441,2518703,HNR,2008-06-10 02:34,-95.3355,41.5834,62.00,55.00,77.81,290.00,27.00,0.07,29.90,M,7.00,33.00,M,M,M,M,M,M,M,M,M,M,M,M,M,M,M,62.00,M,1213074000000.0,1213074000000.0_HNR
442,5588621,OXR,2008-12-21 01:51,-119.2072,34.2008,50.00,44.06,79.94,360.00,3.00,M,30.16,1021.20,9.00,M,CLR,   ,   ,   ,M,M,M,M,M,M,M,M,M,M,M,49.27,KOXR 210151Z AUTO 36003KT 9SM CLR 10/07 A3016 RMK AO2 SLP212 T01000067 TSNO,1229835600000.0,1229835600000.0_OXR
443,377493,SAN,2008-01-24 04:01,-117.1845,32.7339,53.60,46.40,76.50,170.00,12.00,0.03,29.95,M,2.00,18.00,FEW,BKN,OVC,   ,1600.00,2800.00,4700.00,M,+RA,M,M,M,M,M,M,53.60,KSAN 240401Z 17012G18KT 2SM +RA FEW016 BKN028 OVC047 12/08 A2995 RMK AO2 P0003,1201161600000.0,1201161600000.0_SAN
444,4971781,IGQ,2008-11-14 09:25,-87.5295,41.5349,50.00,46.40,87.37,200.00,14.00,M,29.57,M,5.00,20.00,SCT,BKN,OVC,M,1400.00,2200.00,3600.00,M,BR,M,M,M,M,M,M,44.36,KIGQ 140925Z AUTO 20014G20KT 5SM BR SCT014 BKN022 OVC036 10/08 A2957 RMK AO2,1226667600000.0,1226667600000.0_IGQ
445,1165722,PEA,2008-03-13 00:35,-92.9431,41.3989,53.60,41.00,62.23,280.00,17.00,M,29.64,M,10.00,23.00,M,M,M,M,M,M,M,M,M,M,M,M,M,M,M,53.60,M,1205380800000.0,1205380800000.0_PEA
446,1426012,ACV,2008-03-28 19:43,-124.1086,40.9781,48.20,46.40,93.45,140.00,10.00,0.01,29.91,M,1.75,M,BKN,OVC,   ,   ,2200.00,3000.00,M,M,-RA BR,M,M,M,M,M,M,43.28,KACV 281943Z AUTO 14010KT 1 3/4SM R32/5000VP6000FT -RA BR BKN022 OVC030 09/08 A2991 RMK AO2 P0001,1206745200000.0,1206745200000.0_ACV
447,2891309,EBS,2008-07-04 17:36,-93.8691,42.4392,77.00,56.00,48.29,160.00,7.00,M,30.08,M,10.00,M,M,M,M,M,M,M,M,M,M,M,M,M,M,M,M,77.00,M,1215201600000.0,1215201600000.0_EBS
448,5322821,ADU,2008-12-05 14:05,-94.9204,41.6994,13.00,8.00,80.02,200.00,8.00,M,30.30,M,10.00,M,M,M,M,M,M,M,M,M,M,M,M,M,M,M,M,0.71,M,1228500000000.0,1228500000000.0_ADU
449,2317891,ADU,2008-05-27 10:34,-94.9204,41.6994,54.00,50.00,86.29,50.00,14.00,M,30.05,M,10.00,20.00,M,M,M,M,M,M,M,M,M,M,M,M,M,M,M,54.00,M,1211893200000.0,1211893200000.0_ADU
450,1093962,CUL,2008-03-08 18:06,-88.1231,38.0895,28.40,15.80,58.75,300.00,12.00,M,30.07,M,10.00,20.00,SCT,M,M,M,3200.00,M,M,M,M,M,M,M,M,M,M,17.42,KCUL 081806Z AUTO 30012G20KT 10SM SCT032 M02/M09 A3007 RMK AO2,1205013600000.0,1205013600000.0_CUL
451,5451908,MUT,2008-12-12 22:13,-91.1406,41.367,25.00,17.00,71.22,150.00,4.00,M,30.17,M,10.00,M,M,M,M,M,M,M,M,M,M,M,M,M,M,M,M,19.25,M,1229133600000.0,1229133600000.0_MUT
452,1599319,RDD,2008-04-09 07:53,-122.2934,40.509,42.08,32.00,67.22,60.00,3.00,M,29.97,1014.60,10.00,M,CLR,   ,   ,   ,M,M,M,M,M,M,M,M,M,M,M,40.21,KRDD 090753Z AUTO 06003KT 10SM CLR 06/00 A2997 RMK AO2 SLP146 T00560000 401780056,1207735200000.0,1207735200000.0_RDD
453,122110,CKP,2008-01-08 21:54,-95.5538,42.7304,36.00,25.00,63.98,290.00,6.00,M,29.92,M,M,M,M,M,M,M,M,M,M,M,M,M,M,M,M,M,M,30.35,M,1199840400000.0,1199840400000.0_CKP
454,1019940,EOK,2008-03-04 02:03,-91.4274,40.4615,24.00,16.00,71.11,350.00,8.00,M,30.05,M,10.00,M,M,M,M,M,M,M,M,M,M,M,M,M,M,M,M,14.26,M,1204610400000.0,1204610400000.0_EOK
455,964556,DNV,2008-02-29 15:06,-87.5955,40.1997,37.40,32.00,80.65,230.00,10.00,0.01,29.94,M,10.00,14.00,SCT,BKN,BKN,M,5500.00,7500.00,11000.00,M,M,M,M,M,M,M,M,29.74,KDNV 291506Z AUTO 23010G14KT 10SM SCT055 BKN075 BKN110 03/00 A2994 RMK AO2 P0001,1204311600000.0,1204311600000.0_DNV
456,1686162,RNM,2008-04-15 05:53,-116.9153,33.0392,51.08,48.02,89.22,0.00,0.00,M,29.99,1014.30,5.00,M,CLR,   ,   ,   ,M,M,M,M,BR,M,M,M,M,M,M,51.08,KRNM 150553Z AUTO 00000KT 5SM BR CLR 11/09 A2999 RMK AO2 SLP143 T01060089 10267 20106 51017 TSNO $,1208246400000.0,1208246400000.0_RNM
457,1400075,SVE,2008-03-27 02:14,-120.5727,40.3757,33.80,30.20,86.49,270.00,9.00,M,30.04,M,10.00,M,FEW,SCT,BKN,   ,2100.00,2800.00,3600.00,M,M,M,M,M,M,M,M,25.75,KAAT 270214Z AUTO 27009KT 10SM FEW021 SCT028 BKN036 01/M01 A3004 RMK AO2 FZRANO TSNO,1206597600000.0,1206597600000.0_SVE
458,1416316,IGQ,2008-03-28 04:05,-87.5295,41.5349,35.60,33.80,93.08,30.00,11.00,M,29.93,M,7.00,19.00,BKN,BKN,OVC,M,900.00,6500.00,8500.00,M,M,M,M,M,M,M,M,27.02,KIGQ 280405Z AUTO 03011G19KT 7SM BKN009 BKN065 OVC085 02/01 A2993 RMK AO2 LTG DSNT SE,1206691200000.0,1206691200000.0_IGQ
459,494165,DIJ,2008-01-31 04:56,-111.0979,43.7419,12.02,5.00,72.91,180.00,14.00,M,29.96,1020.90,10.00,M,BKN,   ,   ,   ,7500.00,M,M,M,M,M,M,M,M,M,M,-4.59,KDIJ 310456Z AUTO 18014KT 10SM BKN075 M11/M15 A2996 RMK AO2 T11111150 BKN V OVC SLP209,1201766400000.0,1201766400000.0_DIJ
460,1365423,DPA,2008-03-24 18:52,-88.2486,41.9078,39.02,24.08,54.68,210.00,8.00,M,30.32,1027.50,10.00,M,OVC,M,M,M,4000.00,M,M,M,M,M,M,M,M,M,M,32.76,KDPA 241852Z 21008KT 10SM OVC040 04/M04 A3032 RMK AO2 SLP275 T00391044,1206396000000.0,1206396000000.0_DPA
461,1577860,SLB,2008-04-07 18:26,-95.2399,42.5972,50.00,28.00,42.33,290.00,13.00,M,30.02,M,10.00,21.00,M,M,M,M,M,M,M,M,M,M,M,M,M,M,M,44.63,M,1207602000000.0,1207602000000.0_SLB
462,247780,MPZ,2008-01-16 06:45,-91.5122,40.9453,27.00,19.00,71.45,160.00,16.00,M,29.98,M,10.00,20.00,M,M,M,M,M,M,M,M,M,M,M,M,M,M,M,13.90,M,1200477600000.0,1200477600000.0_MPZ
463,2407360,L35,2008-06-02 16:11,-116.85600000000001,34.2638,60.80,10.40,13.46,240.00,6.00,M,30.14,M,10.00,14.00,CLR,   ,   ,   ,M,M,M,M,M,M,M,M,M,M,M,60.80,KL35 021611Z AUTO 24006G14KT 10SM CLR 16/M12 A3014 RMK AO2,1212433200000.0,1212433200000.0_L35
464,3036330,CIN,2008-07-14 07:55,-94.7889,42.0444,59.00,55.40,87.83,250.00,3.00,M,29.94,M,10.00,-99.00,M,M,M,M,M,M,M,M,M,M,M,M,M,M,M,59.00,M,1216029600000.0,1216029600000.0_CIN
465,2428001,SDA,2008-06-03 23:52,-95.4112,40.7533,82.00,74.00,76.78,40.00,13.00,M,29.52,M,10.00,19.00,M,M,M,M,M,M,M,M,M,M,M,M,M,M,M,88.00,M,1212544800000.0,1212544800000.0_SDA
466,4268946,CKP,2008-09-30 21:35,-95.5538,42.7304,71.60,39.20,30.77,320.00,9.00,M,30.06,M,10.00,-99.00,M,M,M,M,M,M,M,M,M,M,M,M,M,M,M,69.91,M,1222819200000.0,1222819200000.0_CKP
467,2850902,CNC,2008-07-02 04:46,-93.3608,41.0184,72.00,63.00,73.31,170.00,7.00,M,29.86,M,10.00,M,M,M,M,M,M,M,M,M,M,M,M,M,M,M,M,72.00,M,1214982000000.0,1214982000000.0_CNC
468,1541526,JOT,2008-04-05 11:05,-88.1756,41.5177,32.00,30.20,92.97,0.00,0.00,M,29.98,M,0.75,M,VV ,M,M,M,500.00,M,M,M,BR,M,M,M,M,M,M,32.00,KJOT 051105Z AUTO 00000KT 3/4SM BR VV005 00/M01 A2998 RMK AO2 VIS 1/2V2 1/2,1207404000000.0,1207404000000.0_JOT
469,840069,OXV,2008-02-21 21:19,-93.1114,41.2984,19.00,12.00,73.73,70.00,4.00,M,30.06,M,5.50,M,M,M,M,M,M,M,M,M,M,M,M,M,M,M,M,12.24,M,1203642000000.0,1203642000000.0_OXV
470,4779710,VTI,2008-11-01 14:23,-92.0248,42.2176,49.00,45.00,86.00,70.00,7.00,M,30.33,M,7.00,M,M,M,M,M,M,M,M,M,M,M,M,M,M,M,M,45.50,M,1225562400000.0,1225562400000.0_VTI
471,2679999,ICL,2008-06-20 16:27,-95.0223,40.7242,76.00,62.00,61.87,290.00,4.00,M,30.04,M,10.00,M,M,M,M,M,M,M,M,M,M,M,M,M,M,M,M,76.00,M,1213988400000.0,1213988400000.0_ICL
472,1860483,CPS,2008-04-26 12:53,-90.1562,38.5707,46.04,35.06,65.32,270.00,8.00,M,30.14,1020.50,10.00,M,CLR,M,M,M,M,M,M,M,M,M,M,M,M,M,M,41.41,KCPS 261253Z 27008KT 10SM CLR 08/02 A3014 RMK AO2 SLP205 T00780017 $,1209222000000.0,1209222000000.0_CPS
473,4006791,OVE,2008-09-15 13:53,-121.62,39.49,60.08,50.00,69.29,0.00,0.00,M,29.98,1015.10,10.00,M,CLR,   ,   ,   ,M,M,M,M,M,M,M,M,M,M,M,60.08,KOVE 151353Z AUTO 00000KT 10SM CLR 16/10 A2998 RMK AO2 SLP151 T01560100 TSNO $,1221494400000.0,1221494400000.0_OVE
474,4548301,CAV,2008-10-17 02:13,-93.7593,42.743,44.00,36.00,M,M,M,M,30.28,M,10.00,M,M,M,M,M,M,M,M,M,M,M,M,M,M,M,M,M,M,1224219600000.0,1224219600000.0_CAV
475,1146844,TVK,2008-03-11 21:59,-92.8983,40.6832,57.00,35.00,43.46,260.00,11.00,M,29.90,M,10.00,M,M,M,M,M,M,M,M,M,M,M,M,M,M,M,M,57.00,M,1205283600000.0,1205283600000.0_TVK
476,2675666,AXA,2008-06-20 09:36,-94.2724,43.0796,65.00,60.00,83.84,310.00,7.00,M,29.94,M,10.00,M,M,M,M,M,M,M,M,M,M,M,M,M,M,M,M,65.00,M,1213963200000.0,1213963200000.0_AXA
477,2232975,MUT,2008-05-21 18:55,-91.1406,41.367,71.60,32.00,23.13,300.00,6.00,M,29.75,M,10.00,-99.00,M,M,M,M,M,M,M,M,M,M,M,M,M,M,M,69.55,M,1211403600000.0,1211403600000.0_MUT
478,2110165,CNO,2008-05-13 08:53,-117.6361,33.9753,53.96,46.04,74.48,0.00,0.00,M,29.89,1011.80,8.00,M,OVC,   ,   ,   ,3400.00,M,M,M,M,M,M,M,M,M,M,53.96,KCNO 130853Z AUTO 00000KT 8SM OVC034 12/08 A2989 RMK AO2 SLP118 T01220078 58004,1210676400000.0,1210676400000.0_CNO
479,2537918,TWF,2008-06-11 08:42,-114.4878,42.4818,35.60,30.20,80.51,240.00,17.00,0.02,30.01,M,1.75,26.00,OVC,   ,   ,   ,800.00,M,M,M,-SN BR,M,M,M,30.00,230.00,2008-06-11 07:59,24.79,KTWF 110842Z AUTO 24017G26KT 1 3/4SM -SN BR OVC008 02/M01 A3001 RMK AO2 PK WND 23030/0759 P0002,1213182000000.0,1213182000000.0_TWF
480,1580258,EOK,2008-04-07 21:56,-91.4274,40.4615,54.00,34.00,46.57,280.00,9.00,M,30.04,M,10.00,M,M,M,M,M,M,M,M,M,M,M,M,M,M,M,M,54.00,M,1207612800000.0,1207612800000.0_EOK
481,5239448,BNW,2008-11-30 05:43,-93.8486,42.0486,31.00,28.00,88.48,350.00,3.00,M,29.61,M,1.25,M,M,M,M,M,M,M,M,M,M,M,M,M,M,M,M,27.55,M,1228035600000.0,1228035600000.0_BNW
482,2481826,DEC,2008-06-07 07:37,-88.8657,39.8346,73.40,71.60,94.10,170.00,7.00,0.02,29.94,M,10.00,M,SCT,BKN,OVC,M,600.00,2300.00,5000.00,M,-RA,M,M,M,M,M,M,74.86,KDEC 070737Z AUTO 17007KT 10SM -RA SCT006 BKN023 OVC050 23/22 A2994 RMK AO2 LTG DSNT E-SW RAB26 P0002,1212832800000.0,1212832800000.0_DEC
483,4068126,ORC,2008-09-19 03:13,-96.0606,42.9895,64.00,59.00,83.78,180.00,7.00,M,30.09,M,10.00,M,M,M,M,M,M,M,M,M,M,M,M,M,M,M,M,64.00,M,1221804000000.0,1221804000000.0_ORC
484,1460362,TIP,2008-03-30 22:25,-88.1424,40.2936,55.40,51.80,87.65,170.00,11.00,M,30.07,M,7.00,M,BKN,BKN,OVC,M,900.00,2100.00,2800.00,M,M,M,M,M,M,M,M,55.40,KTIP 302225Z AUTO 17011KT 7SM BKN009 BKN021 OVC028 13/11 A3007 RMK AO2,1206925200000.0,1206925200000.0_TIP
485,2355293,LPC,2008-05-29 21:55,-120.4675,34.6656,68.00,M,M,280.00,18.00,M,30.06,M,M,21.00,   ,   ,   ,   ,M,M,M,M,M,M,M,M,M,M,M,M,KLPC 292155Z AUTO 28018G21KT 20/ A3006 RMK AO1 PNO,1212105600000.0,1212105600000.0_LPC
486,3201580,LWS,2008-07-24 16:56,-117.0154,46.3745,68.00,44.96,43.44,360.00,3.00,M,30.12,1019.20,10.00,M,CLR,   ,   ,   ,M,M,M,M,M,M,M,M,M,M,M,68.00,KLWS 241656Z 36003KT 10SM CLR 20/07 A3012 RMK AO2 SLP192 T02000072,1216926000000.0,1216926000000.0_LWS
487,1639217,DEH,2008-04-12 01:47,-91.7433,43.2755,35.00,33.00,92.32,350.00,9.00,0.03,29.47,M,2.50,M,M,M,M,M,M,M,M,M,M,M,M,M,M,M,M,27.24,M,1207972800000.0,1207972800000.0_DEH
488,1239029,L35,2008-03-17 03:50,-116.85600000000001,34.2638,28.40,8.60,42.73,350.00,4.00,M,29.91,M,10.00,M,SCT,BKN,OVC,   ,5500.00,6500.00,7500.00,M,M,M,M,M,M,M,M,23.22,KL35 170350Z AUTO 35004KT 10SM SCT055 BKN065 OVC075 M02/M13 A2991 RMK AO2,1205737200000.0,1205737200000.0_L35
489,3797007,MDH,2008-09-02 10:52,-89.25,37.78,71.06,68.00,90.06,0.00,0.00,M,30.01,1015.80,6.00,M,CLR,M,M,M,M,M,M,M,BR,M,M,M,M,M,M,72.10,KMDH 021052Z AUTO 00000KT 6SM BR CLR 22/20 A3001 RMK AO2 SLP158 T02170200 TSNO,1220360400000.0,1220360400000.0_MDH
490,2500169,MYL,2008-06-08 15:50,-116.1017,44.8889,44.96,35.96,70.52,160.00,4.00,M,30.12,1019.90,10.00,M,CLR,   ,   ,   ,M,M,M,M,M,M,M,M,M,M,M,42.55,KMYL 081550Z AUTO 16004KT 10SM CLR 07/02 A3012 RMK AO2 SLP199 T00720022,1212948000000.0,1212948000000.0_MYL
491,2061231,MXO,2008-05-10 02:37,-91.1605,42.2204,56.00,49.00,M,M,M,M,29.92,M,10.00,M,M,M,M,M,M,M,M,M,M,M,M,M,M,M,M,M,M,1210395600000.0,1210395600000.0_MXO
492,977041,HWD,2008-03-01 13:23,-122.1212,37.6588,51.80,51.80,100.00,0.00,0.00,M,30.23,M,4.00,M,BKN,OVC,   ,   ,900.00,1500.00,M,M,-RA BR,M,M,M,M,M,M,51.80,KHWD 011323Z AUTO 00000KT 4SM -RA BR BKN009 OVC015 11/11 A3023 RMK AO2 RAB12 CIG 006V010 P0000 $,1204390800000.0,1204390800000.0_HWD
493,5177808,PIH,2008-11-26 17:53,-112.5959,42.9098,35.96,26.06,66.97,0.00,0.00,M,30.12,1022.40,10.00,M,CLR,   ,   ,   ,M,M,M,M,M,M,M,M,M,M,M,35.96,KPIH 261753Z 00000KT 10SM CLR 02/M03 A3012 RMK AO2 SLP224 T00221033 10022 21061 58008,1227733200000.0,1227733200000.0_PIH
494,3793000,MIW,2008-09-02 04:53,-92.9163,42.1106,75.02,69.98,84.34,150.00,7.00,M,29.95,1013.20,6.00,M,CLR,   ,   ,M,M,M,M,M,HZ,M,M,M,M,M,M,76.19,METAR KMIW 020453Z AUTO 15007KT 6SM HZ CLR 24/21 A2995 RMK AO2 SLP132 T02390211,1220338800000.0,1220338800000.0_MIW
495,673320,CKP,2008-02-11 10:15,-95.5538,42.7304,3.20,-4.00,71.29,110.00,6.00,M,30.26,M,10.00,-99.00,M,M,M,M,M,M,M,M,M,M,M,M,M,M,M,-9.16,M,1202738400000.0,1202738400000.0_CKP
496,2645604,AXA,2008-06-18 08:28,-94.2724,43.0796,59.00,54.00,M,M,M,M,30.00,M,10.00,M,M,M,M,M,M,M,M,M,M,M,M,M,M,M,M,M,M,1213786800000.0,1213786800000.0_AXA
497,2829253,LVK,2008-06-30 14:53,-121.8149,37.6931,55.94,51.98,86.52,M,5.00,M,30.03,1016.80,10.00,M,BKN,   ,   ,   ,600.00,M,M,M,FU,M,M,M,M,M,M,55.94,KLVK 301453Z VRB05KT 10SM FU BKN006 13/11 A3003 RMK AO2 SLP168 T01330111 51015,1214845200000.0,1214845200000.0_LVK
498,4204658,ICL,2008-09-27 00:35,-95.0223,40.7242,73.40,59.00,60.67,160.00,4.00,M,30.04,M,-99.00,-99.00,M,M,M,M,M,M,M,M,M,M,M,M,M,M,M,73.40,M,1222484400000.0,1222484400000.0_ICL
499,3578846,ORC,2008-08-20 02:35,-96.0606,42.9895,71.60,64.40,78.04,120.00,3.00,M,30.04,M,10.00,-99.00,M,M,M,M,M,M,M,M,M,M,M,M,M,M,M,71.60,M,1219208400000.0,1219208400000.0_ORC
500,6381394,MUT,2008-11-12 09:55,-91.1406,41.367,44.60,44.60,100.00,150.00,6.00,M,29.91,M,4.00,-99.00,M,M,M,M,M,M,M,M,M,M,M,M,M,M,M,40.71,M,1226494800000.0,1226494800000.0_MUT
501,2996452,CIN,2008-05-29 21:12,-94.7889,42.0444,62.00,60.00,93.15,130.00,14.00,M,29.89,M,7.00,M,M,M,M,M,M,M,M,M,M,M,M,M,M,M,M,62.00,M,1212105600000.0,1212105600000.0_CIN
502,7138575,CRS,2008-12-18 03:53,-96.4,32.03,48.02,46.94,96.02,0.00,0.00,M,30.17,1021.80,0.25,M,VV ,   ,   ,M,100.00,M,M,M,FG,M,M,M,M,M,M,48.02,METAR KCRS 180353Z AUTO 00000KT 1/4SM FG VV001 09/08 A3017 RMK AO2 SLP218 T00890083,1229583600000.0,1229583600000.0_CRS
503,310551,PPA,2008-01-16 09:09,-100.9963,35.613,32.00,28.40,86.39,190.00,9.00,M,29.65,M,10.00,M,CLR,   ,   ,M,M,M,M,M,M,M,M,M,M,M,M,23.51,METAR KPPA 160909Z AUTO 19009KT 10SM CLR 00/M02 A2965 RMK AO2,1200488400000.0,1200488400000.0_PPA
504,2092933,CPT,2008-04-13 13:25,-97.4338,32.3537,51.80,41.00,66.48,350.00,8.00,M,30.33,M,10.00,M,OVC,   ,   ,M,12000.00,M,M,M,M,M,M,M,M,M,M,51.80,METAR KCPT 131325Z AUTO 35008KT 10SM OVC120 11/05 A3033 RMK AO2,1208102400000.0,1208102400000.0_CPT
505,2803869,ORC,2008-05-20 03:04,-96.0606,42.9895,65.00,46.00,50.14,340.00,6.00,M,29.65,M,10.00,M,M,M,M,M,M,M,M,M,M,M,M,M,M,M,M,65.00,M,1211263200000.0,1211263200000.0_ORC
506,5459135,TVK,2008-09-28 18:22,-92.8983,40.6832,73.00,64.00,M,M,M,M,30.17,M,10.00,M,M,M,M,M,M,M,M,M,M,M,M,M,M,M,M,M,M,1222635600000.0,1222635600000.0_TVK
507,6297443,ASJ,2008-11-08 05:43,-77.17,36.3,55.40,51.80,87.65,170.00,4.00,M,29.83,M,10.00,M,CLR,   ,   ,M,M,M,M,M,M,M,M,M,M,M,M,55.40,METAR KASJ 080543Z AUTO 17004KT 10SM CLR 13/11 A2983 RMK AO2,1226134800000.0,1226134800000.0_ASJ
508,4097273,CAV,2008-07-23 06:55,-93.7593,42.743,64.40,62.60,93.88,90.00,5.00,M,30.13,M,10.00,-99.00,M,M,M,M,M,M,M,M,M,M,M,M,M,M,M,64.40,M,1216803600000.0,1216803600000.0_CAV
509,1279171,E38,2008-03-04 11:05,-103.684,30.384,30.20,12.20,46.62,0.00,0.00,M,30.10,M,10.00,M,CLR,   ,   ,M,M,M,M,M,M,M,M,M,M,M,M,30.20,METAR KE38 041105Z AUTO 00000KT 10SM CLR M01/M11 A3010 RMK AO2,1204642800000.0,1204642800000.0_E38
510,2576486,LBT,2008-05-08 11:54,-79.06,34.61,69.08,64.04,83.98,220.00,6.00,M,29.95,1014.10,10.00,M,SCT,BKN,   ,M,2600.00,11000.00,M,M,M,M,M,M,M,M,M,69.08,METAR KLBT 081154Z AUTO 22006KT 10SM SCT026 BKN110 21/18 A2995 RMK AO2 SLP141 T02060178 10206 20178 53012,1210255200000.0,1210255200000.0_LBT
511,5573583,RWI,2008-10-04 04:53,-77.8919,35.8563,50.00,48.92,96.05,0.00,0.00,M,30.12,1020.00,3.00,M,CLR,   ,   ,M,M,M,M,M,BR,M,M,M,M,M,M,50.00,METAR KRWI 040453Z AUTO 00000KT 3SM BR CLR 10/09 A3012 RMK AO2 SLP200 T01000094 402330061,1223103600000.0,1223103600000.0_RWI
512,3060748,UIL,2008-06-02 06:53,-124.5626,47.9366,48.92,44.96,86.13,0.00,0.00,M,30.17,1021.60,10.00,M,OVC,   ,   ,M,4200.00,M,M,M,M,M,M,M,M,M,M,48.92,METAR KUIL 020653Z AUTO 00000KT 10SM OVC042 09/07 A3017 RMK AO2 SLP216 T00940072 TSNO,1212397200000.0,1212397200000.0_UIL
513,3958661,GGI,2008-07-16 13:55,-92.7332,41.7097,77.00,69.00,76.36,160.00,6.00,M,30.09,M,10.00,M,M,M,M,M,M,M,M,M,M,M,M,M,M,M,M,77.00,M,1216224000000.0,1216224000000.0_GGI
514,1693365,BVS,2008-03-23 14:10,-122.42,48.47,44.60,39.20,81.20,160.00,15.00,M,30.00,M,10.00,24.00,SCT,BKN,OVC,M,1700.00,4100.00,4900.00,M,M,M,M,M,M,M,M,37.11,METAR KBVS 231410Z AUTO 16015G24KT 10SM SCT017 BKN041 OVC049 07/04 A3000 RMK A01 P000,1206295200000.0,1206295200000.0_BVS
515,7230143,CCY,2008-12-22 14:53,-92.6132,43.073,-11.00,-15.00,81.85,260.00,5.00,M,30.41,M,10.00,M,M,M,M,M,M,M,M,M,M,M,M,M,M,M,M,-24.67,M,1229968800000.0,1229968800000.0_CCY
516,3084306,UIL,2008-06-03 10:53,-124.5626,47.9366,48.92,46.94,92.84,80.00,3.00,0.08,29.82,1009.60,5.00,M,OVC,   ,   ,M,1700.00,M,M,M,-RA BR,M,M,M,M,M,M,48.03,METAR KUIL 031053Z AUTO 08003KT 5SM -RA BR OVC017 09/08 A2982 RMK AO2 SLP096 P0008 T00940083 TSNO,1212498000000.0,1212498000000.0_UIL
517,1600462,HNR,2008-03-19 05:15,-95.3355,41.5834,33.80,32.00,93.03,M,0.00,M,30.02,M,5.00,-99.00,M,M,M,M,M,M,M,M,M,M,M,M,M,M,M,33.80,M,1205917200000.0,1205917200000.0_HNR
518,1291046,AFP,2008-03-05 00:40,-80.0771,35.0206,66.20,62.60,88.18,170.00,18.00,0.01,29.62,M,10.00,26.00,BKN,BKN,OVC,M,2100.00,2700.00,4800.00,M,-RA,M,M,M,M,M,M,66.20,METAR KAFP 050040Z AUTO 17018G26KT 10SM -RA BKN021 BKN027 OVC048 19/17 A2962 RMK AO2 P0001,1204689600000.0,1204689600000.0_AFP
519,4373088,SLK,2008-08-06 23:51,-74.2062,44.3853,60.98,59.00,93.19,0.00,0.00,M,29.80,1008.60,10.00,M,FEW,   ,   ,   ,6000.00,M,M,M,M,M,M,M,M,M,M,60.98,METAR KSLK 062351Z AUTO 00000KT 10SM FEW060 16/15 A2980 RMK AO2 SLP086 60017 T01610150 10228 20161 50003,1218074400000.0,1218074400000.0_SLK
520,11334,CLL,2008-01-01 14:53,-96.3639,30.5881,42.08,24.08,48.56,360.00,10.00,M,30.71,1039.90,10.00,M,CLR,   ,   ,M,M,M,M,M,M,M,M,M,M,M,M,35.61,METAR KCLL 011453Z 36010KT 10SM CLR 06/M04 A3071 RMK AO2 SLP399 T00561044 51036,1199210400000.0,1199210400000.0_CLL
521,7249967,XBP,2008-12-23 14:25,-97.8284,33.1753,32.00,32.00,100.00,150.00,5.00,M,29.99,M,1.75,M,OVC,   ,   ,M,900.00,M,M,M,BR,M,M,M,M,M,M,26.40,METAR KXBP 231425Z AUTO 15005KT 1 3/4SM BR OVC009 00/00 A2999 RMK AO2,1230055200000.0,1230055200000.0_XBP
522,6176684,FQD,2008-11-01 22:52,-81.9351,35.4282,66.20,35.60,32.14,0.00,0.00,M,30.29,M,10.00,M,   ,   ,   ,M,M,M,M,M,M,M,M,M,M,M,M,66.20,METAR KFQD 012252Z AUTO 00000KT 10SM 19/02 A3029 RMK AO2,1225591200000.0,1225591200000.0_FQD
523,347192,JSO,2008-01-18 04:25,-95.22,31.87,33.80,23.00,64.23,10.00,4.00,M,30.20,M,10.00,M,OVC,   ,   ,M,9000.00,M,M,M,M,M,M,M,M,M,M,29.52,METAR KJSO 180425Z AUTO 01004KT 10SM OVC090 01/M05 A3020 RMK AO2,1200643200000.0,1200643200000.0_JSO
524,118765,OOA,2008-01-07 00:15,-92.4919,41.2273,41.00,37.40,86.89,M,0.00,M,29.75,M,M,-99.00,M,M,M,M,M,M,M,M,M,M,M,M,M,M,M,41.00,M,1199678400000.0,1199678400000.0_OOA
525,7170499,AWG,2008-12-19 16:53,-91.6748,41.2751,29.00,25.00,84.79,0.00,0.00,M,29.97,M,5.50,M,M,M,M,M,M,M,M,M,M,M,M,M,M,M,M,29.00,M,1229716800000.0,1229716800000.0_AWG
526,2453671,PEZ,2008-05-02 03:25,-98.52,28.9542,75.20,75.20,100.00,120.00,11.00,M,29.63,M,7.00,15.00,CLR,   ,   ,M,M,M,M,M,M,M,M,M,M,M,M,77.12,METAR KPEZ 020325Z AUTO 12011G15KT 7SM CLR 24/24 A2963 RMK AO2,1209708000000.0,1209708000000.0_PEZ
527,4401871,RWV,2008-08-08 12:05,-96.7041,30.5155,75.20,73.40,94.14,220.00,4.00,M,30.01,M,7.00,M,CLR,   ,   ,M,M,M,M,M,M,M,M,M,M,M,M,76.84,METAR KRWV 081205Z AUTO 22004KT 7SM CLR 24/23 A3001 RMK AO2,1218207600000.0,1218207600000.0_RWV
528,236416,HHF,2008-01-12 18:27,-100.404,35.895,51.80,23.00,32.17,360.00,12.00,M,30.07,M,10.00,17.00,CLR,   ,   ,M,M,M,M,M,M,M,M,M,M,M,M,51.80,METAR KHHF 121827Z AUTO 36012G17KT 10SM CLR 11/M05 A3007 RMK AO2,1200175200000.0,1200175200000.0_HHF
529,1634317,EBS,2008-03-20 17:33,-93.8691,42.4392,50.00,41.00,71.07,130.00,15.00,M,30.12,M,10.00,M,M,M,M,M,M,M,M,M,M,M,M,M,M,M,M,44.12,M,1206046800000.0,1206046800000.0_EBS
530,524093,OLZ,2008-01-26 17:14,-91.976,42.6831,19.00,13.00,77.06,270.00,10.00,M,29.92,M,10.00,M,M,M,M,M,M,M,M,M,M,M,M,M,M,M,M,6.67,M,1201381200000.0,1201381200000.0_OLZ
531,1875107,SHN,2008-04-02 02:53,-123.1476,47.2336,42.98,28.94,57.35,10.00,3.00,M,30.17,1022.30,10.00,M,CLR,   ,   ,M,M,M,M,M,M,M,M,M,M,M,M,41.24,METAR KSHN 020253Z AUTO 01003KT 10SM CLR 06/M02 A3017 RMK AO2 SLP223 T00611017 55005,1207112400000.0,1207112400000.0_SHN
532,3841180,ICL,2008-07-10 17:55,-95.0223,40.7242,86.00,66.20,51.72,200.00,12.00,M,29.95,M,10.00,17.00,M,M,M,M,M,M,M,M,M,M,M,M,M,M,M,88.39,M,1215720000000.0,1215720000000.0_ICL
533,2160645,SUT,2008-04-17 00:40,-78.0747,33.9292,53.60,35.60,50.36,0.00,0.00,M,30.22,M,10.00,M,CLR,   ,   ,M,M,M,M,M,M,M,M,M,M,M,M,53.60,METAR KSUT 170040Z AUTO 00000KT 10SM CLR 12/02 A3022 RMK AO2,1208401200000.0,1208401200000.0_SUT
534,198987,HPN,2008-01-10 23:56,-73.7075,41.0669,42.98,21.02,41.24,0.00,0.00,M,30.10,1019.60,10.00,M,BKN,   ,   ,   ,9500.00,M,M,M,M,M,M,M,M,M,M,42.98,METAR KHPN 102356Z 00000KT 10SM BKN095 06/M06 A3010 RMK AO2 SLP196 T00611061 10094 20050 58006,1200020400000.0,1200020400000.0_HPN
535,856116,GEV,2008-02-12 05:02,-81.42,36.43,33.80,10.40,37.22,0.00,0.00,M,30.18,M,10.00,M,CLR,   ,   ,M,M,M,M,M,M,M,M,M,M,M,M,33.80,METAR KGEV 120502Z AUTO 00000KT 10SM CLR 01/M12 A3018 RMK AO2,1202806800000.0,1202806800000.0_GEV
536,2681864,INJ,2008-05-13 21:25,-97.0972,32.0836,80.60,71.60,74.11,140.00,15.00,M,29.78,M,10.00,22.00,SCT,SCT,   ,M,2000.00,12000.00,M,M,M,M,M,M,M,M,M,84.57,METAR KINJ 132125Z AUTO 14015G22KT 10SM SCT020 SCT120 27/22 A2978 RMK AO2,1210723200000.0,1210723200000.0_INJ
537,2521785,MUT,2008-05-05 15:57,-91.1406,41.367,72.00,44.00,M,M,M,M,30.03,M,10.00,M,M,M,M,M,M,M,M,M,M,M,M,M,M,M,M,M,M,1210010400000.0,1210010400000.0_MUT
538,6114024,EBS,2008-10-29 13:25,-93.8691,42.4392,31.00,25.00,M,M,M,M,30.18,M,10.00,M,M,M,M,M,M,M,M,M,M,M,M,M,M,M,M,M,M,1225299600000.0,1225299600000.0_EBS
539,144656,CAV,2008-01-08 09:25,-93.7593,42.743,31.00,31.00,100.00,330.00,6.00,M,29.72,M,M,M,M,M,M,M,M,M,M,M,M,M,M,M,M,M,M,24.33,M,1199797200000.0,1199797200000.0_CAV
540,4942972,JQF,2008-09-04 05:40,-80.7091,35.3878,62.60,62.60,100.00,0.00,0.00,M,29.99,M,3.00,M,CLR,   ,   ,M,M,M,M,M,BR,M,M,M,M,M,M,62.60,METAR KJQF 040540Z AUTO 00000KT 3SM BR CLR 17/17 A2999 RMK AO2,1220515200000.0,1220515200000.0_JQF
541,4554997,OAJ,2008-08-16 15:15,-77.6121,34.8292,77.00,69.80,78.48,50.00,6.00,M,30.06,M,10.00,M,SCT,   ,   ,M,12000.00,M,M,M,M,M,M,M,M,M,M,78.09,METAR KOAJ 161515Z AUTO 05006KT 10SM SCT120 25/21 A3006 RMK AO2 PWINO FZRANO RVRNO,1218909600000.0,1218909600000.0_OAJ
542,4813072,AIO,2008-08-29 02:32,-95.0465,41.4059,63.00,58.00,83.72,350.00,5.00,M,29.96,M,10.00,M,M,M,M,M,M,M,M,M,M,M,M,M,M,M,M,63.00,M,1219986000000.0,1219986000000.0_AIO
543,2987549,FFL,2008-05-29 10:45,-91.9834,41.0521,52.00,45.00,76.94,120.00,4.00,M,30.19,M,10.00,M,M,M,M,M,M,M,M,M,M,M,M,M,M,M,M,52.00,M,1212066000000.0,1212066000000.0_FFL
544,1956346,SDA,2008-04-06 06:17,-95.4112,40.7533,52.00,40.00,63.48,130.00,7.00,M,29.71,M,10.00,M,M,M,M,M,M,M,M,M,M,M,M,M,M,M,M,52.00,M,1207472400000.0,1207472400000.0_SDA
545,6319138,DFW,2008-11-09 07:53,-97.038,32.8968,53.06,35.96,52.11,50.00,3.00,M,30.04,M,10.00,-99.00,M,M,M,M,M,M,M,M,M,M,M,M,M,M,M,53.06,M,1226228400000.0,1226228400000.0_DFW
546,3422766,EOK,2008-06-19 23:26,-91.4274,40.4615,74.00,57.00,55.34,270.00,6.00,M,29.91,M,10.00,M,M,M,M,M,M,M,M,M,M,M,M,M,M,M,M,74.00,M,1213927200000.0,1213927200000.0_EOK
547,2638900,F39,2008-05-11 16:44,-96.6667,33.7167,59.00,33.80,38.56,310.00,7.00,M,30.14,M,10.00,16.00,CLR,   ,   ,M,M,M,M,M,M,M,M,M,M,M,M,59.00,METAR KGYI 111644Z AUTO 31007G16KT 10SM CLR 15/01 A3014 RMK AO2,1210532400000.0,1210532400000.0_F39
548,5100770,MXO,2008-09-12 04:45,-91.1605,42.2204,71.00,67.00,87.19,190.00,5.00,M,29.96,M,5.50,M,M,M,M,M,M,M,M,M,M,M,M,M,M,M,M,71.00,M,1221202800000.0,1221202800000.0_MXO
549,4268177,NOG,2008-08-01 08:53,-98.0517,27.9011,75.92,73.94,93.59,0.00,0.00,M,29.85,1010.60,2.00,M,FEW,   ,   ,M,800.00,M,M,M,BR,M,M,M,M,M,M,77.61,METAR KALI 010853Z AUTO 00000KT 2SM BR FEW008 24/23 A2985 RMK AO2 SLP106 T02440233 53000,1217588400000.0,1217588400000.0_NOG
550,1326262,BNW,2008-03-06 16:16,-93.8486,42.0486,26.00,18.00,71.33,280.00,12.00,M,30.17,M,10.00,M,M,M,M,M,M,M,M,M,M,M,M,M,M,M,M,14.37,M,1204833600000.0,1204833600000.0_BNW
551,3512585,MUT,2008-06-24 09:06,-91.1406,41.367,65.00,62.00,M,M,M,M,30.14,M,10.00,M,M,M,M,M,M,M,M,M,M,M,M,M,M,M,M,M,M,1214308800000.0,1214308800000.0_MUT
552,6343281,ATT,2008-11-10 12:51,-97.7601,30.3208,66.02,57.02,72.72,M,4.00,M,29.92,1012.40,10.00,M,BKN,OVC,   ,M,2700.00,3200.00,M,M,M,M,M,M,M,M,M,66.02,METAR KATT 101251Z AUTO VRB04KT 10SM BKN027 OVC032 19/14 A2992 RMK AO2 SLP124 T01890139,1226332800000.0,1226332800000.0_ATT
553,1832195,DEH,2008-03-30 17:07,-91.7433,43.2755,44.00,36.00,73.27,190.00,4.00,M,30.11,M,10.00,M,M,M,M,M,M,M,M,M,M,M,M,M,M,M,M,41.43,M,1206907200000.0,1206907200000.0_DEH
554,4488432,POU,2008-08-13 01:53,-73.8842,41.6266,64.94,62.06,90.39,0.00,0.00,M,29.79,1008.30,10.00,M,BKN,OVC,   ,   ,9500.00,11000.00,M,M,M,M,M,M,M,M,M,64.94,METAR KPOU 130153Z 00000KT 10SM BKN095 OVC110 18/17 A2979 RMK AO2 SLP083 T01830167,1218600000000.0,1218600000000.0_POU
555,723617,FFL,2008-02-05 15:14,-91.9834,41.0521,35.00,32.00,88.68,20.00,8.00,M,29.96,M,4.00,M,M,M,M,M,M,M,M,M,M,M,M,M,M,M,M,27.81,M,1202238000000.0,1202238000000.0_FFL
556,6085460,MUT,2008-10-28 01:35,-91.1406,41.367,41.00,28.40,60.54,310.00,5.00,M,30.44,M,10.00,-99.00,M,M,M,M,M,M,M,M,M,M,M,M,M,M,M,37.08,M,1225170000000.0,1225170000000.0_MUT
557,7269720,CAV,2008-12-24 13:23,-93.7593,42.743,9.00,5.00,83.41,290.00,15.00,M,29.81,M,10.00,M,M,M,M,M,M,M,M,M,M,M,M,M,M,M,M,-9.04,M,1230138000000.0,1230138000000.0_CAV
558,2428126,SLB,2008-04-30 17:55,-95.2399,42.5972,66.20,41.00,39.72,120.00,23.00,M,29.62,M,10.00,28.00,CLR,   ,   ,M,M,M,M,M,M,M,M,M,M,M,M,66.20,METAR KSLB 301755Z AUTO 12023G28KT 10SM CLR 19/05 A2962 RMK AO2,1209585600000.0,1209585600000.0_SLB
559,4511874,NOG,2008-08-14 08:53,-98.0517,27.9011,78.98,75.92,90.37,0.00,0.00,M,29.83,1009.90,3.00,M,OVC,   ,   ,M,1600.00,M,M,M,BR,M,M,M,M,M,M,82.96,METAR KALI 140853Z AUTO 00000KT 3SM BR OVC016 26/24 A2983 RMK AO2 SLP099 T02610244 55001,1218711600000.0,1218711600000.0_NOG
560,4039091,MSV,2008-07-20 10:55,-74.795,41.7016,66.20,64.40,93.92,0.00,0.00,M,30.01,M,3.00,M,CLR,   ,   ,   ,M,M,M,M,M,M,M,M,M,M,M,66.20,METAR KMSV 201055Z AUTO 00000KT 3SM CLR 19/18 A3001 RMK AO1,1216558800000.0,1216558800000.0_MSV
561,1815111,SDA,2008-03-29 20:47,-95.4112,40.7533,55.00,30.00,38.21,130.00,18.00,M,30.00,M,10.00,25.00,M,M,M,M,M,M,M,M,M,M,M,M,M,M,M,55.00,M,1206835200000.0,1206835200000.0_SDA
562,780964,PEZ,2008-02-08 12:05,-98.52,28.9542,35.60,28.40,74.80,0.00,0.00,M,29.96,M,10.00,M,CLR,   ,   ,M,M,M,M,M,M,M,M,M,M,M,M,35.60,METAR KPEZ 081205Z AUTO 00000KT 10SM CLR 02/M02 A2996 RMK AO2,1202486400000.0,1202486400000.0_PEZ
563,7314628,VTI,2008-12-26 17:15,-92.0248,42.2176,37.40,35.60,93.14,160.00,16.00,M,29.72,M,4.00,21.00,M,M,M,M,M,M,M,M,M,M,M,M,M,M,M,27.46,M,1230325200000.0,1230325200000.0_VTI
564,1831127,NKT,2008-03-30 15:54,-76.88,34.9,48.02,44.96,89.08,50.00,16.00,0.01,30.47,1031.30,6.00,25.00,SCT,BKN,OVC,M,1000.00,1500.00,2500.00,M,BR,M,M,M,M,M,M,41.30,METAR KNKT 301554Z 05016G25KT 6SM BR SCT010 BKN015 OVC025 09/07 A3047 RMK AO2 RAE53 SLP313 P0001 T00890072,1206900000000.0,1206900000000.0_NKT
565,3064699,ICL,2008-06-02 11:36,-95.0223,40.7242,66.00,59.00,M,M,M,M,29.90,M,10.00,M,M,M,M,M,M,M,M,M,M,M,M,M,M,M,M,M,M,1212415200000.0,1212415200000.0_ICL
566,165732,PEQ,2008-01-09 11:46,-103.51,31.38,30.20,17.60,59.01,320.00,4.00,M,30.05,M,10.00,M,CLR,   ,   ,M,M,M,M,M,M,M,M,M,M,M,M,25.32,METAR KPEQ 091146Z AUTO 32004KT 10SM CLR M01/M08 A3005 RMK AO2,1199890800000.0,1199890800000.0_PEQ
567,1350058,OAJ,2008-03-07 20:55,-77.6121,34.8292,68.00,66.20,93.97,170.00,15.00,0.01,29.77,M,10.00,23.00,SCT,BKN,OVC,M,1100.00,1900.00,2400.00,M,M,M,M,M,M,M,M,68.00,METAR KOAJ 072055Z AUTO 17015G23KT 10SM SCT011 BKN019 OVC024 20/19 A2977 RMK AO1 P0001 60021 57037,1204934400000.0,1204934400000.0_OAJ
568,1114495,PEA,2008-02-24 21:15,-92.9431,41.3989,41.00,32.00,70.08,190.00,11.00,M,29.96,M,10.00,16.00,M,M,M,M,M,M,M,M,M,M,M,M,M,M,M,33.84,M,1203901200000.0,1203901200000.0_PEA
569,6352651,DRT,2008-11-10 23:53,-100.9272,29.3742,77.00,57.02,50.11,0.00,0.00,M,29.78,1007.00,10.00,M,CLR,   ,   ,M,M,M,M,M,M,M,M,M,M,M,M,77.00,METAR KDRT 102353Z AUTO 00000KT 10SM CLR 25/14 A2978 RMK AO2 SLP070 T02500139 10272 20239 53007,1226372400000.0,1226372400000.0_DRT
570,4101849,IKV,2008-07-23 12:03,-93.5695,41.6878,65.00,63.00,M,M,M,M,30.16,M,10.00,M,M,M,M,M,M,M,M,M,M,M,M,M,M,M,M,M,M,1216825200000.0,1216825200000.0_IKV
571,5599587,MSS,2008-10-05 08:53,-74.8456,44.9358,39.02,37.04,92.53,0.00,0.00,M,30.25,1024.70,10.00,M,BKN,   ,   ,   ,8000.00,M,M,M,M,M,M,M,M,M,M,39.02,METAR KMSS 050853Z AUTO 00000KT 10SM BKN080 04/03 A3025 RMK AO2 SLP247 T00390028 50003,1223204400000.0,1223204400000.0_MSS
572,5923408,SLK,2008-10-19 22:51,-74.2062,44.3853,32.00,26.06,78.45,0.00,0.00,M,30.31,1029.10,10.00,M,CLR,   ,   ,   ,M,M,M,M,M,M,M,M,M,M,M,32.00,METAR KSLK 192251Z AUTO 00000KT 10SM CLR 00/M03 A3031 RMK AO2 SLP291 T00001033,1224464400000.0,1224464400000.0_SLK
573,4459005,RCZ,2008-08-11 12:22,-79.76,34.89,69.80,66.20,88.34,30.00,3.00,M,29.87,M,7.00,M,CLR,   ,   ,M,M,M,M,M,M,M,M,M,M,M,M,69.80,METAR KRCZ 111222Z AUTO 03003KT 7SM CLR 21/19 A2987 RMK AO2,1218466800000.0,1218466800000.0_RCZ
574,7236873,JHW,2008-12-22 22:55,-79.258,42.1534,12.20,8.60,85.17,250.00,13.00,M,30.26,M,2.00,16.00,OVC,   ,   ,   ,1000.00,M,M,M,M,M,M,M,M,M,M,-3.80,METAR KJHW 222255Z 25013G16KT 2SM OVC010 M11/M13 A3026 RMK AO1,1229997600000.0,1229997600000.0_JHW
575,788936,HQZ,2008-02-08 21:46,-96.5304,32.747,73.40,21.20,13.93,290.00,14.00,M,29.84,M,10.00,23.00,CLR,   ,   ,M,M,M,M,M,M,M,M,M,M,M,M,71.09,METAR KHQZ 082146Z AUTO 29014G23KT 10SM CLR 23/M06 A2984 RMK AO2,1202518800000.0,1202518800000.0_HQZ
576,3168756,PEZ,2008-06-07 09:24,-98.52,28.9542,78.80,73.40,83.55,130.00,6.00,M,29.93,M,10.00,M,BKN,BKN,OVC,M,1800.00,2400.00,2800.00,M,M,M,M,M,M,M,M,82.03,METAR KPEZ 070924Z AUTO 13006KT 10SM BKN018 BKN024 OVC028 26/23 A2993 RMK AO2,1212840000000.0,1212840000000.0_PEZ
577,4566946,AWO,2008-08-17 05:55,-122.15899999999999,48.1608,68.00,57.20,68.35,0.00,0.00,M,29.74,M,9.00,M,CLR,   ,   ,M,M,M,M,M,M,M,M,M,M,M,M,68.00,METAR KAWO 170555Z AUTO 00000KT 9SM CLR 20/14 A2974 RMK AO1 10300 20190 52007,1218960000000.0,1218960000000.0_AWO
578,1805478,AIO,2008-03-29 09:15,-95.0465,41.4059,35.60,26.60,69.46,130.00,11.00,M,30.24,M,10.00,-99.00,M,M,M,M,M,M,M,M,M,M,M,M,M,M,M,27.02,M,1206795600000.0,1206795600000.0_AIO
579,2699494,CNC,2008-05-14 19:04,-93.3608,41.0184,61.00,42.00,49.54,350.00,14.00,M,29.98,M,10.00,17.00,M,M,M,M,M,M,M,M,M,M,M,M,M,M,M,61.00,M,1210802400000.0,1210802400000.0_CNC
580,6833477,DPL,2008-12-03 23:40,-77.98,35.0,33.80,32.00,93.03,0.00,0.00,M,30.34,M,10.00,M,CLR,   ,   ,M,M,M,M,M,M,M,M,M,M,M,M,33.80,METAR KDPL 032340Z AUTO 00000KT 10SM CLR 01/00 A3034 RMK AO2,1228359600000.0,1228359600000.0_DPL
581,4993191,HSE,2008-09-06 12:51,-75.6225,35.2322,80.96,75.92,84.69,180.00,24.00,0.36,29.68,1005.10,2.50,38.00,FEW,SCT,BKN,M,1000.00,2400.00,4000.00,M,HZ,M,M,M,45.00,170.00,2008-09-06 12:05,87.26,METAR KHSE 061251Z AUTO 18024G38KT 2 1/2SM HZ FEW010 SCT024 BKN040 27/24 A2968 RMK AO2 PK WND 17045/1205 RAB1158E37 SLP051 P0036 T02720244 TSNO,1220713200000.0,1220713200000.0_HSE
582,6510720,RUQ,2008-11-18 17:28,-80.5203,35.6459,39.20,10.40,30.07,360.00,15.00,M,30.23,M,10.00,20.00,BKN,   ,   ,M,6500.00,M,M,M,M,M,M,M,M,M,M,30.11,METAR KRUQ 181728Z AUTO 36015G20KT 10SM BKN065 04/M12 A3023 RMK AO2,1227042000000.0,1227042000000.0_RUQ
583,5447396,EBS,2008-09-28 05:41,-93.8691,42.4392,54.00,52.00,92.92,40.00,4.00,M,30.16,M,5.50,M,M,M,M,M,M,M,M,M,M,M,M,M,M,M,M,54.00,M,1222588800000.0,1222588800000.0_EBS
584,5560835,LHZ,2008-10-03 15:23,-78.3303,36.0233,68.00,48.20,49.10,0.00,0.00,M,30.07,M,10.00,M,CLR,   ,   ,M,M,M,M,M,M,M,M,M,M,M,M,68.00,METAR KLHZ 031523Z AUTO 00000KT 10SM CLR 20/09 A3007 RMK AO2,1223056800000.0,1223056800000.0_LHZ
585,4724325,FFA,2008-08-24 22:41,-75.67,36.02,80.60,68.00,65.54,110.00,5.00,M,30.00,M,10.00,M,CLR,   ,   ,M,M,M,M,M,M,M,M,M,M,M,M,83.29,METAR KFFA 242241Z AUTO 11005KT 10SM CLR 27/20 A3000 RMK AO2,1219626000000.0,1219626000000.0_FFA
586,7295661,ORS,2008-12-25 19:10,-122.91,48.71,33.80,32.00,93.03,0.00,0.00,M,29.56,M,8.00,M,SCT,BKN,OVC,M,500.00,900.00,1700.00,M,M,M,M,M,M,M,M,33.80,METAR KORS 251910Z AUTO 00000KT 8SM SCT005 BKN009 OVC017 01/00 A2956 RMK AO2,1230246000000.0,1230246000000.0_ORS
587,6460210,ADU,2008-11-16 06:35,-94.9204,41.6994,26.00,24.00,92.01,240.00,3.00,M,30.07,M,10.00,M,M,M,M,M,M,M,M,M,M,M,M,M,M,M,M,21.83,M,1226829600000.0,1226829600000.0_ADU
588,6525548,JSO,2008-11-19 10:26,-95.22,31.87,41.00,33.80,75.33,180.00,7.00,M,30.35,M,10.00,M,CLR,   ,   ,M,M,M,M,M,M,M,M,M,M,M,M,35.75,METAR KJSO 191026Z AUTO 18007KT 10SM CLR 05/01 A3035 RMK AO2,1227103200000.0,1227103200000.0_JSO
589,612365,JQF,2008-01-31 01:57,-80.7091,35.3878,32.00,17.60,54.87,0.00,0.00,M,30.16,M,10.00,M,CLR,   ,   ,M,M,M,M,M,M,M,M,M,M,M,M,32.00,METAR KJQF 310157Z 00000KT 10SM CLR 00/M08 A3016,1201755600000.0,1201755600000.0_JQF
590,1786771,RHP,2008-03-28 11:21,-83.863,35.1952,53.60,48.20,81.87,0.00,0.00,M,30.03,M,10.00,M,BKN,OVC,   ,M,2600.00,3500.00,M,M,M,M,M,M,M,M,M,53.60,METAR KRHP 281121Z AUTO 00000KT 10SM BKN026 OVC035 12/09 A3003 RMK AO2,1206716400000.0,1206716400000.0_RHP
591,7113345,LVJ,2008-12-16 22:53,-95.24,29.52,44.06,44.06,100.00,20.00,5.00,M,30.13,1020.00,0.25,M,OVC,   ,   ,M,200.00,M,M,M,FG,M,M,M,M,M,M,40.72,METAR KLVJ 162253Z AUTO 02005KT 1/4SM FG OVC002 07/07 A3013 RMK AO2 SLP200 T00670067 TSNO,1229479200000.0,1229479200000.0_LVJ
592,6388454,RBO,2008-11-12 18:34,-97.6905,27.7785,82.40,57.20,42.25,30.00,13.00,M,29.84,M,10.00,19.00,CLR,   ,   ,M,M,M,M,M,M,M,M,M,M,M,M,82.08,METAR KRBO 121834Z AUTO 03013G19KT 10SM CLR 28/14 A2984 RMK AO2,1226527200000.0,1226527200000.0_RBO
593,92732,UKF,2008-01-05 15:22,-81.0983,36.2228,33.80,17.60,51.04,0.00,0.00,M,30.44,M,10.00,M,CLR,   ,   ,M,M,M,M,M,M,M,M,M,M,M,M,33.80,METAR KUKF 051522Z AUTO 00000KT 10SM CLR 01/M08 A3044 RMK AO1,1199559600000.0,1199559600000.0_UKF
594,227782,XBP,2008-01-12 08:29,-97.8284,33.1753,35.60,28.40,74.80,0.00,0.00,M,29.83,M,10.00,M,CLR,   ,   ,M,M,M,M,M,M,M,M,M,M,M,M,35.60,METAR KXBP 120829Z AUTO 00000KT 10SM CLR 02/M02 A2983 RMK AO2,1200139200000.0,1200139200000.0_XBP
595,1869940,OOA,2008-04-01 20:37,-92.4919,41.2273,44.00,35.00,70.42,330.00,13.00,M,30.30,M,10.00,M,M,M,M,M,M,M,M,M,M,M,M,M,M,M,M,36.94,M,1207090800000.0,1207090800000.0_OOA
596,861875,MUT,2008-02-12 11:57,-91.1406,41.367,11.00,6.00,79.85,30.00,6.00,M,30.10,M,10.00,M,M,M,M,M,M,M,M,M,M,M,M,M,M,M,M,0.24,M,1202828400000.0,1202828400000.0_MUT
597,6255371,GYI,2008-11-06 00:05,-96.6737,33.7141,77.00,53.60,44.25,170.00,17.00,M,29.72,M,10.00,21.00,CLR,   ,   ,M,M,M,M,M,M,M,M,M,M,M,M,77.00,METAR KGYI 060005Z AUTO 17017G21KT 10SM CLR 25/12 A2972 RMK AO2,1225944000000.0,1225944000000.0_GYI
598,2545386,CAV,2008-05-06 20:55,-93.7593,42.743,82.40,51.80,34.69,200.00,20.00,M,29.71,M,10.00,-99.00,M,M,M,M,M,M,M,M,M,M,M,M,M,M,M,81.20,M,1210114800000.0,1210114800000.0_CAV
599,178949,MUT,2008-01-10 01:52,-91.1406,41.367,34.00,30.00,85.11,120.00,7.00,M,30.02,M,M,M,M,M,M,M,M,M,M,M,M,M,M,M,M,M,M,27.22,M,1199941200000.0,1199941200000.0_MUT
600,2841194,NYC,2008-05-22 01:51,-73.9693,40.779,55.94,44.06,64.28,M,5.00,M,29.57,1000.30,10.00,M,OVC,   ,   ,   ,10000.00,M,M,M,M,M,M,M,M,M,M,55.94,METAR KNYC 220151Z AUTO VRB05KT 10SM OVC100 13/07 A2957 RMK AO2 SLP003 T01330067 TSNO,1211428800000.0,1211428800000.0_NYC
601,380395,CKP,2008-01-19 19:23,-95.5538,42.7304,4.00,-10.00,51.33,290.00,11.00,M,30.34,M,10.00,M,M,M,M,M,M,M,M,M,M,M,M,M,M,M,M,-12.92,M,1200783600000.0,1200783600000.0_CKP
602,4359464,1A5,2008-08-06 06:21,-83.42,35.22,66.20,62.60,88.18,0.00,0.00,M,30.16,M,3.00,M,CLR,   ,   ,M,M,M,M,M,BR,M,M,M,M,M,M,66.20,METAR K1A5 060621Z AUTO 00000KT 3SM BR CLR 19/17 A3016 RMK AO2,1218013200000.0,1218013200000.0_1A5
603,1156497,CCY,2008-02-26 22:43,-92.6132,43.073,25.00,18.00,74.36,310.00,16.00,M,30.09,M,10.00,25.00,M,M,M,M,M,M,M,M,M,M,M,M,M,M,M,11.29,M,1204077600000.0,1204077600000.0_CCY
604,6983283,RHP,2008-12-10 20:40,-83.863,35.1952,62.60,57.20,82.50,0.00,0.00,M,29.94,M,10.00,M,OVC,   ,   ,M,3100.00,M,M,M,M,M,M,M,M,M,M,62.60,METAR KRHP 102040Z AUTO 00000KT 10SM OVC031 17/14 A2994 RMK AO2,1228953600000.0,1228953600000.0_RHP
605,1963240,PEA,2008-04-06 14:17,-92.9431,41.3989,54.00,43.00,66.24,150.00,12.00,M,29.80,M,10.00,M,M,M,M,M,M,M,M,M,M,M,M,M,M,M,M,54.00,M,1207501200000.0,1207501200000.0_PEA
606,6341537,ORC,2008-11-10 10:45,-96.0606,42.9895,21.00,20.00,95.84,90.00,4.00,M,30.14,M,10.00,M,M,M,M,M,M,M,M,M,M,M,M,M,M,M,M,14.57,M,1226325600000.0,1226325600000.0_ORC
607,5479178,OXV,2008-09-29 16:33,-93.1114,41.2984,68.00,60.00,75.57,350.00,8.00,M,30.10,M,10.00,M,M,M,M,M,M,M,M,M,M,M,M,M,M,M,M,68.00,M,1222714800000.0,1222714800000.0_OXV
608,4476512,T65,2008-08-12 10:45,-97.9731,26.1776,80.60,77.00,88.83,170.00,7.00,M,29.75,M,7.00,M,OVC,   ,   ,M,2600.00,M,M,M,M,M,M,M,M,M,M,87.10,METAR KT65 121045Z AUTO 17007KT 7SM OVC026 27/25 A2975 RMK AO2 T02700250,1218546000000.0,1218546000000.0_T65
609,3147572,CLM,2008-06-06 09:53,-123.5,48.12,46.04,42.98,88.99,80.00,3.00,M,29.77,1008.30,10.00,M,FEW,SCT,OVC,M,3600.00,6000.00,8000.00,M,-RA,M,M,M,M,M,M,44.74,METAR KCLM 060953Z AUTO 08003KT 10SM -RA FEW036 SCT060 OVC080 08/06 A2977 RMK AO2 RAB23 SLP083 P0000 T00780061,1212753600000.0,1212753600000.0_CLM
610,3458025,GGI,2008-06-21 16:55,-92.7332,41.7097,82.40,35.60,18.67,300.00,10.00,M,30.10,M,10.00,15.00,M,M,M,M,M,M,M,M,M,M,M,M,M,M,M,80.08,M,1214074800000.0,1214074800000.0_GGI
611,495446,HWV,2008-01-25 07:56,-72.8689,40.8217,21.92,6.98,52.01,330.00,10.00,M,30.20,1022.80,10.00,M,CLR,   ,   ,   ,M,M,M,M,M,M,M,M,M,M,M,10.33,METAR KHWV 250756Z AUTO 33010KT 10SM CLR M06/M14 A3020 RMK AO2 SLP228 T10561139 TSNO,1201258800000.0,1201258800000.0_HWV
612,3233727,6R6,2008-06-10 19:53,-102.2129,30.046,96.08,64.94,36.11,140.00,13.00,M,29.89,1007.50,M,24.00,   ,   ,   ,M,M,M,M,M,M,M,M,M,M,M,M,98.87,METAR K6R6 101953Z AUTO 14013G24KT 36/18 A2989 RMK AO2 SLP075 T03560183 PWINO TSNO,1213135200000.0,1213135200000.0_6R6
613,6089933,BBD,2008-10-28 07:05,-99.3239,31.1793,41.00,24.80,52.17,0.00,0.00,M,30.55,M,10.00,M,CLR,   ,   ,M,M,M,M,M,M,M,M,M,M,M,M,41.00,METAR KBBD 280705Z AUTO 00000KT 10SM CLR 05/M04 A3055 RMK,1225191600000.0,1225191600000.0_BBD
614,609944,ORC,2008-01-30 23:15,-96.0606,42.9895,3.20,-4.00,71.29,70.00,6.00,M,30.06,M,7.00,-99.00,M,M,M,M,M,M,M,M,M,M,M,M,M,M,M,-9.16,M,1201748400000.0,1201748400000.0_ORC
615,6695496,MXO,2008-11-27 03:43,-91.1605,42.2204,22.00,18.00,M,M,M,M,29.99,M,5.50,M,M,M,M,M,M,M,M,M,M,M,M,M,M,M,M,M,M,1227769200000.0,1227769200000.0_MXO
616,1521704,ORC,2008-03-15 16:03,-96.0606,42.9895,27.00,20.00,74.57,20.00,8.00,M,30.03,M,10.00,M,M,M,M,M,M,M,M,M,M,M,M,M,M,M,M,17.95,M,1205611200000.0,1205611200000.0_ORC
617,956950,TVK,2008-02-17 06:35,-92.8983,40.6832,32.00,32.00,100.00,110.00,4.00,M,29.59,M,3.00,M,M,M,M,M,M,M,M,M,M,M,M,M,M,M,M,27.42,M,1203242400000.0,1203242400000.0_TVK
618,2556779,MNZ,2008-05-07 11:09,-98.1486,31.6659,64.40,60.80,88.09,160.00,12.00,M,29.63,M,10.00,18.00,CLR,   ,   ,M,M,M,M,M,M,M,M,M,M,M,M,64.40,METAR KMNZ 071109Z AUTO 16012G18KT 10SM CLR 18/16 A2963 RMK AO2,1210168800000.0,1210168800000.0_MNZ
619,2127510,11R,2008-04-15 08:22,-96.3742,30.2189,39.20,39.20,100.00,0.00,0.00,M,30.24,M,10.00,M,CLR,   ,   ,M,M,M,M,M,M,M,M,M,M,M,M,39.20,METAR K11R 150822Z AUTO 00000KT 10SM CLR 04/04 A3024 RMK AO2,1208257200000.0,1208257200000.0_11R
620,5733331,PRX,2008-10-11 09:55,-95.4507,33.6366,59.00,57.20,93.74,120.00,7.00,M,30.05,M,5.00,M,CLR,   ,   ,M,M,M,M,M,M,M,M,M,M,M,M,59.00,METAR KPRX 110955Z AUTO 12007KT 5SM CLR 15/14 A3005 RMK AO1,1223726400000.0,1223726400000.0_PRX
621,5987946,MXO,2008-10-22 21:53,-91.1605,42.2204,53.00,27.00,36.36,110.00,15.00,M,30.19,M,10.00,21.00,M,M,M,M,M,M,M,M,M,M,M,M,M,M,M,53.00,M,1224720000000.0,1224720000000.0_MXO
622,7392015,MUT,2008-12-30 07:55,-91.1406,41.367,30.20,26.60,86.28,0.00,0.00,M,30.15,M,10.00,-99.00,M,M,M,M,M,M,M,M,M,M,M,M,M,M,M,30.20,M,1230634800000.0,1230634800000.0_MUT
623,5034941,ELP,2008-09-08 16:51,-106.3758,31.8111,71.96,60.08,66.20,0.00,0.00,M,30.08,1013.20,10.00,M,FEW,   ,   ,M,2500.00,M,M,M,M,M,M,M,M,M,M,71.96,METAR KELP 081651Z 00000KT 10SM FEW025 22/16 A3008 RMK AO2 SLP132 CLDS TPG MTNS NW T02220156,1220900400000.0,1220900400000.0_ELP
624,1787268,MUT,2008-03-28 11:55,-91.1406,41.367,30.20,24.80,80.07,M,0.00,M,30.20,M,10.00,-99.00,M,M,M,M,M,M,M,M,M,M,M,M,M,M,M,30.20,M,1206716400000.0,1206716400000.0_MUT
625,6409306,1A5,2008-11-13 19:04,-83.42,35.22,57.20,53.60,87.74,0.00,0.00,M,29.98,M,10.00,M,OVC,   ,   ,M,500.00,M,M,M,M,M,M,M,M,M,M,57.20,METAR K1A5 131904Z AUTO 00000KT 10SM OVC005 14/12 A2998 RMK AO2,1226617200000.0,1226617200000.0_1A5
626,6100718,LFK,2008-10-28 20:53,-94.75,31.234,64.04,21.92,19.80,10.00,5.00,M,30.46,1031.50,10.00,M,CLR,   ,   ,M,M,M,M,M,M,M,M,M,M,M,M,64.04,METAR KLFK 282053Z AUTO 01005KT 10SM CLR 18/M06 A3046 RMK AO2 SLP315 T01781056 56028,1225238400000.0,1225238400000.0_LFK
627,6551726,FRG,2008-11-20 16:53,-73.4134,40.7288,35.06,21.02,56.18,320.00,6.00,M,29.84,1010.40,10.00,M,BKN,BKN,BKN,   ,4100.00,4900.00,6000.00,M,M,M,M,M,M,M,M,29.22,METAR KFRG 201653Z 32006KT 10SM BKN041 BKN049 BKN060 02/M06 A2984 RMK AO2 SLP104 T00171061,1227211200000.0,1227211200000.0_FRG
628,5397720,SLK,2008-09-26 00:51,-74.2062,44.3853,53.96,48.92,83.00,0.00,0.00,M,30.43,1030.90,6.00,M,CLR,   ,   ,   ,M,M,M,M,HZ,M,M,M,M,M,M,53.96,METAR KSLK 260051Z AUTO 00000KT 6SM HZ CLR 12/09 A3043 RMK AO2 SLP309 T01220094,1222398000000.0,1222398000000.0_SLK
629,3285965,GYI,2008-06-13 11:05,-96.6737,33.7141,73.40,68.00,83.21,170.00,10.00,M,29.93,M,10.00,M,CLR,   ,   ,M,M,M,M,M,M,M,M,M,M,M,M,73.40,METAR KGYI 131105Z AUTO 17010KT 10SM CLR 23/20 A2993 RMK AO2,1213365600000.0,1213365600000.0_GYI
630,1178777,RDK,2008-02-27 22:55,-95.2624,41.0106,37.40,28.40,69.67,20.00,4.00,M,30.13,M,10.00,-99.00,M,M,M,M,M,M,M,M,M,M,M,M,M,M,M,33.73,M,1204164000000.0,1204164000000.0_RDK
631,3365841,CSQ,2008-06-17 06:13,-94.3608,41.0188,56.00,48.00,74.45,330.00,6.00,M,30.13,M,10.00,M,M,M,M,M,M,M,M,M,M,M,M,M,M,M,M,56.00,M,1213693200000.0,1213693200000.0_CSQ
632,4267683,PWG,2008-08-01 08:15,-97.3165,31.4849,82.40,71.60,69.90,180.00,12.00,M,29.85,M,10.00,15.00,SCT,   ,   ,M,12000.00,M,M,M,M,M,M,M,M,M,M,87.18,METAR KPWG 010815Z AUTO 18012G15KT 10SM SCT120 28/22 A2985 RMK AO1,1217588400000.0,1217588400000.0_PWG
633,3837693,ALW,2008-07-10 13:53,-118.289,46.0948,71.06,48.92,45.43,200.00,6.00,M,29.93,1012.40,10.00,M,CLR,   ,   ,M,M,M,M,M,M,M,M,M,M,M,M,70.00,METAR KALW 101353Z 20006KT 10SM CLR 22/09 A2993 RMK AO2 SLP124 T02170094,1215705600000.0,1215705600000.0_ALW
634,981061,HHF,2008-02-18 11:27,-100.404,35.895,32.00,17.60,54.87,0.00,0.00,M,30.11,M,10.00,M,SCT,SCT,   ,M,9000.00,10000.00,M,M,M,M,M,M,M,M,M,32.00,METAR KHHF 181127Z AUTO 00000KT 10SM SCT090 SCT100 00/M08 A3011 RMK AO2,1203346800000.0,1203346800000.0_HHF
635,6945613,EBG,2008-12-09 03:25,-98.1222,26.4417,73.58,67.10,80.18,180.00,13.00,M,29.73,M,7.00,18.00,SCT,   ,   ,M,1700.00,M,M,M,M,M,M,M,M,M,M,73.58,METAR KEBG 090325Z AUTO 18013G18KT 7SM SCT017 23/20 A2973 RMK AO2 T02310195,1228806000000.0,1228806000000.0_EBG
636,4716819,PKV,2008-08-24 14:06,-96.681,28.654,78.80,71.60,78.62,270.00,7.00,M,29.94,M,2.00,M,CLR,   ,   ,M,M,M,M,M,HZ,M,M,M,M,M,M,81.70,METAR KPKV 241406Z AUTO 27007KT 2SM HZ CLR 26/22 A2994 RMK AO2,1219597200000.0,1219597200000.0_PKV
637,5621627,TVK,2008-10-06 09:15,-92.8983,40.6832,60.80,55.40,M,M,M,M,30.04,M,10.00,-99.00,M,M,M,M,M,M,M,M,M,M,M,M,M,M,M,M,M,1223294400000.0,1223294400000.0_TVK
638,4071533,HNR,2008-07-22 01:33,-95.3355,41.5834,75.00,70.00,84.46,20.00,4.00,M,29.97,M,10.00,M,M,M,M,M,M,M,M,M,M,M,M,M,M,M,M,76.17,M,1216699200000.0,1216699200000.0_HNR
639,26714,AXA,2008-01-02 08:53,-94.2724,43.0796,1.00,-4.00,78.95,320.00,9.00,M,30.64,M,M,18.00,M,M,M,M,M,M,M,M,M,M,M,M,M,M,M,-15.03,M,1199275200000.0,1199275200000.0_AXA
640,2207616,SHN,2008-04-19 08:53,-123.1476,47.2336,33.98,30.92,88.42,200.00,3.00,M,29.89,1012.70,10.00,M,OVC,   ,   ,M,800.00,M,M,M,M,M,M,M,M,M,M,30.95,METAR KSHN 190853Z AUTO 20003KT 10SM OVC008 01/M01 A2989 RMK AO2 SLP127 T00111006 58006,1208602800000.0,1208602800000.0_SHN
641,1942178,CSQ,2008-04-05 13:16,-94.3608,41.0188,42.00,36.00,79.11,210.00,11.00,M,29.95,M,7.00,M,M,M,M,M,M,M,M,M,M,M,M,M,M,M,M,35.10,M,1207411200000.0,1207411200000.0_CSQ
642,3967852,DEH,2008-07-17 00:33,-91.7433,43.2755,81.00,73.00,76.70,150.00,3.00,M,30.10,M,10.00,M,M,M,M,M,M,M,M,M,M,M,M,M,M,M,M,85.81,M,1216263600000.0,1216263600000.0_DEH
643,1308707,TNB,2008-03-05 20:43,-81.65,36.2,35.60,26.60,69.46,260.00,14.00,M,29.92,M,10.00,19.00,CLR,   ,   ,M,M,M,M,M,M,M,M,M,M,M,M,25.80,METAR KTNB 052043Z AUTO 26014G19KT 10SM CLR 02/M03 A2992 RMK AO2,1204761600000.0,1204761600000.0_TNB
644,6669946,PVW,2008-11-25 23:45,-101.7173,34.1681,59.00,23.00,24.76,200.00,7.00,M,30.06,M,10.00,M,CLR,   ,   ,M,M,M,M,M,M,M,M,M,M,M,M,59.00,METAR KPVW 252345Z AUTO 20007KT 10SM CLR 15/M05 A3006 RMK AO2,1227668400000.0,1227668400000.0_PVW
645,3765803,DPL,2008-07-06 23:00,-77.98,35.0,87.80,68.00,51.98,180.00,3.00,M,30.01,M,10.00,M,CLR,   ,   ,M,M,M,M,M,M,M,M,M,M,M,M,91.43,METAR KDPL 062300Z AUTO 18003KT 10SM CLR 31/20 A3001 RMK AO2,1215396000000.0,1215396000000.0_DPL
646,3337247,HNR,2008-06-15 21:53,-95.3355,41.5834,84.00,52.00,33.19,320.00,8.00,M,29.92,M,10.00,M,M,M,M,M,M,M,M,M,M,M,M,M,M,M,M,82.36,M,1213574400000.0,1213574400000.0_HNR
647,3306543,TCM,2008-06-14 10:55,-122.4765,47.1377,46.94,41.00,79.70,200.00,5.00,M,30.24,1024.30,10.00,M,OVC,   ,   ,M,2000.00,M,M,M,M,M,M,M,M,M,M,44.14,METAR KTCM 141055Z AUTO 20005KT 10SM OVC020 08/05 A3024 RMK AO2 SLP243 T00830050,1213448400000.0,1213448400000.0_TCM
648,4081980,GDJ,2008-07-22 13:25,-97.8169,32.4444,80.60,64.40,57.84,0.00,0.00,M,29.98,M,10.00,M,CLR,   ,   ,M,M,M,M,M,M,M,M,M,M,M,M,82.27,METAR KGDJ 221325Z AUTO 00000KT 10SM CLR 27/18 A2998 RMK AO2,1216742400000.0,1216742400000.0_GDJ
649,1180610,PIL,2008-02-28 00:53,-97.3378,26.1597,53.06,41.00,63.47,110.00,5.00,M,30.29,1025.50,10.00,M,CLR,   ,   ,M,M,M,M,M,M,M,M,M,M,M,M,53.06,METAR KPIL 280053Z AUTO 11005KT 10SM CLR 12/05 A3029 RMK AO2 SLP255 T01170050,1204171200000.0,1204171200000.0_PIL
650,3553082,CPC,2008-06-26 09:37,-78.7146,34.2753,71.60,71.60,100.00,0.00,0.00,M,30.11,M,2.50,M,   ,   ,   ,M,M,M,M,M,BR,M,M,M,M,M,M,73.16,METAR KCPC 260937Z AUTO 00000KT 2 1/2SM BR 22/22 A3011 RMK AO2 SKY OBSCURED,1214481600000.0,1214481600000.0_CPC
651,6406809,CCY,2008-11-13 16:06,-92.6132,43.073,45.00,43.00,92.65,200.00,15.00,M,29.47,M,7.00,M,M,M,M,M,M,M,M,M,M,M,M,M,M,M,M,37.63,M,1226606400000.0,1226606400000.0_CCY
652,3722194,OOA,2008-07-04 19:38,-92.4919,41.2273,80.00,57.00,M,M,M,M,30.07,M,10.00,M,M,M,M,M,M,M,M,M,M,M,M,M,M,M,M,M,M,1215208800000.0,1215208800000.0_OOA
653,5820383,SHL,2008-10-15 07:15,-95.8353,43.2082,46.40,44.60,93.40,210.00,9.00,M,30.13,M,10.00,-99.00,M,M,M,M,M,M,M,M,M,M,M,M,M,M,M,41.42,M,1224064800000.0,1224064800000.0_SHL
654,3714344,EBS,2008-07-04 10:36,-93.8691,42.4392,59.00,55.00,86.56,140.00,4.00,M,30.08,M,10.00,M,M,M,M,M,M,M,M,M,M,M,M,M,M,M,M,59.00,M,1215176400000.0,1215176400000.0_EBS
655,46662,CAV,2008-01-03 07:44,-93.7593,42.743,9.00,5.00,83.41,170.00,10.00,M,30.53,M,M,M,M,M,M,M,M,M,M,M,M,M,M,M,M,M,M,-5.87,M,1199358000000.0,1199358000000.0_CAV
656,2749632,DSV,2008-05-17 07:54,-77.71300000000001,42.5709,42.98,39.02,85.79,140.00,9.00,M,29.65,1005.10,10.00,M,BKN,BKN,   ,   ,7500.00,9000.00,M,M,M,M,M,M,M,M,M,37.17,METAR KDSV 170754Z AUTO 14009KT 10SM BKN075 BKN090 06/04 A2965 RMK AO2 SLP051 T00610039,1211018400000.0,1211018400000.0_DSV
657,4971580,CAV,2008-09-05 11:55,-93.7593,42.743,46.40,46.40,M,M,M,M,29.96,M,1.00,-99.00,M,M,M,M,M,M,M,M,M,M,M,M,M,M,M,M,M,1220623200000.0,1220623200000.0_CAV
658,3649035,BEA,2008-07-01 07:23,-97.791,28.3619,75.20,71.60,88.59,50.00,3.00,M,30.05,M,10.00,M,CLR,   ,   ,M,M,M,M,M,M,M,M,M,M,M,M,76.58,METAR KBEA 010723Z AUTO 05003KT 10SM CLR 24/22 A3005 RMK AO2,1214906400000.0,1214906400000.0_BEA
659,1333772,SNK,2008-03-07 01:26,-100.9505,32.6934,35.60,28.40,74.80,360.00,6.00,M,30.14,M,10.00,M,SCT,OVC,   ,M,4300.00,6000.00,M,M,M,M,M,M,M,M,M,29.87,METAR KSNK 070126Z AUTO 36006KT 10SM SCT043 OVC060 02/M02 A3014 RMK AO2,1204866000000.0,1204866000000.0_SNK
660,2529904,LBT,2008-05-06 01:54,-79.06,34.61,64.04,60.08,86.95,60.00,4.00,M,30.00,1015.80,7.00,M,SCT,BKN,OVC,M,5500.00,7500.00,9500.00,M,-RA,M,M,M,M,M,M,64.04,METAR KLBT 060154Z AUTO 06004KT 7SM -RA SCT055 BKN075 OVC095 18/16 A3000 RMK AO2 RAB38 SLP158 P0000 T01780156,1210046400000.0,1210046400000.0_LBT
661,4736145,BEA,2008-08-25 12:04,-97.791,28.3619,73.40,M,M,310.00,3.00,M,29.88,M,10.00,M,CLR,   ,   ,M,M,M,M,M,M,M,M,M,M,M,M,M,METAR KBEA 251204Z AUTO 31003KT 10SM CLR 23/ A2988 RMK AO2,1219676400000.0,1219676400000.0_BEA
662,426669,T82,2008-01-22 01:45,-98.9092,30.2432,57.20,55.40,93.69,150.00,3.00,M,30.12,M,0.50,M,OVC,   ,   ,M,100.00,M,M,M,M,M,M,M,M,M,M,57.20,METAR KT82 220145Z AUTO 15003KT 1/2SM OVC001 14/13 A3012 RMK AO1,1200978000000.0,1200978000000.0_T82
663,3786302,EOK,2008-07-07 23:33,-91.4274,40.4615,92.00,75.00,57.75,210.00,8.00,M,29.80,M,10.00,M,M,M,M,M,M,M,M,M,M,M,M,M,M,M,M,103.19,M,1215482400000.0,1215482400000.0_EOK
664,7133928,3T5,2008-12-17 22:25,-96.95,29.91,53.60,51.80,93.60,0.00,4.00,M,30.10,M,1.25,M,OVC,   ,   ,M,700.00,M,M,M,BR,M,M,M,M,M,M,53.60,METAR K3T5 172225Z AUTO 00004KT 1 1/4SM BR OVC007 12/11 A3010 RMK AO2,1229565600000.0,1229565600000.0_3T5
665,1061850,AFP,2008-02-22 11:00,-80.0771,35.0206,33.80,33.80,100.00,360.00,5.00,M,30.03,M,3.00,M,OVC,   ,   ,M,600.00,M,M,M,RA,M,M,M,M,M,M,28.53,METAR KAFP 221100Z AUTO 36005KT 3SM RA OVC006 01/01 A3003 RMK AO2,1203692400000.0,1203692400000.0_AFP
666,7216270,BNW,2008-12-21 22:43,-93.8486,42.0486,-2.00,-8.00,74.93,290.00,18.00,M,30.34,M,5.50,25.00,M,M,M,M,M,M,M,M,M,M,M,M,M,M,M,-25.01,M,1229911200000.0,1229911200000.0_BNW
667,5001891,HNZ,2008-09-06 23:40,-78.53,36.36,80.60,73.40,78.76,210.00,4.00,M,29.86,M,10.00,M,CLR,   ,   ,M,M,M,M,M,M,M,M,M,M,M,M,85.32,METAR KHNZ 062340Z AUTO 21004KT 10SM CLR 27/23 A2986 RMK AO2,1220752800000.0,1220752800000.0_HNZ
668,207653,PYX,2008-01-11 09:49,-100.75,36.414,30.20,26.60,86.28,220.00,4.00,M,29.83,M,10.00,M,CLR,   ,   ,M,M,M,M,M,M,M,M,M,M,M,M,25.32,METAR KPYX 110949Z AUTO 22004KT 10SM CLR M01/M03 A2983 RMK AO2,1200056400000.0,1200056400000.0_PYX
669,961921,RWV,2008-02-17 12:25,-96.7041,30.5155,42.80,42.80,100.00,210.00,8.00,M,29.77,M,10.00,M,CLR,   ,   ,M,M,M,M,M,M,M,M,M,M,M,M,37.42,METAR KRWV 171225Z AUTO 21008KT 10SM CLR 06/06 A2977 RMK AO2,1203264000000.0,1203264000000.0_RWV
670,5589064,PLU,2008-10-04 21:30,-122.2872,47.1039,57.20,51.80,82.12,220.00,11.00,M,29.55,M,10.00,26.00,FEW,SCT,BKN,M,1600.00,2200.00,3000.00,M,-DZ,M,M,M,M,M,M,57.20,METAR KPLU 042130Z AUTO 22011G26KT 10SM -DZ FEW016 SCT022 BKN030 14/11 A2955 RMK AO2,1223164800000.0,1223164800000.0_PLU
671,143223,TFP,2008-01-08 07:45,-97.2115,27.913,69.80,69.80,100.00,150.00,12.00,M,29.89,M,7.00,16.00,BKN,BKN,OVC,M,1300.00,1700.00,2500.00,M,M,M,M,M,M,M,M,69.80,METAR KTFP 080745Z AUTO 15012G16KT 7SM BKN013 BKN017 OVC025 21/21 A2989 RMK AO2,1199790000000.0,1199790000000.0_TFP
672,5773006,PEA,2008-10-13 03:55,-92.9431,41.3989,68.00,62.60,82.86,150.00,8.00,M,30.14,M,10.00,-99.00,M,M,M,M,M,M,M,M,M,M,M,M,M,M,M,68.00,M,1223877600000.0,1223877600000.0_PEA
673,1072997,ASJ,2008-02-22 23:23,-77.17,36.3,39.20,37.40,93.19,0.00,0.00,M,29.87,M,1.75,M,OVC,   ,   ,M,300.00,M,M,M,BR,M,M,M,M,M,M,39.20,METAR KASJ 222323Z AUTO 00000KT 1 3/4SM BR OVC003 04/03 A2987 RMK AO2,1203735600000.0,1203735600000.0_ASJ
674,2616419,JNX,2008-05-10 13:22,-78.3903,35.5409,69.80,64.40,82.98,250.00,3.00,M,29.73,M,10.00,M,CLR,   ,   ,M,M,M,M,M,M,M,M,M,M,M,M,69.80,METAR KJNX 101322Z AUTO 25003KT 10SM CLR 21/18 A2973 RMK AO1,1210435200000.0,1210435200000.0_JNX
675,1115240,ORC,2008-02-24 22:03,-96.0606,42.9895,34.00,31.00,88.63,310.00,3.00,M,29.86,M,3.00,M,M,M,M,M,M,M,M,M,M,M,M,M,M,M,M,30.97,M,1203904800000.0,1203904800000.0_ORC
676,1162183,SDA,2008-02-27 04:54,-95.4112,40.7533,22.00,16.00,77.34,M,0.00,M,30.23,M,10.00,M,M,M,M,M,M,M,M,M,M,M,M,M,M,M,M,22.00,M,1204099200000.0,1204099200000.0_SDA
677,3836005,EWN,2008-07-10 11:54,-77.0472,35.0675,73.94,69.98,87.45,240.00,4.00,M,30.05,1017.40,10.00,M,CLR,   ,   ,M,M,M,M,M,M,M,M,M,M,M,M,75.14,METAR KEWN 101154Z 24004KT 10SM CLR 23/21 A3005 RMK AO2 SLP174 60000 70001 T02330211 10233 20217 51013,1215698400000.0,1215698400000.0_EWN
678,2299891,ORC,2008-04-24 01:35,-96.0606,42.9895,69.80,50.00,49.37,140.00,9.00,M,29.88,M,10.00,16.00,M,M,M,M,M,M,M,M,M,M,M,M,M,M,M,69.80,M,1209009600000.0,1209009600000.0_ORC
679,87603,OMK,2008-01-05 08:53,-119.5181,48.4644,39.02,30.92,72.46,170.00,11.00,0.05,28.99,982.40,10.00,M,BKN,BKN,   ,M,4400.00,5500.00,M,M,M,M,M,M,M,M,M,31.34,METAR KOMK 050853Z AUTO 17011KT 10SM BKN044 BKN055 04/M01 A2899 RMK AO2 SLP824 P0005 60013 T00391006 51013,1199534400000.0,1199534400000.0_OMK
680,349992,IAG,2008-01-18 07:53,-78.9462,43.1073,37.04,35.06,92.46,220.00,22.00,0.06,29.67,1005.80,4.00,26.00,OVC,   ,   ,   ,900.00,M,M,M,-RA BR,M,M,M,M,M,M,25.33,METAR KIAG 180753Z AUTO 22022G26KT 4SM -RA BR OVC009 03/02 A2967 RMK AO2 PK WND 20028/0656 CIG 007V013 SLP058 P0006 T00280017,1200654000000.0,1200654000000.0_IAG
681,3815720,MNZ,2008-07-09 11:49,-98.1486,31.6659,66.20,64.40,93.92,170.00,4.00,M,30.07,M,5.00,M,CLR,   ,   ,M,M,M,M,M,BR,M,M,M,M,M,M,66.20,METAR KMNZ 091149Z AUTO 17004KT 5SM BR CLR 19/18 A3007 RMK AO2 LTG DSNT NW,1215612000000.0,1215612000000.0_MNZ
682,4035738,OOA,2008-07-20 07:05,-92.4919,41.2273,71.00,69.00,93.40,220.00,4.00,M,29.91,M,10.00,M,M,M,M,M,M,M,M,M,M,M,M,M,M,M,M,72.19,M,1216548000000.0,1216548000000.0_OOA
683,5396181,ECU,2008-09-25 23:05,-100.1739,29.9469,82.40,51.80,34.69,70.00,5.00,M,30.21,M,10.00,M,CLR,   ,   ,M,M,M,M,M,M,M,M,M,M,M,M,81.20,METAR KECU 252305Z AUTO 07005KT 10SM CLR 28/11 A3021 RMK AO2,1222394400000.0,1222394400000.0_ECU
684,4680688,LUD,2008-08-22 21:45,-97.5805,33.2542,93.20,62.60,36.35,140.00,9.00,M,29.90,M,10.00,M,CLR,   ,   ,M,M,M,M,M,M,M,M,M,M,M,M,93.20,METAR KLUD 222145Z AUTO 14009KT 10SM CLR 34/17 A2990 RMK AO2,1219449600000.0,1219449600000.0_LUD
685,7079229,TDF,2008-12-15 07:21,-78.9842,36.2849,44.60,39.20,81.20,0.00,0.00,M,30.41,M,10.00,M,OVC,   ,   ,M,8000.00,M,M,M,M,M,M,M,M,M,M,44.60,METAR KTDF 150721Z AUTO 00000KT 10SM OVC080 07/04 A3041 RMK AO1,1229338800000.0,1229338800000.0_TDF
686,594591,DEH,2008-01-30 05:34,-91.7433,43.2755,-8.00,-17.00,63.79,300.00,11.00,M,29.75,M,10.00,27.00,M,M,M,M,M,M,M,M,M,M,M,M,M,M,M,-28.08,M,1201683600000.0,1201683600000.0_DEH
687,432907,AUS,2008-01-22 08:53,-97.6699,30.1945,53.96,53.06,96.76,10.00,3.00,M,30.12,1020.00,0.00,M,VV ,   ,   ,M,100.00,M,M,M,FG,M,M,M,M,M,M,53.96,METAR KAUS 220853Z 01003KT 0SM FG VV001 12/12 A3012 RMK AO2 SLP200 T01220117 58008 RVRNO $,1201003200000.0,1201003200000.0_AUS
688,29066,SLB,2008-01-02 11:33,-95.2399,42.5972,-1.00,-6.00,78.77,310.00,11.00,M,30.69,M,M,M,M,M,M,M,M,M,M,M,M,M,M,M,M,M,M,-19.24,M,1199286000000.0,1199286000000.0_SLB
689,1704424,FFL,2008-03-24 03:46,-91.9834,41.0521,33.00,27.00,78.34,310.00,7.00,M,30.39,M,10.00,M,M,M,M,M,M,M,M,M,M,M,M,M,M,M,M,26.00,M,1206342000000.0,1206342000000.0_FFL
690,2236885,SEA,2008-04-20 20:53,-122.3144,47.4447,42.98,32.00,64.93,10.00,5.00,M,30.03,1018.00,10.00,M,SCT,BKN,   ,M,2600.00,4500.00,M,M,M,M,M,M,M,M,M,39.44,METAR KSEA 202053Z 01005KT 10SM SCT026 BKN045 06/00 A3003 RMK AO2 RAB03E13 SLP180 P0000 60000 T00610000 50002 $,1208732400000.0,1208732400000.0_SEA
691,1188736,GLE,2008-02-28 16:24,-97.1969,33.6514,55.40,24.80,30.40,190.00,16.00,M,30.04,M,10.00,20.00,CLR,   ,   ,M,M,M,M,M,M,M,M,M,M,M,M,55.40,METAR KGLE 281624Z AUTO 19016G20KT 10SM CLR 13/M04 A3004 RMK AO2,1204228800000.0,1204228800000.0_GLE
692,4588291,CIN,2008-08-18 08:15,-94.7889,42.0444,64.40,59.00,82.62,230.00,6.00,M,30.01,M,10.00,-99.00,M,M,M,M,M,M,M,M,M,M,M,M,M,M,M,64.40,M,1219057200000.0,1219057200000.0_CIN
693,4658976,OOA,2008-08-21 19:35,-92.4919,41.2273,73.40,69.80,88.51,170.00,7.00,M,29.92,M,10.00,-99.00,M,M,M,M,M,M,M,M,M,M,M,M,M,M,M,74.60,M,1219356000000.0,1219356000000.0_OOA
694,2565000,JFK,2008-05-07 21:51,-73.7622,40.6386,62.96,39.02,41.18,160.00,14.00,0.00,29.88,1011.80,10.00,17.00,BKN,   ,   ,   ,25000.00,M,M,M,M,M,M,M,M,M,M,62.96,KJFK 072151Z 16014G17KT 10SM BKN250 17/04 A2988 RMK AO2 SLP118 T01720039 $,1210204800000.0,1210204800000.0_JFK
695,3070572,GPM,2008-06-02 18:50,-97.0469,32.6988,89.60,68.00,49.10,170.00,11.00,M,29.89,M,10.00,18.00,FEW,   ,   ,M,30000.00,M,M,M,M,M,M,M,M,M,M,93.47,METAR KGPM 021850Z 17011G18KT 10SM FEW300 32/20 A2989,1212440400000.0,1212440400000.0_GPM
696,3969755,PWT,2008-07-17 02:35,-122.7648,47.4903,71.60,48.20,43.42,210.00,9.00,M,30.15,M,10.00,M,CLR,   ,   ,M,M,M,M,M,M,M,M,M,M,M,M,70.50,METAR KPWT 170235Z AUTO 21009KT 10SM CLR 22/09 A3015 RMK AO1,1216270800000.0,1216270800000.0_PWT
697,2600644,LRJ,2008-05-09 17:48,-96.1923,42.7754,60.00,50.00,69.49,50.00,6.00,M,29.90,M,10.00,M,M,M,M,M,M,M,M,M,M,M,M,M,M,M,M,60.00,M,1210363200000.0,1210363200000.0_LRJ
698,6946025,GKY,2008-12-09 03:53,-97.0943,32.6639,69.08,60.98,75.40,190.00,12.00,M,29.65,1003.30,10.00,22.00,FEW,   ,   ,M,2700.00,M,M,M,M,M,M,M,M,M,M,69.08,METAR KGKY 090353Z AUTO 19012G22KT 10SM FEW027 21/16 A2965 RMK AO2 PK WND 17028/0329 LTG DSNT SW-N PRESRR SLP033 T02060161,1228806000000.0,1228806000000.0_GKY
699,6030186,PVW,2008-10-24 20:45,-101.7173,34.1681,73.40,23.00,15.03,280.00,6.00,M,29.98,M,10.00,M,CLR,   ,   ,M,M,M,M,M,M,M,M,M,M,M,M,71.15,METAR KPVW 242045Z AUTO 28006KT 10SM CLR 23/M05 A2998 RMK AO2,1224889200000.0,1224889200000.0_PVW
700,2135961,F05,2008-04-15 18:45,-99.2837,34.2257,77.00,41.00,27.53,180.00,20.00,M,29.96,M,10.00,25.00,   ,   ,   ,M,M,M,M,M,M,M,M,M,M,M,M,75.69,METAR KF05 151845Z AUTO 18020G25KT 10SM 25/05 A2996 RMK AO2,1208293200000.0,1208293200000.0_F05
701,1956882,CSQ,2008-04-06 06:55,-94.3608,41.0188,44.60,35.60,70.48,160.00,11.00,M,29.76,M,10.00,-99.00,M,M,M,M,M,M,M,M,M,M,M,M,M,M,M,38.39,M,1207472400000.0,1207472400000.0_CSQ
702,4168250,LRJ,2008-07-26 15:05,-96.1923,42.7754,69.00,63.00,81.19,310.00,4.00,M,30.16,M,10.00,M,M,M,M,M,M,M,M,M,M,M,M,M,M,M,M,69.00,M,1217095200000.0,1217095200000.0_LRJ
703,4527300,CNC,2008-08-15 04:44,-93.3608,41.0184,66.00,60.00,80.98,90.00,6.00,M,30.03,M,10.00,M,M,M,M,M,M,M,M,M,M,M,M,M,M,M,M,66.00,M,1218783600000.0,1218783600000.0_CNC
704,7372421,ADU,2008-12-29 11:33,-94.9204,41.6994,31.00,25.00,78.16,0.00,0.00,M,29.97,M,10.00,M,M,M,M,M,M,M,M,M,M,M,M,M,M,M,M,31.00,M,1230562800000.0,1230562800000.0_ADU
705,222779,3T5,2008-01-12 02:48,-96.95,29.91,51.80,33.80,50.08,170.00,4.00,M,29.89,M,10.00,M,CLR,   ,   ,M,M,M,M,M,M,M,M,M,M,M,M,51.80,METAR K3T5 120248Z AUTO 17004KT 10SM CLR 11/01 A2989 RMK AO2,1200117600000.0,1200117600000.0_3T5
706,4298101,RYW,2008-08-02 22:45,-97.9659,30.4967,96.80,59.00,28.63,160.00,4.00,M,29.91,M,10.00,M,SCT,   ,   ,M,7000.00,M,M,M,M,M,M,M,M,M,M,96.80,METAR KRYW 022245Z AUTO 16004KT 10SM SCT070 36/15 A2991 RMK AO2,1217725200000.0,1217725200000.0_RYW
707,5673161,DNS,2008-10-08 17:13,-95.38,41.9842,70.00,41.00,34.85,180.00,13.00,M,29.92,M,10.00,M,M,M,M,M,M,M,M,M,M,M,M,M,M,M,M,70.00,M,1223496000000.0,1223496000000.0_DNS
708,734825,DEH,2008-02-06 03:55,-91.7433,43.2755,31.00,29.00,92.19,30.00,4.00,M,29.86,M,5.50,M,M,M,M,M,M,M,M,M,M,M,M,M,M,M,M,26.25,M,1202281200000.0,1202281200000.0_DEH
709,5021792,BKD,2008-09-08 00:23,-98.891,32.719,89.60,51.80,27.56,190.00,10.00,M,29.96,M,10.00,M,CLR,   ,   ,M,M,M,M,M,M,M,M,M,M,M,M,87.00,METAR KBKD 080023Z AUTO 19010KT 10SM CLR 32/11 A2996 RMK AO2,1220842800000.0,1220842800000.0_BKD
710,1494432,HWV,2008-03-14 10:56,-72.8689,40.8217,37.04,33.98,88.57,M,3.00,M,29.86,1011.10,7.00,M,OVC,   ,   ,   ,10000.00,M,M,M,M,M,M,M,M,M,M,34.45,METAR KHWV 141056Z AUTO VRB03KT 7SM OVC100 03/01 A2986 RMK AO2 SLP111 T00280011 TSNO,1205503200000.0,1205503200000.0_HWV
711,7407616,EPH,2008-12-30 23:53,-119.5147,47.3081,26.06,21.92,84.10,10.00,10.00,M,30.25,1025.90,10.00,M,CLR,   ,   ,M,M,M,M,M,M,M,M,M,M,M,M,15.52,METAR KEPH 302353Z AUTO 01010KT 10SM CLR M03/M06 A3025 RMK AO2 SLP259 T10331056 11028 21078 56021,1230692400000.0,1230692400000.0_EPH
712,4365991,GVT,2008-08-06 14:45,-96.0653,33.0678,82.40,69.80,65.74,180.00,11.00,M,30.06,M,10.00,M,SCT,   ,   ,M,6000.00,M,M,M,M,M,M,M,M,M,M,86.22,METAR KGVT 061445Z AUTO 18011KT 10SM SCT060 28/21 A3006 RMK AO2,1218042000000.0,1218042000000.0_GVT
713,5000945,IKV,2008-09-06 22:25,-93.5695,41.6878,66.00,58.00,75.39,140.00,3.00,M,30.03,M,10.00,M,M,M,M,M,M,M,M,M,M,M,M,M,M,M,M,66.00,M,1220749200000.0,1220749200000.0_IKV
714,4919251,FSW,2008-09-03 04:03,-91.3267,40.6615,69.00,66.00,90.17,350.00,11.00,M,30.06,M,10.00,15.00,M,M,M,M,M,M,M,M,M,M,M,M,M,M,M,69.00,M,1220425200000.0,1220425200000.0_FSW
715,7185143,PYX,2008-12-20 10:11,-100.75,36.414,42.80,19.40,38.75,280.00,13.00,M,29.84,M,10.00,M,CLR,   ,   ,M,M,M,M,M,M,M,M,M,M,M,M,35.40,METAR KPYX 201011Z AUTO 28013KT 10SM CLR 06/M07 A2984 RMK AO2,1229781600000.0,1229781600000.0_PYX
716,2876347,AIO,2008-05-23 21:04,-95.0465,41.4059,58.00,51.00,77.47,100.00,10.00,M,30.00,M,10.00,16.00,M,M,M,M,M,M,M,M,M,M,M,M,M,M,M,58.00,M,1211587200000.0,1211587200000.0_AIO
717,5844149,GTB,2008-10-16 08:55,-75.7195,44.0556,52.16,52.16,100.00,50.00,3.00,0.18,29.84,1011.00,7.00,M,OVC,   ,   ,   ,1100.00,M,M,M,RA,M,M,M,M,M,M,52.16,METAR KGTB 160855Z AUTO 05003KT 7SM R21/5000V5500FT R33/5500FT RA OVC011 11/11 A2984 RMK AO2 SLP110 P0018 60023 T01120112 55009,1224154800000.0,1224154800000.0_GTB
718,3442286,FQD,2008-06-20 22:08,-81.9351,35.4282,84.20,48.20,28.63,0.00,0.00,M,30.04,M,10.00,M,CLR,   ,   ,M,M,M,M,M,M,M,M,M,M,M,M,82.04,METAR KFQD 202208Z AUTO 00000KT 10SM CLR 29/09 A3004 RMK AO2,1214010000000.0,1214010000000.0_FQD
719,555788,RAS,2008-01-28 07:45,-97.09,27.81,60.80,57.20,87.92,140.00,5.00,M,30.17,M,10.00,M,BKN,   ,   ,M,3600.00,M,M,M,M,M,M,M,M,M,M,60.80,METAR KRAS 280745Z AUTO 14005KT 10SM BKN036 16/14 A3017 RMK AO2,1201518000000.0,1201518000000.0_RAS
720,1421386,BNW,2008-03-11 04:43,-93.8486,42.0486,29.00,23.00,77.98,200.00,7.00,M,30.28,M,10.00,M,M,M,M,M,M,M,M,M,M,M,M,M,M,M,M,21.12,M,1205222400000.0,1205222400000.0_BNW
721,4297955,11R,2008-08-02 22:27,-96.3742,30.2189,100.40,55.40,22.54,170.00,3.00,M,29.87,M,10.00,M,CLR,   ,   ,M,M,M,M,M,M,M,M,M,M,M,M,99.06,METAR K11R 022227Z AUTO 17003KT 10SM CLR 38/13 A2987 RMK AO2,1217725200000.0,1217725200000.0_11R
722,6633624,GDJ,2008-11-24 08:05,-97.8169,32.4444,59.00,55.40,87.83,310.00,5.00,M,30.12,M,10.00,M,SCT,   ,   ,M,3500.00,M,M,M,M,M,M,M,M,M,M,59.00,METAR KGDJ 240805Z AUTO 31005KT 10SM SCT035 15/13 A3012 RMK AO2,1227528000000.0,1227528000000.0_GDJ
723,500929,F39,2008-01-25 14:25,-96.6667,33.7167,32.00,30.20,92.97,90.00,6.00,M,30.39,M,5.00,M,SCT,BKN,OVC,M,500.00,3500.00,5000.00,M,UP,M,M,M,M,M,M,25.53,METAR KGYI 251425Z AUTO 09006KT 5SM UP SCT005 BKN035 OVC050 00/M01 A3039 RMK AO2,1201284000000.0,1201284000000.0_F39
724,2036184,OOA,2008-04-10 13:37,-92.4919,41.2273,43.00,40.00,89.06,80.00,21.00,0.07,29.70,M,3.00,31.00,M,M,M,M,M,M,M,M,M,M,M,M,M,M,M,33.52,M,1207843200000.0,1207843200000.0_OOA
725,3560508,TDF,2008-06-26 18:41,-78.9842,36.2849,96.80,50.00,20.62,250.00,6.00,M,30.01,M,10.00,M,SCT,   ,   ,M,8000.00,M,M,M,M,M,M,M,M,M,M,93.71,METAR KTDF 261841Z AUTO 25006KT 10SM SCT080 36/10 A3001,1214514000000.0,1214514000000.0_TDF
726,4661755,SDA,2008-08-21 22:55,-95.4112,40.7533,78.80,68.00,69.52,190.00,4.00,M,29.84,M,10.00,-99.00,M,M,M,M,M,M,M,M,M,M,M,M,M,M,M,81.10,M,1219366800000.0,1219366800000.0_SDA
727,6326543,GPM,2008-11-09 16:50,-97.0469,32.6988,62.60,30.20,29.35,100.00,9.00,M,30.11,M,10.00,M,CLR,   ,   ,M,M,M,M,M,M,M,M,M,M,M,M,62.60,METAR KGPM 091650Z 10009KT 10SM SKC 17/M01 A3011,1226260800000.0,1226260800000.0_GPM
728,4967925,SDA,2008-09-05 08:12,-95.4112,40.7533,47.00,42.00,M,M,M,M,29.96,M,1.75,M,M,M,M,M,M,M,M,M,M,M,M,M,M,M,M,M,M,1220612400000.0,1220612400000.0_SDA
729,5226301,SSF,2008-09-18 03:53,-98.4711,29.337,71.06,51.08,49.23,90.00,6.00,M,30.13,1019.60,10.00,M,BKN,   ,   ,M,9500.00,M,M,M,M,M,M,M,M,M,M,71.06,METAR KSSF 180353Z AUTO 09006KT 10SM BKN095 22/11 A3013 RMK AO2 SLP196 T02170106,1221717600000.0,1221717600000.0_SSF
730,6859149,PRO,2008-12-05 05:55,-94.1637,41.8278,17.60,8.60,67.28,240.00,6.00,M,30.50,M,10.00,-99.00,M,M,M,M,M,M,M,M,M,M,M,M,M,M,M,8.19,M,1228467600000.0,1228467600000.0_PRO
731,839004,MRH,2008-02-11 08:56,-76.6606,34.7336,39.92,10.04,28.78,360.00,11.00,M,30.24,1024.10,10.00,M,CLR,   ,   ,M,M,M,M,M,M,M,M,M,M,M,M,32.48,METAR KMRH 110856Z AUTO 36011KT 10SM CLR 04/M12 A3024 RMK AO2 SLP241 T00441122 51036 TSNO,1202731200000.0,1202731200000.0_MRH
732,4186048,SKF,2008-07-27 13:55,-98.5811,29.3842,75.56,71.96,88.60,170.00,6.00,M,30.02,1015.70,10.00,M,BKN,   ,   ,M,2500.00,M,M,M,M,M,M,M,M,M,M,76.98,METAR KSKF 271355Z 17006KT 10SM BKN025 24/22 A3002 RMK AO2A SLP157 T02420222 $,1217174400000.0,1217174400000.0_SKF
733,4858873,HQZ,2008-08-31 03:45,-96.5304,32.747,78.80,69.80,73.95,0.00,0.00,M,29.98,M,7.00,M,CLR,   ,   ,M,M,M,M,M,M,M,M,M,M,M,M,81.39,METAR KHQZ 310345Z AUTO 00000KT 7SM CLR 26/21 A2998 RMK AO1,1220162400000.0,1220162400000.0_HQZ
734,1652335,DEH,2008-03-21 12:35,-91.7433,43.2755,32.00,30.20,92.97,90.00,16.00,M,29.98,M,3.00,26.00,M,M,M,M,M,M,M,M,M,M,M,M,M,M,M,20.42,M,1206115200000.0,1206115200000.0_DEH
735,250898,LNC,2008-01-13 10:50,-96.719,32.5792,32.00,32.00,100.00,290.00,4.00,M,30.17,M,10.00,M,CLR,   ,   ,M,M,M,M,M,M,M,M,M,M,M,M,27.42,METAR KLNC 131050Z AUTO 29004KT 10SM CLR 00/00 A3017 RMK AO2,1200232800000.0,1200232800000.0_LNC
736,6870838,VUJ,2008-12-05 19:55,-80.1508,35.4167,51.80,24.80,34.69,50.00,6.00,M,30.19,M,10.00,M,CLR,   ,   ,M,M,M,M,M,M,M,M,M,M,M,M,51.80,METAR KVUJ 051955Z 05006KT 10SM SKC 11/M04 A3019,1228518000000.0,1228518000000.0_VUJ
737,5433002,SMP,2008-09-27 13:56,-121.3372,47.2767,44.06,42.08,92.69,M,4.00,M,30.17,1021.60,0.25,M,BKN,OVC,   ,M,100.00,3500.00,M,M,FG,M,M,M,M,M,M,41.50,METAR KSMP 271356Z AUTO VRB04KT 1/4SM FG BKN001 OVC035 07/06 A3017 RMK AO2 SLP216 T00670056 TSNO,1222531200000.0,1222531200000.0_SMP
738,2598390,ICL,2008-05-09 14:58,-95.0223,40.7242,53.00,46.00,77.03,130.00,4.00,M,29.83,M,10.00,M,M,M,M,M,M,M,M,M,M,M,M,M,M,M,M,53.00,M,1210352400000.0,1210352400000.0_ICL
739,3844762,CLS,2008-07-10 22:10,-122.9827,46.677,71.60,50.00,46.43,250.00,7.00,M,30.11,M,10.00,M,CLR,   ,   ,M,M,M,M,M,M,M,M,M,M,M,M,71.60,METAR KCLS 102210Z AUTO 25007KT 10SM CLR 22/10 A3011 RMK AO2,1215738000000.0,1215738000000.0_CLS
740,5459525,MFE,2008-09-28 18:53,-98.2386,26.1758,86.00,53.96,33.45,360.00,4.00,M,30.05,1017.50,10.00,M,CLR,   ,   ,M,M,M,M,M,M,M,M,M,M,M,M,84.25,METAR KMFE 281853Z 36004KT 10SM CLR 30/12 A3005 RMK AO2 SLP175 T03000122,1222635600000.0,1222635600000.0_MFE
741,1656909,KLS,2008-03-21 17:55,-122.9,46.12,42.80,35.60,75.50,140.00,8.00,M,30.54,M,10.00,M,SCT,   ,   ,M,1800.00,M,M,M,M,M,M,M,M,M,M,37.42,METAR KKLS 211755Z AUTO 14008KT 090V160 10SM SCT018 06/02 A3054 RMK AO1 60001 10060 20030 52020,1206133200000.0,1206133200000.0_KLS
742,293818,KLS,2008-01-15 12:35,-122.9,46.12,33.80,33.80,100.00,0.00,0.00,0.01,30.55,M,7.00,M,BKN,BKN,OVC,M,900.00,2100.00,5500.00,M,M,M,M,M,M,M,M,33.80,METAR KKLS 151235Z AUTO 00000KT 7SM BKN009 BKN021 OVC055 01/01 A3055 RMK AO1 P0001,1200412800000.0,1200412800000.0_KLS
743,155274,FSW,2008-01-08 23:05,-91.3267,40.6615,35.00,34.00,96.09,300.00,12.00,M,29.78,M,M,M,M,M,M,M,M,M,M,M,M,M,M,M,M,M,M,25.82,M,1199847600000.0,1199847600000.0_FSW
744,3442760,GPM,2008-06-20 22:50,-97.0469,32.6988,95.00,60.80,32.27,0.00,0.00,M,29.94,M,10.00,M,CLR,   ,   ,M,M,M,M,M,M,M,M,M,M,M,M,95.00,METAR KGPM 202250Z 00000KT 10SM SKC 35/16 A2994,1214010000000.0,1214010000000.0_GPM
745,1828049,BNW,2008-03-30 12:15,-93.8486,42.0486,39.20,33.80,80.79,130.00,3.00,M,30.07,M,10.00,-99.00,M,M,M,M,M,M,M,M,M,M,M,M,M,M,M,36.92,M,1206889200000.0,1206889200000.0_BNW
746,6877350,RYW,2008-12-06 03:25,-97.9659,30.4967,41.00,15.80,35.57,120.00,3.00,M,30.23,M,10.00,M,CLR,   ,   ,M,M,M,M,M,M,M,M,M,M,M,M,38.98,METAR KRYW 060325Z AUTO 12003KT 10SM CLR 05/M09 A3023 RMK AO2,1228546800000.0,1228546800000.0_RYW
747,3617803,SLB,2008-06-29 13:15,-95.2399,42.5972,64.40,59.00,82.62,320.00,13.00,M,30.01,M,10.00,18.00,M,M,M,M,M,M,M,M,M,M,M,M,M,M,M,64.40,M,1214755200000.0,1214755200000.0_SLB
748,631635,CKP,2008-02-01 06:43,-95.5538,42.7304,6.00,2.00,83.19,M,0.00,M,30.03,M,10.00,M,M,M,M,M,M,M,M,M,M,M,M,M,M,M,M,6.00,M,1201860000000.0,1201860000000.0_CKP
749,2588174,FSW,2008-05-09 01:57,-91.3267,40.6615,58.00,40.00,51.03,40.00,6.00,M,29.76,M,10.00,M,M,M,M,M,M,M,M,M,M,M,M,M,M,M,M,58.00,M,1210305600000.0,1210305600000.0_FSW
750,2573402,T82,2008-05-08 08:05,-98.9092,30.2432,57.20,46.40,67.12,0.00,0.00,M,M,M,10.00,M,CLR,   ,   ,M,M,M,M,M,M,M,M,M,M,M,M,57.20,METAR KT82 080805Z AUTO 00000KT 10SM CLR 14/08 RMK AO1,1210244400000.0,1210244400000.0_T82
751,4458575,RNT,2008-08-11 11:53,-122.2157,47.4931,60.98,53.06,75.14,170.00,3.00,M,30.12,1020.40,10.00,M,BKN,OVC,   ,M,6000.00,7500.00,M,M,M,M,M,M,M,M,M,60.98,METAR KRNT 111153Z AUTO 17003KT 10SM BKN060 OVC075 16/12 A3012 RMK AO2 SLP204 T01610117 10172 20156 56005,1218463200000.0,1218463200000.0_RNT
752,5968762,OOA,2008-10-22 00:35,-92.4919,41.2273,53.00,32.00,44.58,80.00,10.00,M,30.19,M,10.00,16.00,M,M,M,M,M,M,M,M,M,M,M,M,M,M,M,53.00,M,1224644400000.0,1224644400000.0_OOA
753,7017508,FOD,2008-12-12 09:35,-94.2032,42.5497,8.60,3.20,78.18,0.00,0.00,M,30.19,M,10.00,-99.00,M,M,M,M,M,M,M,M,M,M,M,M,M,M,M,8.60,M,1229086800000.0,1229086800000.0_FOD
754,6137673,GNC,2008-10-30 20:05,-102.6527,32.6753,80.60,41.00,24.46,230.00,7.00,M,30.23,M,10.00,15.00,CLR,   ,   ,M,M,M,M,M,M,M,M,M,M,M,M,79.20,METAR KGNC 302005Z AUTO 23007G15KT 10SM CLR 27/05 A3023 RMK AO2,1225411200000.0,1225411200000.0_GNC
755,1731938,MTP,2008-03-25 13:54,-71.9233,41.0731,35.96,21.92,56.32,50.00,10.00,M,30.31,1026.20,M,17.00,   ,   ,   ,   ,M,M,M,M,M,M,M,M,M,M,M,27.93,METAR KMTP 251354Z AUTO 05010G17KT 02/M06 A3031 RMK AO2 SLP262 T00221056 PWINO FZRANO TSNO,1206464400000.0,1206464400000.0_MTP
756,6019135,ABI,2008-10-24 07:52,-99.6819,32.4113,44.96,28.94,53.17,80.00,7.00,M,30.11,1018.80,10.00,M,CLR,   ,   ,M,M,M,M,M,M,M,M,M,M,M,M,40.58,METAR KABI 240752Z 08007KT 10SM CLR 07/M02 A3011 RMK AO2 SLP188 T00721017,1224842400000.0,1224842400000.0_ABI
757,77638,CBF,2008-01-04 20:45,-95.7604,41.2611,36.00,26.00,66.69,180.00,12.00,M,29.84,M,M,M,M,M,M,M,M,M,M,M,M,M,M,M,M,M,M,27.09,M,1199491200000.0,1199491200000.0_CBF
758,6598591,SJT,2008-11-22 18:51,-100.495,31.3517,64.04,42.08,44.64,200.00,14.00,M,30.26,1024.70,10.00,22.00,CLR,   ,   ,M,M,M,M,M,M,M,M,M,M,M,M,64.04,METAR KSJT 221851Z 20014G22KT 10SM CLR 18/06 A3026 RMK AO2 SLP247 T01780056,1227391200000.0,1227391200000.0_SJT
759,5249022,MXO,2008-09-19 04:35,-91.1605,42.2204,62.60,57.20,82.50,150.00,5.00,M,30.20,M,10.00,-99.00,M,M,M,M,M,M,M,M,M,M,M,M,M,M,M,62.60,M,1221807600000.0,1221807600000.0_MXO
760,5888012,CWI,2008-10-18 08:15,-90.3328,41.8295,35.60,33.80,93.08,350.00,3.00,M,30.32,M,0.50,-99.00,M,M,M,M,M,M,M,M,M,M,M,M,M,M,M,32.80,M,1224327600000.0,1224327600000.0_CWI
761,336927,VUJ,2008-01-17 16:22,-80.1508,35.4167,33.80,30.20,86.49,10.00,7.00,0.04,30.07,M,3.00,M,   ,   ,   ,M,M,M,M,M,M,M,M,M,M,M,M,26.97,METAR KVUJ 171622Z AUTO 01007KT 3SM 01/M01 A3007 RMK AO2 P0004,1200600000000.0,1200600000000.0_VUJ
762,679755,HRX,2008-02-03 12:45,-102.3264,34.8578,33.80,24.80,69.25,260.00,9.00,M,29.86,M,10.00,M,CLR,   ,   ,M,M,M,M,M,M,M,M,M,M,M,M,25.75,METAR KHRX 031245Z AUTO 26009KT 10SM CLR 01/M04 A2986 RMK AO2,1202054400000.0,1202054400000.0_HRX
763,1218402,KLS,2008-03-01 16:15,-122.9,46.12,41.00,39.20,93.24,150.00,8.00,M,30.11,M,7.00,M,SCT,BKN,OVC,M,3000.00,3600.00,4400.00,M,M,M,M,M,M,M,M,35.20,METAR KKLS 011615Z AUTO 15008KT 7SM SCT030 BKN036 OVC044 05/04 A3011 RMK AO1,1204401600000.0,1204401600000.0_KLS
764,3920580,BNW,2008-07-14 17:33,-93.8486,42.0486,85.00,66.00,53.04,200.00,5.00,M,29.95,M,10.00,M,M,M,M,M,M,M,M,M,M,M,M,M,M,M,M,87.24,M,1216065600000.0,1216065600000.0_BNW
765,4155088,PAE,2008-07-25 22:53,-122.2816,47.907,73.04,48.02,41.07,260.00,7.00,M,30.04,1016.90,10.00,M,CLR,   ,   ,M,M,M,M,M,M,M,M,M,M,M,M,71.97,METAR KPAE 252253Z AUTO 26007KT 10SM CLR 23/09 A3004 RMK AO2 SLP169 T02280089 TSNO,1217034000000.0,1217034000000.0_PAE
766,1386668,OLZ,2008-03-09 15:51,-91.976,42.6831,22.00,17.00,80.77,290.00,7.00,M,30.17,M,10.00,M,M,M,M,M,M,M,M,M,M,M,M,M,M,M,M,12.59,M,1205089200000.0,1205089200000.0_OLZ
767,1191782,OCH,2008-02-29 01:35,-94.7094,31.5778,62.60,48.20,59.26,180.00,12.00,M,30.06,M,10.00,21.00,OVC,   ,   ,M,6000.00,M,M,M,M,M,M,M,M,M,M,62.60,METAR KOCH 290135Z AUTO 18012G21KT 10SM OVC060 17/09 A3006 RMK AO1,1204261200000.0,1204261200000.0_OCH
768,4919416,RDK,2008-09-03 04:15,-95.2624,41.0106,62.60,53.60,72.38,360.00,10.00,M,30.18,M,10.00,15.00,M,M,M,M,M,M,M,M,M,M,M,M,M,M,M,62.60,M,1220425200000.0,1220425200000.0_RDK
769,6194090,PEZ,2008-11-02 20:04,-98.52,28.9542,82.40,50.00,32.46,150.00,7.00,M,30.13,M,10.00,M,SCT,   ,   ,M,7500.00,M,M,M,M,M,M,M,M,M,M,80.99,METAR KPEZ 022004Z AUTO 15007KT 10SM SCT075 28/10 A3013 RMK AO2,1225670400000.0,1225670400000.0_PEZ
770,4849426,SDA,2008-08-30 17:32,-95.4112,40.7533,82.00,62.00,50.80,170.00,11.00,M,30.11,M,10.00,M,M,M,M,M,M,M,M,M,M,M,M,M,M,M,M,82.89,M,1220126400000.0,1220126400000.0_SDA
771,3959755,LRJ,2008-07-16 15:13,-96.1923,42.7754,79.00,66.00,64.45,110.00,6.00,M,30.03,M,0.24,M,M,M,M,M,M,M,M,M,M,M,M,M,M,M,M,81.01,M,1216231200000.0,1216231200000.0_LRJ
772,1178277,PEZ,2008-02-27 22:25,-98.52,28.9542,68.00,-25.60,1.80,220.00,3.00,M,30.21,M,10.00,M,CLR,   ,   ,M,M,M,M,M,M,M,M,M,M,M,M,68.00,METAR KPEZ 272225Z AUTO 22003KT 10SM CLR 20/M32 A3021 RMK AO2,1204164000000.0,1204164000000.0_PEZ
773,4876600,GYB,2008-09-01 06:07,-96.98,30.17,77.00,68.00,73.78,0.00,0.00,M,29.89,M,10.00,M,CLR,   ,   ,M,M,M,M,M,M,M,M,M,M,M,M,77.00,METAR KGYB 010607Z AUTO 00000KT 10SM CLR 25/20 A2989 RMK AO2,1220259600000.0,1220259600000.0_GYB
774,60326,PEQ,2008-01-03 23:47,-103.51,31.38,55.40,10.40,16.34,70.00,8.00,M,30.24,M,10.00,M,CLR,   ,   ,M,M,M,M,M,M,M,M,M,M,M,M,55.40,METAR KPEQ 032347Z AUTO 07008KT 10SM CLR 13/M12 A3024 RMK AO2,1199415600000.0,1199415600000.0_PEQ
775,3286365,DPL,2008-06-13 11:41,-77.98,35.0,69.80,68.00,94.01,0.00,0.00,M,30.23,M,7.00,M,CLR,   ,   ,M,M,M,M,M,M,M,M,M,M,M,M,69.80,METAR KDPL 131141Z AUTO 00000KT 7SM CLR 21/20 A3023 RMK AO2,1213365600000.0,1213365600000.0_DPL
776,3471405,ELP,2008-06-22 08:51,-106.3758,31.8111,73.94,48.92,41.21,0.00,0.00,M,30.23,1015.70,10.00,M,FEW,SCT,   ,M,18000.00,25000.00,M,M,M,M,M,M,M,M,M,73.94,METAR KELP 220851Z 00000KT 10SM FEW180 SCT250 23/09 A3023 RMK AO2 SLP157 T02330094 56009,1214132400000.0,1214132400000.0_ELP
777,6634134,PVW,2008-11-24 08:45,-101.7173,34.1681,41.00,21.20,44.85,20.00,13.00,M,30.28,M,10.00,21.00,CLR,   ,   ,M,M,M,M,M,M,M,M,M,M,M,M,33.10,METAR KPVW 240845Z AUTO 02013G21KT 10SM CLR 05/M06 A3028 RMK AO2,1227528000000.0,1227528000000.0_PVW
778,4295799,HRX,2008-08-02 19:45,-102.3264,34.8578,91.40,50.00,24.37,230.00,5.00,M,30.04,M,10.00,22.00,SCT,   ,   ,M,8000.00,M,M,M,M,M,M,M,M,M,M,88.36,METAR KHRX 021945Z AUTO 23005G22KT 10SM SCT080 33/10 A3004 RMK AO2,1217714400000.0,1217714400000.0_HRX
779,1520512,CLM,2008-03-15 14:53,-123.5,48.12,41.00,35.96,82.09,250.00,8.00,M,29.94,1013.90,10.00,M,OVC,   ,   ,M,4800.00,M,M,M,M,M,M,M,M,M,M,35.20,METAR KCLM 151453Z AUTO 25008KT 10SM OVC048 05/02 A2994 RMK AO2 RAB1359E22 SLP139 P0000 60000 T00500022 51014 $,1205604000000.0,1205604000000.0_CLM
780,3972817,3T5,2008-07-17 06:05,-96.95,29.91,77.00,71.60,83.44,0.00,0.00,M,30.02,M,10.00,M,CLR,   ,   ,M,M,M,M,M,M,M,M,M,M,M,M,78.32,METAR K3T5 170605Z AUTO 00000KT 10SM CLR 25/22 A3002 RMK AO2,1216285200000.0,1216285200000.0_3T5
781,4291833,FWS,2008-08-02 14:49,-97.3033,32.573,89.60,68.00,49.10,240.00,8.00,M,29.97,M,20.00,M,CLR,   ,   ,M,M,M,M,M,M,M,M,M,M,M,M,93.47,METAR KFWS 021449Z 24008KT 20SM SKC 32/20 A2997,1217696400000.0,1217696400000.0_FWS
782,1105664,HNR,2008-02-24 11:15,-95.3355,41.5834,26.60,26.60,100.00,190.00,7.00,M,30.06,M,3.50,-99.00,M,M,M,M,M,M,M,M,M,M,M,M,M,M,M,18.20,M,1203865200000.0,1203865200000.0_HNR
783,6162383,MUT,2008-11-01 06:53,-91.1406,41.367,51.00,49.00,M,M,M,M,30.28,M,5.50,M,M,M,M,M,M,M,M,M,M,M,M,M,M,M,M,M,M,1225533600000.0,1225533600000.0_MUT
784,4136465,IKV,2008-07-25 02:14,-93.5695,41.6878,70.00,69.00,96.64,100.00,7.00,M,29.97,M,2.00,M,M,M,M,M,M,M,M,M,M,M,M,M,M,M,M,70.00,M,1216962000000.0,1216962000000.0_IKV
785,1795828,IGX,2008-03-28 21:56,-79.0642,35.9333,75.92,48.92,38.57,0.00,0.00,M,29.91,1012.40,9.00,M,SCT,   ,   ,M,7500.00,M,M,M,M,M,M,M,M,M,M,75.92,METAR KIGX 282156Z AUTO 00000KT 9SM SCT075 24/09 A2991 RMK AO2 SLP124 T02440094,1206752400000.0,1206752400000.0_IGX
786,6860316,11R,2008-12-05 07:25,-96.3742,30.2189,35.60,24.80,64.46,10.00,6.00,M,30.41,M,10.00,M,CLR,   ,   ,M,M,M,M,M,M,M,M,M,M,M,M,29.87,METAR K11R 050725Z AUTO 01006KT 10SM CLR 02/M04 A3041 RMK AO2,1228474800000.0,1228474800000.0_11R
787,4962022,TNU,2008-09-05 01:55,-93.01899999999999,41.6701,55.40,51.80,87.65,360.00,4.00,M,29.90,M,10.00,-99.00,M,M,M,M,M,M,M,M,M,M,M,M,M,M,M,55.40,M,1220587200000.0,1220587200000.0_TNU
788,4952136,AXA,2008-09-04 15:15,-94.2724,43.0796,57.20,53.60,M,M,M,M,29.99,M,10.00,-99.00,M,M,M,M,M,M,M,M,M,M,M,M,M,M,M,M,M,1220551200000.0,1220551200000.0_AXA
789,1349605,FFL,2008-03-07 20:26,-91.9834,41.0521,25.00,14.00,62.50,10.00,11.00,M,30.27,M,10.00,21.00,M,M,M,M,M,M,M,M,M,M,M,M,M,M,M,13.62,M,1204934400000.0,1204934400000.0_FFL
790,634420,RWI,2008-02-01 09:53,-77.8919,35.8563,39.02,37.94,95.86,50.00,3.00,M,30.12,1020.10,9.00,M,OVC,   ,   ,M,600.00,M,M,M,M,M,M,M,M,M,M,36.71,METAR KRWI 010953Z AUTO 05003KT 9SM OVC006 04/03 A3012 RMK AO2 RAE15B35E48 SLP201 P0000 T00390033,1201870800000.0,1201870800000.0_RWI
791,1367533,TVK,2008-03-08 17:23,-92.8983,40.6832,23.00,1.00,37.74,200.00,7.00,M,30.04,M,10.00,M,M,M,M,M,M,M,M,M,M,M,M,M,M,M,M,13.81,M,1205010000000.0,1205010000000.0_TVK
792,6343488,NBT,2008-11-10 12:56,-76.4625,35.0222,53.06,M,M,350.00,9.00,M,30.14,1021.00,10.00,M,CLR,   ,   ,M,M,M,M,M,M,M,M,M,M,M,M,M,METAR KNBT 101256Z AUTO 35009KT 10SM CLR 12/ A3014 RMK AO2 SLP210 T0117 TSNO $,1226332800000.0,1226332800000.0_NBT
793,3618381,INT,2008-06-29 13:54,-80.222,36.1337,78.08,64.04,62.05,240.00,6.00,M,30.00,1014.60,10.00,M,CLR,   ,   ,M,M,M,M,M,M,M,M,M,M,M,M,78.08,METAR KINT 291354Z 24006KT 10SM CLR 26/18 A3000 RMK AO2 SLP146 T02560178,1214755200000.0,1214755200000.0_INT
794,2769149,LGA,2008-05-18 08:51,-73.8803,40.7794,59.00,48.92,69.17,270.00,8.00,M,29.48,998.30,10.00,M,FEW,   ,   ,   ,10000.00,M,M,M,M,M,M,M,M,M,M,59.00,METAR KLGA 180851Z 27008KT 10SM FEW100 15/09 A2948 RMK AO2 SLP983 T01500094 53003,1211108400000.0,1211108400000.0_LGA
795,5997548,HRJ,2008-10-23 08:23,-78.7336,35.3786,41.00,37.40,M,M,M,M,30.47,M,10.00,M,CLR,   ,   ,M,M,M,M,M,M,M,M,M,M,M,M,M,METAR KHRJ 230823Z AUTO 10SM CLR 05/03 A3047 RMK AO2,1224759600000.0,1224759600000.0_HRJ
796,726441,CSQ,2008-02-05 18:34,-94.3608,41.0188,32.00,28.00,84.98,30.00,15.00,M,29.87,M,2.50,21.00,M,M,M,M,M,M,M,M,M,M,M,M,M,M,M,20.78,M,1202248800000.0,1202248800000.0_CSQ
797,1138516,AWG,2008-02-25 23:33,-91.6748,41.2751,35.00,33.00,92.32,40.00,8.00,0.04,29.74,M,1.50,M,M,M,M,M,M,M,M,M,M,M,M,M,M,M,M,27.81,M,1203994800000.0,1203994800000.0_AWG
798,2038085,GLE,2008-04-10 16:03,-97.1969,33.6514,68.00,55.40,64.04,210.00,11.00,M,29.61,M,10.00,15.00,CLR,   ,   ,M,M,M,M,M,M,M,M,M,M,M,M,68.00,METAR KGLE 101603Z AUTO 21011G15KT 10SM CLR 20/13 A2961 RMK AO2,1207854000000.0,1207854000000.0_GLE
799,3428336,ORC,2008-06-20 05:55,-96.0606,42.9895,62.60,55.40,77.29,290.00,6.00,M,29.98,M,10.00,-99.00,M,M,M,M,M,M,M,M,M,M,M,M,M,M,M,62.60,M,1213948800000.0,1213948800000.0_ORC
800,1979194,FFL,2008-04-07 09:16,-91.9834,41.0521,35.00,27.00,72.32,270.00,15.00,M,29.93,M,10.00,18.00,M,M,M,M,M,M,M,M,M,M,M,M,M,M,M,24.67,M,1207569600000.0,1207569600000.0_FFL
801,4794856,IFA,2008-08-28 06:35,-93.2651,42.4691,68.00,64.40,88.26,200.00,8.00,0.02,29.75,M,7.00,-99.00,M,M,M,M,M,M,M,M,M,M,M,M,M,M,M,68.00,M,1219914000000.0,1219914000000.0_IFA
802,2565159,KLS,2008-05-07 21:55,-122.9,46.12,53.60,35.60,50.36,300.00,11.00,M,30.26,M,10.00,16.00,OVC,   ,   ,M,4600.00,M,M,M,M,M,M,M,M,M,M,53.60,METAR KKLS 072155Z AUTO 30011G16KT 10SM OVC046 12/02 A3026 RMK AO1,1210204800000.0,1210204800000.0_KLS
803,7257739,RWV,2008-12-23 23:25,-96.7041,30.5155,51.80,50.00,93.55,190.00,6.00,M,29.93,M,9.00,M,OVC,   ,   ,M,800.00,M,M,M,M,M,M,M,M,M,M,51.80,METAR KRWV 232325Z AUTO 19006KT 9SM OVC008 11/10 A2993 RMK AO2,1230087600000.0,1230087600000.0_RWV
804,6826028,ELM,2008-12-03 14:53,-76.8916,42.1599,30.92,19.04,60.97,220.00,6.00,M,30.17,1022.70,10.00,M,OVC,   ,   ,   ,11000.00,M,M,M,M,M,M,M,M,M,M,24.23,METAR KELM 031453Z 22006KT 10SM OVC110 M01/M07 A3017 RMK AO2 SLP227 T10061072 56007,1228327200000.0,1228327200000.0_ELM
805,7126941,F05,2008-12-17 14:27,-99.2837,34.2257,32.00,28.40,86.39,50.00,4.00,M,30.14,M,4.00,M,CLR,   ,   ,M,M,M,M,M,M,M,M,M,M,M,M,27.42,METAR KF05 171427Z AUTO 05004KT 4SM CLR 00/M02 A3014 RMK AO2,1229536800000.0,1229536800000.0_F05
806,2671359,YKM,2008-05-13 08:53,-120.5441,46.5682,50.00,35.96,58.34,260.00,7.00,M,30.07,1018.10,10.00,M,BKN,   ,   ,M,11000.00,M,M,M,M,M,M,M,M,M,M,46.72,METAR KYKM 130853Z AUTO 26007KT 10SM BKN110 10/02 A3007 RMK AO2 SLP181 T01000022 51002,1210676400000.0,1210676400000.0_YKM
807,5596673,SOA,2008-10-05 05:45,-100.6486,30.5857,69.80,50.00,49.37,160.00,9.00,M,30.05,M,10.00,M,CLR,   ,   ,M,M,M,M,M,M,M,M,M,M,M,M,69.80,METAR KSOA 050545Z AUTO 16009KT 10SM CLR 21/10 A3005 RMK AO2,1223193600000.0,1223193600000.0_SOA
808,3087799,TKI,2008-06-03 14:53,-96.59,33.18,82.04,68.00,62.53,190.00,17.00,M,29.81,1008.80,10.00,25.00,CLR,   ,   ,M,M,M,M,M,M,M,M,M,26.00,190.00,2008-06-03 14:33,84.97,METAR KTKI 031453Z 19017G25KT 10SM CLR 28/20 A2981 RMK AO2 PK WND 19026/1433 SLP088 T02780200 50003,1212512400000.0,1212512400000.0_TKI
809,4246896,BEA,2008-07-31 00:44,-97.791,28.3619,86.00,75.20,70.27,140.00,10.00,M,29.77,M,10.00,M,CLR,   ,   ,M,M,M,M,M,M,M,M,M,M,M,M,95.19,METAR KBEA 310044Z AUTO 14010KT 10SM CLR 30/24 A2977 RMK AO2,1217473200000.0,1217473200000.0_BEA
810,2679128,T82,2008-05-13 18:05,-98.9092,30.2432,80.60,68.00,65.54,250.00,6.00,M,29.83,M,7.00,M,BKN,BKN,   ,M,3200.00,4000.00,M,M,M,M,M,M,M,M,M,83.29,METAR KT82 131805Z AUTO 25006KT 7SM BKN032 BKN040 27/20 A2983 RMK AO1,1210712400000.0,1210712400000.0_T82
811,261786,AXA,2008-01-13 23:14,-94.2724,43.0796,23.00,18.00,80.85,300.00,3.00,M,30.06,M,7.00,M,M,M,M,M,M,M,M,M,M,M,M,M,M,M,M,18.40,M,1200279600000.0,1200279600000.0_AXA
812,3963436,TFP,2008-07-16 19:25,-97.2115,27.913,89.60,69.80,52.23,140.00,9.00,M,30.02,M,10.00,M,CLR,   ,   ,M,M,M,M,M,M,M,M,M,M,M,M,94.85,METAR KTFP 161925Z AUTO 14009KT 10SM CLR 32/21 A3002 RMK AO2 LTG DSNT N,1216245600000.0,1216245600000.0_TFP
813,1431184,CKP,2008-03-11 15:01,-95.5538,42.7304,40.00,30.00,67.18,210.00,8.00,M,29.92,M,10.00,M,M,M,M,M,M,M,M,M,M,M,M,M,M,M,M,33.97,M,1205262000000.0,1205262000000.0_CKP
814,3456309,FZY,2008-06-21 14:54,-76.3847,43.3497,73.04,57.92,59.08,M,4.00,M,30.03,1016.70,10.00,M,CLR,   ,   ,   ,M,M,M,M,M,M,M,M,M,M,M,73.04,METAR KFZY 211454Z AUTO VRB04KT 10SM CLR 23/14 A3003 RMK AO2 SLP167 T02280144 50001,1214067600000.0,1214067600000.0_FZY
815,1871705,VTI,2008-04-01 22:44,-92.0248,42.2176,46.00,28.00,49.18,310.00,8.00,M,30.30,M,10.00,M,M,M,M,M,M,M,M,M,M,M,M,M,M,M,M,41.36,M,1207098000000.0,1207098000000.0_VTI
816,529536,MWL,2008-01-26 23:53,-98.0602,32.7816,57.92,28.04,31.74,20.00,4.00,M,30.21,1023.10,10.00,M,CLR,   ,   ,M,M,M,M,M,M,M,M,M,M,M,M,57.92,METAR KMWL 262353Z AUTO 02004KT 10SM CLR 14/M02 A3021 RMK AO2 SLP231 T01441022 10194 20111 53017,1201402800000.0,1201402800000.0_MWL
817,961695,RBO,2008-02-17 12:05,-97.6905,27.7785,44.60,42.80,93.35,290.00,7.00,M,29.81,M,7.00,M,CLR,   ,   ,M,M,M,M,M,M,M,M,M,M,M,M,40.14,METAR KRBO 171205Z AUTO 29007KT 7SM CLR 07/06 A2981 RMK AO2,1203264000000.0,1203264000000.0_RBO
818,2106525,JWY,2008-04-14 06:45,-96.9125,32.4561,42.80,26.60,52.45,350.00,4.00,M,30.31,M,10.00,M,CLR,   ,   ,M,M,M,M,M,M,M,M,M,M,M,M,40.03,METAR KJWY 140645Z AUTO 35004KT 10SM CLR 06/M03 A3031 RMK AO2,1208163600000.0,1208163600000.0_JWY
819,1056229,OLZ,2008-02-22 04:19,-91.976,42.6831,17.00,11.00,76.87,160.00,5.00,M,30.02,M,10.00,M,M,M,M,M,M,M,M,M,M,M,M,M,M,M,M,8.58,M,1203667200000.0,1203667200000.0_OLZ
820,4423093,JSO,2008-08-09 14:45,-95.22,31.87,73.40,69.80,88.51,160.00,4.00,M,30.00,M,10.00,M,SCT,SCT,   ,M,6000.00,8000.00,M,M,M,M,M,M,M,M,M,74.60,METAR KJSO 091445Z AUTO 16004KT 10SM SCT060 SCT080 23/21 A3000 RMK AO2 LTG DSNT NW,1218301200000.0,1218301200000.0_JSO
821,511195,F39,2008-01-26 02:25,-96.6667,33.7167,35.60,32.00,86.59,190.00,9.00,M,30.24,M,7.00,M,OVC,   ,   ,M,700.00,M,M,M,M,M,M,M,M,M,M,27.99,METAR KGYI 260225Z AUTO 19009KT 7SM OVC007 02/00 A3024 RMK AO2,1201327200000.0,1201327200000.0_F39
822,4610760,GEG,2008-08-19 10:53,-117.52799999999999,47.6216,60.98,57.92,89.65,160.00,6.00,M,29.81,1007.30,9.00,M,SCT,BKN,   ,M,10000.00,14000.00,M,M,M,M,M,M,M,M,M,60.98,METAR KGEG 191053Z 16006KT 9SM SCT100 BKN140 16/14 A2981 RMK AO2 SLP073 T01610144,1219150800000.0,1219150800000.0_GEG
823,3744777,NCA,2008-07-05 21:56,-77.4397,34.7084,82.04,73.94,76.53,170.00,10.00,M,29.99,1015.60,10.00,17.00,SCT,   ,   ,M,2300.00,M,M,M,M,M,M,M,M,M,M,88.02,METAR KNCA 052156Z 17010G17KT 10SM SCT023 28/23 A2999 RMK AO2 SLP156 T02780233,1215302400000.0,1215302400000.0_NCA
824,1300025,SSF,2008-03-05 10:53,-98.4711,29.337,37.04,28.04,69.63,0.00,0.00,M,29.89,1012.20,10.00,M,CLR,   ,   ,M,M,M,M,M,M,M,M,M,M,M,M,37.04,METAR KSSF 051053Z AUTO 00000KT 10SM CLR 03/M02 A2989 RMK AO2 SLP122 T00281022 TSNO PNO $,1204725600000.0,1204725600000.0_SSF
825,3151533,DEH,2008-06-06 14:13,-91.7433,43.2755,72.00,65.00,78.62,190.00,16.00,M,29.53,M,10.00,25.00,M,M,M,M,M,M,M,M,M,M,M,M,M,M,M,72.00,M,1212771600000.0,1212771600000.0_DEH
826,5668550,FOD,2008-10-08 12:15,-94.2032,42.5497,37.40,33.80,M,M,M,M,29.93,M,10.00,-99.00,M,M,M,M,M,M,M,M,M,M,M,M,M,M,M,M,M,1223478000000.0,1223478000000.0_FOD
827,891521,LRJ,2008-02-13 23:47,-96.1923,42.7754,28.00,24.00,84.72,140.00,8.00,M,29.61,M,10.00,M,M,M,M,M,M,M,M,M,M,M,M,M,M,M,M,19.19,M,1202958000000.0,1202958000000.0_LRJ
828,2980320,SDA,2008-05-29 01:44,-95.4112,40.7533,63.00,57.00,80.76,90.00,4.00,M,30.18,M,10.00,M,M,M,M,M,M,M,M,M,M,M,M,M,M,M,M,63.00,M,1212033600000.0,1212033600000.0_SDA
829,5875523,IGX,2008-10-17 18:56,-79.0642,35.9333,57.92,51.98,80.55,20.00,7.00,M,30.03,1016.40,2.50,M,OVC,   ,   ,M,600.00,M,M,M,HZ,M,M,M,M,M,M,57.92,METAR KIGX 171856Z AUTO 02007KT 2 1/2SM HZ OVC006 14/11 A3003 RMK AO2 SLP164 T01440111,1224277200000.0,1224277200000.0_IGX
830,2099831,RBO,2008-04-13 22:05,-97.6905,27.7785,80.60,23.00,11.83,340.00,9.00,M,30.17,M,M,17.00,CLR,   ,   ,M,M,M,M,M,M,M,M,M,M,M,M,78.80,METAR KRBO 132205Z AUTO 34009G17KT CLR 27/M05 A3017 RMK AO2 PWINO,1208134800000.0,1208134800000.0_RBO
831,3408843,AQO,2008-06-19 06:45,-98.6619,30.7836,78.80,66.20,65.33,0.00,0.00,M,29.90,M,10.00,M,CLR,   ,   ,M,M,M,M,M,M,M,M,M,M,M,M,80.82,METAR KAQO 190645Z AUTO 00000KT 10SM CLR 26/19 A2990 RMK AO2 PWINO TSNO,1213866000000.0,1213866000000.0_AQO
832,6153351,PEA,2008-10-31 17:35,-92.9431,41.3989,71.60,55.40,56.63,0.00,0.00,M,30.27,M,10.00,M,CLR,   ,   ,M,M,M,M,M,M,M,M,M,M,M,M,71.60,METAR KPEA 311735Z AUTO 00000KT 10SM CLR 22/13 A3027 RMK AO2,1225486800000.0,1225486800000.0_PEA
833,4481080,EBS,2008-08-12 16:44,-93.8691,42.4392,66.00,62.00,M,M,M,M,29.90,M,10.00,M,M,M,M,M,M,M,M,M,M,M,M,M,M,M,M,M,M,1218567600000.0,1218567600000.0_EBS
834,4709822,BYY,2008-08-24 06:26,-95.8634,28.9733,77.00,73.40,88.67,270.00,3.00,M,29.94,M,10.00,M,SCT,   ,   ,M,1100.00,M,M,M,M,M,M,M,M,M,M,78.57,METAR KBYY 240626Z AUTO 27003KT 10SM SCT011 25/23 A2994 RMK AO2,1219568400000.0,1219568400000.0_BYY
835,6938373,RCZ,2008-12-08 19:41,-79.76,34.89,50.00,17.60,27.33,0.00,0.00,M,30.34,M,10.00,M,CLR,   ,   ,M,M,M,M,M,M,M,M,M,M,M,M,50.00,METAR KRCZ 081941Z AUTO 00000KT 10SM CLR 10/M08 A3034 RMK AO2,1228777200000.0,1228777200000.0_RCZ
836,5652817,HYI,2008-10-07 19:15,-97.863,29.8927,86.00,51.80,30.90,20.00,19.00,M,30.10,M,10.00,23.00,CLR,   ,   ,M,M,M,M,M,M,M,M,M,M,M,M,83.87,METAR KHYI 071915Z AUTO 02019G23KT 10SM CLR 30/11 A3010 RMK AO1,1223416800000.0,1223416800000.0_HYI
837,5086799,AXA,2008-09-11 10:15,-94.2724,43.0796,62.60,57.20,82.50,170.00,14.00,M,29.91,M,5.00,17.00,M,M,M,M,M,M,M,M,M,M,M,M,M,M,M,62.60,M,1221138000000.0,1221138000000.0_AXA
838,5545233,SEP,2008-10-02 22:24,-98.1777,32.2153,87.80,39.20,18.09,0.00,0.00,M,29.92,M,10.00,M,CLR,   ,   ,M,M,M,M,M,M,M,M,M,M,M,M,84.22,METAR KSEP 022224Z AUTO 00000KT 10SM CLR 31/04 A2992 RMK AO1,1222995600000.0,1222995600000.0_SEP
839,4468217,CDS,2008-08-11 23:53,-100.2881,34.4339,M,M,M,M,M,M,29.82,M,M,M,   ,   ,   ,M,M,M,M,M,M,M,M,M,M,M,M,M,METAR KCDS 112353Z AUTO A2982 RMK AO2 SLPNO 6//// 56013 PWINO FZRANO,1218506400000.0,1218506400000.0_CDS
840,1423370,GGG,2008-03-11 06:53,-94.7115,32.384,46.94,44.96,92.78,320.00,5.00,M,30.28,1025.50,1.50,M,CLR,   ,   ,M,M,M,M,M,BR,M,M,M,M,M,M,44.14,METAR KGGG 110653Z AUTO 32005KT 1 1/2SM BR CLR 08/07 A3028 RMK AO2 SLP255 T00830072,1205229600000.0,1205229600000.0_GGG
841,6814139,LBX,2008-12-03 00:53,-95.4621,29.1086,64.04,55.94,74.94,170.00,8.00,M,30.11,1019.60,10.00,M,OVC,   ,   ,M,3900.00,M,M,M,M,M,M,M,M,M,M,64.04,METAR KLBX 030053Z AUTO 17008KT 10SM OVC039 18/13 A3011 RMK AO2 SLP196 T01780133,1228276800000.0,1228276800000.0_LBX
842,2156228,GLE,2008-04-16 19:24,-97.1969,33.6514,68.00,55.40,64.04,170.00,18.00,M,29.92,M,10.00,29.00,OVC,   ,   ,M,3200.00,M,M,M,M,M,M,M,M,M,M,68.00,METAR KGLE 161924Z AUTO 17018G29KT 10SM OVC032 20/13 A2992 RMK AO2,1208383200000.0,1208383200000.0_GLE
843,1452815,SKF,2008-03-12 13:55,-98.5811,29.3842,47.48,42.80,83.71,310.00,2.00,M,30.15,1020.60,7.00,M,CLR,   ,   ,M,M,M,M,M,M,M,M,M,M,M,M,47.48,METAR KSKF 121355Z 31002KT 7SM CLR 09/06 A3015 RMK AO2A SLP206 T00860060 VISNO RWY33 CHINO RWY33 $,1205341200000.0,1205341200000.0_SKF
844,2983948,ILE,2008-05-29 06:15,-97.6865,31.0858,71.60,64.40,78.04,0.00,0.00,M,30.09,M,10.00,M,CLR,   ,   ,M,M,M,M,M,M,M,M,M,M,M,M,71.60,METAR KILE 290615Z AUTO 00000KT 10SM CLR 22/18 A3009 RMK AO1,1212051600000.0,1212051600000.0_ILE
845,6980721,POB,2008-12-10 17:55,-79.0145,35.1709,68.90,64.58,86.11,220.00,10.00,M,30.03,1017.10,10.00,17.00,OVC,   ,   ,M,1400.00,M,M,M,M,M,M,M,M,M,M,68.90,METAR KPOB 101755Z 22010G17KT 10SM OVC014 20/18 A3003 RMK AO2A SLP171 T02050181 10205 20167 58015 $,1228942800000.0,1228942800000.0_POB
846,3405626,COT,2008-06-19 02:53,-99.2183,28.4567,84.92,60.98,44.59,120.00,8.00,M,29.82,1008.90,10.00,M,CLR,   ,   ,M,M,M,M,M,M,M,M,M,M,M,M,85.13,METAR KCOT 190253Z AUTO 12008KT 10SM CLR 29/16 A2982 RMK AO2 SLP089 T02940161 53012,1213851600000.0,1213851600000.0_COT
847,4146349,DKK,2008-07-25 12:53,-79.27199999999999,42.4933,71.06,57.02,61.16,210.00,9.00,M,30.09,1018.50,10.00,M,CLR,   ,   ,   ,M,M,M,M,M,M,M,M,M,M,M,71.06,METAR KDKK 251253Z AUTO 21009KT 10SM CLR 22/14 A3009 RMK AO2 SLP185 T02170139,1216998000000.0,1216998000000.0_DKK
848,2754908,3T5,2008-05-17 15:45,-96.95,29.91,71.60,57.20,60.44,0.00,0.00,M,30.05,M,10.00,M,SCT,   ,   ,M,10000.00,M,M,M,M,M,M,M,M,M,M,71.60,METAR K3T5 171545Z AUTO 00000KT 10SM SCT100 22/14 A3005 RMK AO2,1211047200000.0,1211047200000.0_3T5
849,4013224,ELZ,2008-07-19 02:56,-77.99,42.11,66.92,62.06,84.38,0.00,0.00,M,30.10,1017.80,7.00,M,CLR,   ,   ,   ,M,M,M,M,M,M,M,M,M,M,M,66.92,METAR KELZ 190256Z AUTO 00000KT 7SM CLR 19/17 A3010 RMK AO2 SLP178 T01940167 53003,1216443600000.0,1216443600000.0_ELZ
850,1883583,IPJ,2008-04-02 13:01,-81.1612,35.4833,57.20,50.00,76.82,40.00,7.00,M,30.24,M,10.00,M,BKN,   ,   ,M,9500.00,M,M,M,M,M,M,M,M,M,M,57.20,METAR KIPJ 021301Z AUTO 04007KT 10SM BKN095 14/10 A3024 RMK AO1,1207152000000.0,1207152000000.0_IPJ
851,989059,CSQ,2008-02-18 20:58,-94.3608,41.0188,14.00,1.00,55.54,300.00,22.00,M,29.98,M,10.00,27.00,M,M,M,M,M,M,M,M,M,M,M,M,M,M,M,-5.52,M,1203379200000.0,1203379200000.0_CSQ
852,2341406,PEQ,2008-04-26 04:45,-103.51,31.38,62.60,17.60,17.32,0.00,0.00,M,29.99,M,10.00,M,CLR,   ,   ,M,M,M,M,M,M,M,M,M,M,M,M,62.60,METAR KPEQ 260445Z AUTO 00000KT 10SM CLR 17/M08 A2999 RMK AO2,1209193200000.0,1209193200000.0_PEQ
853,4763671,EOK,2008-08-26 20:13,-91.4274,40.4615,79.00,52.00,39.06,60.00,4.00,M,29.96,M,10.00,M,M,M,M,M,M,M,M,M,M,M,M,M,M,M,M,79.00,M,1219791600000.0,1219791600000.0_EOK
854,3850376,BLI,2008-07-11 04:53,-122.5375,48.7927,57.92,48.02,69.52,180.00,8.00,M,30.15,1021.60,10.00,M,CLR,   ,   ,M,M,M,M,M,M,M,M,M,M,M,M,57.92,METAR KBLI 110453Z 18008KT 10SM CLR 14/09 A3015 RMK AO2 SLP216 T01440089,1215759600000.0,1215759600000.0_BLI
855,7241825,OLZ,2008-12-23 04:43,-91.976,42.6831,6.00,0.00,75.78,140.00,13.00,M,30.21,M,10.00,M,M,M,M,M,M,M,M,M,M,M,M,M,M,M,M,-11.74,M,1230019200000.0,1230019200000.0_OLZ
856,5510389,PSN,2008-10-01 09:05,-95.7063,31.7797,62.60,48.20,59.26,30.00,4.00,M,30.09,M,10.00,M,CLR,   ,   ,M,M,M,M,M,M,M,M,M,M,M,M,62.60,METAR KPSN 010905Z AUTO 03004KT 10SM CLR 17/09 A3009 RMK AO2,1222862400000.0,1222862400000.0_PSN
857,3403654,HRJ,2008-06-19 00:40,-78.7336,35.3786,78.80,57.20,47.52,0.00,0.00,M,29.84,M,10.00,M,CLR,   ,   ,M,M,M,M,M,M,M,M,M,M,M,M,78.80,METAR KHRJ 190040Z AUTO 00000KT 10SM CLR 26/14 A2984 RMK AO2,1213844400000.0,1213844400000.0_HRJ
858,3732702,E38,2008-07-05 07:45,-103.684,30.384,64.40,60.80,88.09,170.00,5.00,M,30.12,M,10.00,M,CLR,   ,   ,M,M,M,M,M,M,M,M,M,M,M,M,64.40,METAR KE38 050745Z AUTO 17005KT 10SM CLR 18/16 A3012 RMK AO2,1215252000000.0,1215252000000.0_E38
859,226510,CKP,2008-01-12 07:03,-95.5538,42.7304,29.00,24.00,81.32,M,0.00,M,29.78,M,10.00,M,M,M,M,M,M,M,M,M,M,M,M,M,M,M,M,29.00,M,1200135600000.0,1200135600000.0_CKP
860,2852221,FQD,2008-05-22 15:24,-81.9351,35.4282,73.40,37.40,26.98,0.00,0.00,M,29.86,M,10.00,M,SCT,   ,   ,M,9000.00,M,M,M,M,M,M,M,M,M,M,71.71,METAR KFQD 221524Z AUTO 00000KT 10SM SCT090 23/03 A2986 RMK AO2,1211479200000.0,1211479200000.0_FQD
861,2203986,OOA,2008-04-19 04:28,-92.4919,41.2273,51.00,49.00,92.83,230.00,4.00,M,29.72,M,5.00,M,M,M,M,M,M,M,M,M,M,M,M,M,M,M,M,51.00,M,1208588400000.0,1208588400000.0_OOA
862,5200026,HNR,2008-09-16 22:33,-95.3355,41.5834,82.00,51.00,34.12,210.00,6.00,M,30.15,M,10.00,M,M,M,M,M,M,M,M,M,M,M,M,M,M,M,M,80.84,M,1221613200000.0,1221613200000.0_HNR
863,3174399,EHO,2008-06-07 15:40,-81.6011,35.2556,89.60,68.00,49.10,230.00,8.00,M,30.20,M,10.00,M,CLR,   ,   ,M,M,M,M,M,M,M,M,M,M,M,M,93.47,METAR KEHO 071540Z AUTO 23008KT 10SM CLR 32/20 A3020 RMK AO2,1212861600000.0,1212861600000.0_EHO
864,1882015,RDK,2008-04-02 11:15,-95.2624,41.0106,30.20,28.40,M,M,M,M,30.37,M,7.00,-99.00,M,M,M,M,M,M,M,M,M,M,M,M,M,M,M,M,M,1207144800000.0,1207144800000.0_RDK
865,2588446,LHZ,2008-05-09 02:21,-78.3303,36.0233,71.60,62.60,73.27,170.00,12.00,M,29.75,M,10.00,18.00,CLR,   ,   ,M,M,M,M,M,M,M,M,M,M,M,M,71.60,METAR KLHZ 090221Z AUTO 17012G18KT 10SM CLR 22/17 A2975 RMK AO2,1210309200000.0,1210309200000.0_LHZ
866,3199715,MRN,2008-06-09 03:20,-81.61,35.82,75.20,66.20,73.61,0.00,0.00,M,30.12,M,10.00,M,CLR,   ,   ,M,M,M,M,M,M,M,M,M,M,M,M,75.20,METAR KMRN 090320Z AUTO 00000KT 10SM CLR 24/19 A3012 RMK AO2,1212991200000.0,1212991200000.0_MRN
867,6628754,BPG,2008-11-24 02:45,-101.5216,32.2126,57.20,46.40,67.12,170.00,11.00,M,30.09,M,10.00,M,CLR,   ,   ,M,M,M,M,M,M,M,M,M,M,M,M,57.20,METAR KBPG 240245Z AUTO 17011KT 10SM CLR 14/08 A3009 RMK AO1,1227506400000.0,1227506400000.0_BPG
868,3839378,AMA,2008-07-10 15:53,-101.7059,35.2194,71.96,64.04,76.13,190.00,16.00,M,30.13,1015.90,10.00,23.00,BKN,OVC,   ,M,11000.00,15000.00,M,M,M,M,M,M,M,M,M,71.96,METAR KAMA 101553Z 19016G23KT 10SM BKN110 OVC150 22/18 A3013 RMK AO2 RAE1457 SLP159 P0000 T02220178 $,1215712800000.0,1215712800000.0_AMA
869,3560045,GGI,2008-06-26 18:00,-92.7332,41.7097,68.00,64.00,87.03,100.00,8.00,M,29.95,M,10.00,M,M,M,M,M,M,M,M,M,M,M,M,M,M,M,M,68.00,M,1214514000000.0,1214514000000.0_GGI
870,3633136,SAT,2008-06-30 07:53,-98.4698,29.5337,80.06,71.06,74.07,120.00,9.00,M,30.13,1018.30,10.00,M,FEW,SCT,BKN,M,2500.00,3900.00,4600.00,M,M,M,M,M,M,M,M,83.56,METAR KSAT 300753Z 12009KT 10SM FEW025 SCT039 BKN046 27/22 A3013 RMK AO2 SLP183 T02670217,1214820000000.0,1214820000000.0_SAT
871,4601523,ADU,2008-08-18 23:56,-94.9204,41.6994,81.00,63.00,M,M,M,M,30.02,M,10.00,M,M,M,M,M,M,M,M,M,M,M,M,M,M,M,M,M,M,1219111200000.0,1219111200000.0_ADU
872,1207563,SKA,2008-03-01 03:55,-117.6558,47.6151,41.72,34.16,74.33,170.00,11.00,M,29.70,1007.30,10.00,M,BKN,BKN,   ,M,10000.00,20000.00,M,M,M,M,M,M,M,M,M,34.75,METAR KSKA 010355Z 17011KT 10SM BKN100 BKN200 05/01 A2970 RMK AO2A SLP073 T00540012 $,1204354800000.0,1204354800000.0_SKA
873,6247900,ICL,2008-11-05 14:55,-95.0223,40.7242,62.60,50.00,63.38,170.00,14.00,M,29.63,M,10.00,20.00,M,M,M,M,M,M,M,M,M,M,M,M,M,M,M,62.60,M,1225908000000.0,1225908000000.0_ICL
874,2350143,RBO,2008-04-26 15:25,-97.6905,27.7785,73.40,62.60,68.94,100.00,13.00,M,29.98,M,10.00,M,CLR,   ,   ,M,M,M,M,M,M,M,M,M,M,M,M,73.40,METAR KRBO 261525Z AUTO 10013KT 10SM CLR 23/17 A2998 RMK AO2,1209232800000.0,1209232800000.0_RBO
875,4821009,CIN,2008-08-29 10:52,-94.7889,42.0444,51.00,49.00,M,M,M,M,30.03,M,10.00,M,M,M,M,M,M,M,M,M,M,M,M,M,M,M,M,M,M,1220014800000.0,1220014800000.0_CIN
876,662795,EAT,2008-02-02 17:55,-120.20700000000001,47.398999999999994,24.98,21.02,84.67,0.00,0.00,M,29.74,1008.50,10.00,M,BKN,OVC,   ,M,2000.00,6500.00,M,M,M,M,M,M,M,M,M,24.98,METAR KEAT 021755Z AUTO 00000KT 10SM BKN020 OVC065 M04/M06 A2974 RMK AO2 SLP085 T10391061 11033 21050 58016,1201986000000.0,1201986000000.0_EAT
877,1100695,ELP,2008-02-24 05:51,-106.3758,31.8111,57.02,15.98,19.70,360.00,7.00,M,30.21,1018.70,10.00,M,FEW,   ,   ,M,25000.00,M,M,M,M,M,M,M,M,M,M,57.02,METAR KELP 240551Z 36007KT 10SM FEW250 14/M09 A3021 RMK AO2 SLP187 T01391089 10194 20139 53025 $,1203843600000.0,1203843600000.0_ELP
878,3670636,UVA,2008-07-02 08:25,-99.7436,29.2113,69.80,68.00,94.01,60.00,4.00,M,29.99,M,10.00,M,CLR,   ,   ,M,M,M,M,M,M,M,M,M,M,M,M,69.80,METAR KUVA 020825Z AUTO 06004KT 10SM CLR 21/20 A2999 RMK AO2,1214996400000.0,1214996400000.0_UVA
879,1204482,PRO,2008-02-29 23:34,-94.1637,41.8278,37.00,32.00,81.93,270.00,12.00,M,30.17,M,10.00,M,M,M,M,M,M,M,M,M,M,M,M,M,M,M,M,28.37,M,1204340400000.0,1204340400000.0_PRO
880,5503452,IGX,2008-09-30 23:56,-79.0642,35.9333,68.00,62.96,83.91,0.00,0.00,M,29.82,1009.30,5.00,M,CLR,   ,   ,M,M,M,M,M,HZ,M,M,M,M,M,M,68.00,METAR KIGX 302356Z AUTO 00000KT 5SM HZ CLR 20/17 A2982 RMK AO2 SLP093 60000 T02000172 10278 20194 55002,1222826400000.0,1222826400000.0_IGX
881,1271793,RAS,2008-03-04 03:05,-97.09,27.81,55.40,33.80,43.90,340.00,24.00,M,30.15,M,10.00,31.00,CLR,   ,   ,M,M,M,M,M,M,M,M,M,M,M,M,55.40,METAR KRAS 040305Z AUTO 34024G31KT 10SM CLR 13/01 A3015 RMK AO2,1204614000000.0,1204614000000.0_RAS
882,3905620,NQI,2008-07-13 22:56,-97.8097,27.5072,89.96,73.94,59.42,120.00,16.00,M,29.91,1012.60,10.00,M,CLR,   ,   ,M,M,M,M,M,M,M,M,M,M,M,M,99.26,METAR KNQI 132256Z AUTO 12016KT 10SM CLR 32/23 A2991 RMK AO2 SLP126 T03220233,1215997200000.0,1215997200000.0_NQI
883,5201195,AQO,2008-09-16 23:45,-98.6619,30.7836,78.80,39.20,24.19,50.00,4.00,M,30.19,M,10.00,M,CLR,   ,   ,M,M,M,M,M,M,M,M,M,M,M,M,77.52,METAR KAQO 162345Z AUTO 05004KT 10SM CLR 26/04 A3019 RMK AO2,1221616800000.0,1221616800000.0_AQO
884,2801059,EXX,2008-05-19 23:40,-80.3038,35.7811,71.60,33.80,24.86,0.00,0.00,M,29.71,M,10.00,M,CLR,   ,   ,M,M,M,M,M,M,M,M,M,M,M,M,69.63,METAR KEXX 192340Z AUTO 00000KT 10SM CLR 22/01 A2971 RMK AO2,1211248800000.0,1211248800000.0_EXX
885,5930829,OXV,2008-10-20 07:13,-93.1114,41.2984,58.00,52.00,80.38,170.00,3.00,M,30.10,M,10.00,M,M,M,M,M,M,M,M,M,M,M,M,M,M,M,M,58.00,M,1224496800000.0,1224496800000.0_OXV
886,855527,ARM,2008-02-12 04:25,-96.1544,29.2543,64.40,59.00,82.62,130.00,15.00,M,29.94,M,10.00,M,CLR,   ,   ,M,M,M,M,M,M,M,M,M,M,M,M,64.40,METAR KARM 120425Z AUTO 13015KT 10SM CLR 18/15 A2994 RMK AO2 LTG DSNT E AND SE,1202803200000.0,1202803200000.0_ARM
887,5314279,IKV,2008-09-22 04:33,-93.5695,41.6878,64.00,63.00,96.55,150.00,3.00,M,30.21,M,5.50,M,M,M,M,M,M,M,M,M,M,M,M,M,M,M,M,64.00,M,1222066800000.0,1222066800000.0_IKV
888,2348617,EDE,2008-04-26 13:40,-76.5671,36.0277,69.80,60.80,73.09,240.00,4.00,M,30.08,M,10.00,M,CLR,   ,   ,M,M,M,M,M,M,M,M,M,M,M,M,69.80,METAR KEDE 261340Z AUTO 24004KT 10SM CLR 21/16 A3008 RMK AO2,1209225600000.0,1209225600000.0_EDE
889,2574576,AIO,2008-05-08 09:37,-95.0465,41.4059,42.00,35.00,76.03,360.00,5.00,M,29.82,M,10.00,M,M,M,M,M,M,M,M,M,M,M,M,M,M,M,M,38.27,M,1210248000000.0,1210248000000.0_AIO
890,2108375,CWI,2008-04-14 08:55,-90.3328,41.8295,28.40,23.00,79.92,40.00,3.00,M,30.26,M,10.00,-99.00,M,M,M,M,M,M,M,M,M,M,M,M,M,M,M,24.57,M,1208170800000.0,1208170800000.0_CWI
891,3638754,EBG,2008-06-30 16:25,-98.1222,26.4417,89.60,68.00,49.10,140.00,8.00,M,30.08,M,5.00,16.00,SCT,SCT,SCT,M,4000.00,4600.00,6500.00,M,HZ,M,M,M,M,M,M,93.47,METAR KEBG 301625Z AUTO 14008G16KT 100V160 5SM HZ SCT040 SCT046 SCT065 32/20 A3008 RMK AO2,1214852400000.0,1214852400000.0_EBG
892,2200534,PVW,2008-04-19 00:25,-101.7173,34.1681,69.80,17.60,13.49,290.00,7.00,M,29.97,M,10.00,M,CLR,   ,   ,M,M,M,M,M,M,M,M,M,M,M,M,69.80,METAR KPVW 190025Z AUTO 29007KT 10SM CLR 21/M08 A2997 RMK AO2,1208574000000.0,1208574000000.0_PVW
893,5599286,IFA,2008-10-05 08:33,-93.2651,42.4691,53.00,44.00,71.39,150.00,9.00,M,30.09,M,10.00,14.00,M,M,M,M,M,M,M,M,M,M,M,M,M,M,M,53.00,M,1223204400000.0,1223204400000.0_IFA
894,5960036,EOK,2008-10-21 15:15,-91.4274,40.4615,50.00,41.00,71.07,90.00,8.00,M,30.40,M,10.00,-99.00,M,M,M,M,M,M,M,M,M,M,M,M,M,M,M,46.29,M,1224612000000.0,1224612000000.0_EOK
895,2989436,CBF,2008-05-29 12:55,-95.7604,41.2611,64.40,60.80,88.09,180.00,9.00,M,30.07,M,4.00,-99.00,M,M,M,M,M,M,M,M,M,M,M,M,M,M,M,64.40,M,1212073200000.0,1212073200000.0_CBF
896,6703868,GDJ,2008-11-27 12:45,-97.8169,32.4444,41.00,35.60,80.93,0.00,0.00,M,30.07,M,10.00,M,CLR,   ,   ,M,M,M,M,M,M,M,M,M,M,M,M,41.00,METAR KGDJ 271245Z AUTO 00000KT 10SM CLR 05/02 A3007 RMK AO2,1227801600000.0,1227801600000.0_GDJ
897,1770001,LUD,2008-03-27 14:08,-97.5805,33.2542,66.20,57.20,72.74,190.00,15.00,M,29.78,M,10.00,20.00,CLR,   ,   ,M,M,M,M,M,M,M,M,M,M,M,M,66.20,METAR KLUD 271408Z AUTO 19015G20KT 10SM CLR 19/14 A2978 RMK AO2,1206640800000.0,1206640800000.0_LUD
898,3564423,TNU,2008-06-26 23:18,-93.01899999999999,41.6701,72.00,66.00,81.41,240.00,6.00,M,29.82,M,10.00,M,M,M,M,M,M,M,M,M,M,M,M,M,M,M,M,72.00,M,1214532000000.0,1214532000000.0_TNU
899,657993,HRJ,2008-02-02 12:45,-78.7336,35.3786,33.80,30.20,86.49,0.00,0.00,M,30.29,M,7.00,M,CLR,   ,   ,M,M,M,M,M,M,M,M,M,M,M,M,33.80,METAR KHRJ 021245Z AUTO 00000KT 7SM CLR 01/M01 A3029 RMK AO2,1201968000000.0,1201968000000.0_HRJ
900,6962640,CLM,2008-12-09 21:53,-123.5,48.12,44.06,39.92,85.25,0.00,0.00,M,30.24,1024.30,9.00,M,SCT,BKN,OVC,M,1000.00,1400.00,1900.00,M,M,M,M,M,M,M,M,44.06,METAR KCLM 092153Z AUTO 00000KT 9SM SCT010 BKN014 OVC019 07/04 A3024 RMK AO2 SLP243 T00670044,1228870800000.0,1228870800000.0_CLM
901,7327451,RZZ,2008-12-27 07:54,-77.71,36.44,44.06,41.00,88.90,0.00,0.00,M,30.43,1030.50,6.00,M,OVC,   ,   ,M,200.00,M,M,M,BR,M,M,M,M,M,M,44.06,METAR KRZZ 270754Z AUTO 00000KT 6SM BR OVC002 07/05 A3043 RMK AO2 SLP305 T00670050,1230375600000.0,1230375600000.0_RZZ
902,4389740,OXV,2008-08-07 20:45,-93.1114,41.2984,83.00,62.00,49.17,30.00,6.00,M,30.08,M,10.00,M,M,M,M,M,M,M,M,M,M,M,M,M,M,M,M,83.75,M,1218150000000.0,1218150000000.0_OXV
903,7262605,GGI,2008-12-24 04:55,-92.7332,41.7097,32.00,32.00,100.00,210.00,5.00,M,29.75,M,2.00,-99.00,M,M,M,M,M,M,M,M,M,M,M,M,M,M,M,26.40,M,1230105600000.0,1230105600000.0_GGI
904,1750474,HNR,2008-03-26 13:26,-95.3355,41.5834,36.00,32.00,85.23,M,0.00,M,30.14,M,10.00,M,M,M,M,M,M,M,M,M,M,M,M,M,M,M,M,36.00,M,1206550800000.0,1206550800000.0_HNR
905,2236253,DNS,2008-04-20 19:58,-95.38,41.9842,66.00,52.00,60.60,120.00,19.00,M,29.80,M,10.00,28.00,M,M,M,M,M,M,M,M,M,M,M,M,M,M,M,66.00,M,1208728800000.0,1208728800000.0_DNS
906,2338617,DEH,2008-04-26 01:18,-91.7433,43.2755,43.00,35.00,73.16,250.00,9.00,M,29.65,M,10.00,21.00,M,M,M,M,M,M,M,M,M,M,M,M,M,M,M,37.19,M,1209182400000.0,1209182400000.0_DEH
907,5546907,T82,2008-10-03 00:05,-98.9092,30.2432,80.60,44.60,28.08,190.00,5.00,M,29.94,M,10.00,M,CLR,   ,   ,M,M,M,M,M,M,M,M,M,M,M,M,79.42,METAR KT82 030005Z AUTO 19005KT 10SM CLR 27/07 A2994 RMK AO1,1223002800000.0,1223002800000.0_T82
908,2869013,GGI,2008-05-23 11:56,-92.7332,41.7097,52.00,47.00,82.99,90.00,11.00,M,30.00,M,10.00,21.00,M,M,M,M,M,M,M,M,M,M,M,M,M,M,M,52.00,M,1211551200000.0,1211551200000.0_GGI
909,2911065,HRJ,2008-05-25 14:41,-78.7336,35.3786,73.40,59.00,60.67,0.00,0.00,M,30.15,M,10.00,M,CLR,   ,   ,M,M,M,M,M,M,M,M,M,M,M,M,73.40,METAR KHRJ 251441Z AUTO 00000KT 10SM CLR 23/15 A3015 RMK AO2,1211734800000.0,1211734800000.0_HRJ
910,5338992,UVA,2008-09-23 07:26,-99.7436,29.2113,75.20,69.80,83.32,140.00,6.00,M,30.13,M,10.00,M,SCT,   ,   ,M,7500.00,M,M,M,M,M,M,M,M,M,M,76.34,METAR KUVA 230726Z AUTO 14006KT 10SM SCT075 24/21 A3013 RMK AO2,1222164000000.0,1222164000000.0_UVA
911,2714188,FAY,2008-05-15 12:53,-78.8803,34.9912,64.04,57.02,77.92,220.00,6.00,M,30.06,1017.40,10.00,M,FEW,SCT,   ,M,8500.00,11000.00,M,M,M,M,M,M,M,M,M,64.04,METAR KFAY 151253Z AUTO 22006KT 10SM FEW085 SCT110 18/14 A3006 RMK AO2 RAB33E45 SLP174 P0000 T01780139,1210863600000.0,1210863600000.0_FAY
912,3302835,VTI,2008-06-14 06:55,-92.0248,42.2176,59.00,50.00,72.01,180.00,6.00,M,29.95,M,10.00,-99.00,M,M,M,M,M,M,M,M,M,M,M,M,M,M,M,59.00,M,1213434000000.0,1213434000000.0_VTI
913,4256606,E38,2008-07-31 14:45,-103.684,30.384,73.40,59.00,60.67,250.00,3.00,M,30.06,M,10.00,M,CLR,   ,   ,M,M,M,M,M,M,M,M,M,M,M,M,73.40,METAR KE38 311445Z AUTO 25003KT 10SM CLR 23/15 A3006 RMK AO2,1217523600000.0,1217523600000.0_E38
914,2986725,RHP,2008-05-29 09:41,-83.863,35.1952,64.40,62.60,93.88,250.00,3.00,M,30.19,M,10.00,M,SCT,OVC,   ,M,1800.00,4200.00,M,M,M,M,M,M,M,M,M,64.40,METAR KRHP 290941Z AUTO 25003KT 10SM SCT018 OVC042 18/17 A3019 RMK AO2,1212062400000.0,1212062400000.0_RHP
915,4010338,CKP,2008-07-18 23:53,-95.5538,42.7304,83.00,69.00,62.74,70.00,6.00,M,29.92,M,10.00,M,M,M,M,M,M,M,M,M,M,M,M,M,M,M,M,86.55,M,1216432800000.0,1216432800000.0_CKP
916,1882378,EBG,2008-04-02 11:45,-98.1222,26.4417,71.60,68.00,88.43,70.00,3.00,M,30.02,M,5.00,M,OVC,   ,   ,M,3100.00,M,M,M,BR,M,M,M,M,M,M,72.62,METAR KEBG 021145Z AUTO 07003KT 5SM BR OVC031 22/20 A3002 RMK AO2,1207144800000.0,1207144800000.0_EBG
917,3993468,DNS,2008-07-18 05:01,-95.38,41.9842,71.00,67.00,87.19,120.00,3.00,M,30.02,M,10.00,M,M,M,M,M,M,M,M,M,M,M,M,M,M,M,M,71.00,M,1216368000000.0,1216368000000.0_DNS
918,150605,BWD,2008-01-08 17:04,-98.9565,31.7936,60.80,33.80,36.16,350.00,16.00,M,30.16,M,10.00,M,CLR,   ,   ,M,M,M,M,M,M,M,M,M,M,M,M,60.80,METAR KBWD 081704Z AUTO 35016KT 10SM CLR 16/01 A3016 RMK,1199826000000.0,1199826000000.0_BWD
919,6994578,GGI,2008-12-11 08:45,-92.7332,41.7097,22.00,17.00,80.77,0.00,0.00,M,30.06,M,10.00,M,M,M,M,M,M,M,M,M,M,M,M,M,M,M,M,22.00,M,1228996800000.0,1228996800000.0_GGI
920,5942200,ILE,2008-10-20 19:55,-97.6865,31.0858,80.60,55.40,41.97,190.00,3.00,M,30.15,M,10.00,M,CLR,   ,   ,M,M,M,M,M,M,M,M,M,M,M,M,80.53,METAR KILE 201955Z AUTO 19003KT 10SM CLR 27/13 A3015 RMK AO1,1224540000000.0,1224540000000.0_ILE
921,5379859,LRJ,2008-09-25 05:35,-96.1923,42.7754,M,M,M,160.00,5.00,M,30.26,M,7.00,-99.00,M,M,M,M,M,M,M,M,M,M,M,M,M,M,M,M,M,1222329600000.0,1222329600000.0_LRJ
922,4981168,HNZ,2008-09-05 22:20,-78.53,36.36,77.00,73.40,88.67,40.00,6.00,M,29.90,M,10.00,M,OVC,   ,   ,M,2100.00,M,M,M,M,M,M,M,M,M,M,78.57,METAR KHNZ 052220Z AUTO 04006KT 10SM OVC021 25/23 A2990 RMK AO2,1220662800000.0,1220662800000.0_HNZ
923,2730831,11R,2008-05-16 08:46,-96.3742,30.2189,62.60,55.40,77.29,340.00,6.00,M,30.00,M,10.00,M,CLR,   ,   ,M,M,M,M,M,M,M,M,M,M,M,M,62.60,METAR K11R 160846Z AUTO 34006KT 10SM CLR 17/13 A3000 RMK AO2,1210935600000.0,1210935600000.0_11R
924,3640730,ORG,2008-06-30 19:25,-93.8036,30.0692,87.80,73.40,62.47,320.00,5.00,M,30.08,M,10.00,M,SCT,   ,   ,M,6500.00,M,M,M,M,M,M,M,M,M,M,95.86,METAR KORG 301925Z AUTO 32005KT 10SM SCT065 31/23 A3008 RMK AO2,1214863200000.0,1214863200000.0_ORG
925,2649521,LRD,2008-05-12 05:56,-99.4615,27.5438,79.88,48.92,33.84,150.00,7.00,M,29.99,1014.40,10.00,M,OVC,   ,   ,M,4000.00,M,M,M,M,M,M,M,M,M,M,79.88,METAR KLRD 120556Z AUTO 15007KT 10SM OVC040 27/09 A2999 RMK AO2 50000 T02660094 10294 20266 403160266 SLP144,1210579200000.0,1210579200000.0_LRD
926,1595092,LBR,2008-03-18 23:41,-95.0636,33.5932,57.20,55.40,93.69,320.00,11.00,0.34,29.55,M,1.75,19.00,BKN,OVC,   ,M,900.00,1300.00,M,M,M,M,M,M,M,M,M,57.20,METAR KLBR 182341Z AUTO 32011G19KT 1 3/4SM BKN009 OVC013 14/13 A2955 RMK AO1 VIS 1V5 P0034,1205895600000.0,1205895600000.0_LBR
927,1518228,IKV,2008-03-15 12:22,-93.5695,41.6878,30.00,27.00,88.44,360.00,9.00,M,29.91,M,10.00,M,M,M,M,M,M,M,M,M,M,M,M,M,M,M,M,21.03,M,1205596800000.0,1205596800000.0_IKV
928,827334,ISP,2008-02-10 18:56,-73.1017,40.7939,42.98,8.06,23.39,280.00,19.00,M,29.56,1001.10,10.00,28.00,SCT,BKN,   ,   ,6500.00,8000.00,M,M,M,M,M,M,31.00,270.00,2008-02-10 18:44,33.96,METAR KISP 101856Z 28019G28KT 10SM SCT065 BKN080 06/M13 A2956 RMK AO2 PK WND 27031/1844 SLP011 T00611133,1202680800000.0,1202680800000.0_ISP
929,6500835,MRF,2008-11-18 06:15,-104.02,30.37,35.60,19.40,51.33,360.00,6.00,M,30.45,M,10.00,M,CLR,   ,   ,M,M,M,M,M,M,M,M,M,M,M,M,29.87,METAR KMRF 180615Z AUTO 36006KT 10SM CLR 02/M07 A3045 RMK AO1,1227002400000.0,1227002400000.0_MRF
930,2906672,PVW,2008-05-25 09:25,-101.7173,34.1681,69.80,62.60,77.90,160.00,11.00,M,29.93,M,10.00,M,CLR,   ,   ,M,M,M,M,M,M,M,M,M,M,M,M,69.80,METAR KPVW 250925Z AUTO 16011KT 10SM CLR 21/17 A2993 RMK AO2,1211716800000.0,1211716800000.0_PVW
931,2113705,DKR,2008-04-14 15:25,-95.4038,31.307,53.60,35.60,50.36,20.00,4.00,M,30.40,M,10.00,M,CLR,   ,   ,M,M,M,M,M,M,M,M,M,M,M,M,53.60,METAR KDKR 141525Z AUTO 02004KT 10SM CLR 12/02 A3040 RMK AO2,1208196000000.0,1208196000000.0_DKR
932,137964,POB,2008-01-08 00:55,-79.0145,35.1709,53.24,50.00,88.72,0.00,0.00,M,30.35,1027.80,10.00,M,CLR,   ,   ,M,M,M,M,M,M,M,M,M,M,M,M,53.24,METAR KPOB 080055Z AUTO 00000KT 10SM CLR 12/10 A3035 RMK AO2 SLP278 T01180100 CHINO RWY05 $,1199764800000.0,1199764800000.0_POB
933,7395341,SHL,2008-12-30 11:23,-95.8353,43.2082,25.00,17.00,71.22,150.00,15.00,M,29.73,M,10.00,21.00,M,M,M,M,M,M,M,M,M,M,M,M,M,M,M,11.71,M,1230649200000.0,1230649200000.0_SHL
934,5644211,VTI,2008-10-07 09:53,-92.0248,42.2176,59.00,57.00,93.07,70.00,5.00,0.01,30.03,M,5.00,M,M,M,M,M,M,M,M,M,M,M,M,M,M,M,M,59.00,M,1223380800000.0,1223380800000.0_VTI
935,3101794,RWV,2008-06-04 06:45,-96.7041,30.5155,75.20,71.60,88.59,160.00,17.00,M,29.78,M,10.00,24.00,CLR,   ,   ,M,M,M,M,M,M,M,M,M,M,M,M,76.58,METAR KRWV 040645Z AUTO 16017G24KT 10SM CLR 24/22 A2978 RMK AO2,1212570000000.0,1212570000000.0_RWV
936,4662549,CIN,2008-08-21 23:55,-94.7889,42.0444,73.40,69.80,88.51,140.00,5.00,M,29.84,M,10.00,-99.00,M,M,M,M,M,M,M,M,M,M,M,M,M,M,M,74.60,M,1219370400000.0,1219370400000.0_CIN
937,239629,HWV,2008-01-12 21:56,-72.8689,40.8217,44.96,28.94,53.17,340.00,4.00,M,30.06,1017.80,10.00,M,CLR,   ,   ,   ,M,M,M,M,M,M,M,M,M,M,M,42.55,METAR KHWV 122156Z AUTO 34004KT 10SM CLR 07/M02 A3006 RMK AO2 SLP178 T00721017 TSNO,1200186000000.0,1200186000000.0_HWV
938,1357654,FOK,2008-03-08 05:53,-72.6318,40.8436,51.98,50.00,92.93,280.00,9.00,0.01,29.70,1005.90,0.75,20.00,OVC,   ,   ,   ,100.00,M,M,M,BR,M,M,M,M,M,M,51.98,METAR KFOK 080553Z AUTO 28009G20KT 3/4SM BR OVC001 11/10 A2970 RMK AO2 PK WND 16027/0512 RAB0459E12B30E46 PRESRR SLP059 P0001 60065 T01110100 10117 20050 55036 TSNO,1204966800000.0,1204966800000.0_FOK
939,2330904,T82,2008-04-25 15:49,-98.9092,30.2432,69.80,66.20,88.34,230.00,8.00,M,29.95,M,7.00,M,OVC,   ,   ,M,900.00,M,M,M,M,M,M,M,M,M,M,69.80,METAR KT82 251549Z AUTO 23008KT 7SM OVC009 21/19 A2995 RMK AO1,1209146400000.0,1209146400000.0_T82
940,6079658,GTB,2008-10-27 17:55,-75.7195,44.0556,49.64,32.72,51.96,230.00,12.00,M,29.94,1014.30,10.00,16.00,CLR,   ,   ,   ,M,M,M,M,M,M,M,M,M,M,M,44.45,METAR KGTB 271755Z AUTO 23012G16KT 10SM CLR 10/00 A2994 RMK AO2 SLP143 60000 T00980004 10102 20058 52009,1225141200000.0,1225141200000.0_GTB
941,3682789,MUT,2008-07-02 22:17,-91.1406,41.367,84.00,72.00,67.28,220.00,9.00,M,29.76,M,10.00,M,M,M,M,M,M,M,M,M,M,M,M,M,M,M,M,89.62,M,1215046800000.0,1215046800000.0_MUT
942,7215335,AIO,2008-12-21 21:35,-95.0465,41.4059,-0.40,-9.40,64.88,290.00,14.00,M,30.43,M,5.00,21.00,M,M,M,M,M,M,M,M,M,M,M,M,M,M,M,-20.60,M,1229907600000.0,1229907600000.0_AIO
943,1910903,FOK,2008-04-03 22:53,-72.6318,40.8436,41.00,24.08,50.63,210.00,7.00,M,30.45,1031.10,10.00,M,CLR,   ,   ,   ,M,M,M,M,M,M,M,M,M,M,M,35.75,METAR KFOK 032253Z 21007KT 10SM CLR 05/M04 A3045 RMK AO2 SLP311 T00501044,1207270800000.0,1207270800000.0_FOK
944,7282109,1A5,2008-12-25 03:40,-83.42,35.22,53.60,48.20,81.87,260.00,4.00,0.02,30.21,M,10.00,M,BKN,BKN,OVC,M,1800.00,7000.00,9000.00,M,-RA,M,M,M,M,M,M,53.60,METAR K1A5 250340Z AUTO 26004KT 10SM -RA BKN018 BKN070 OVC090 12/09 A3021 RMK AO2 P0002,1230188400000.0,1230188400000.0_1A5
945,7137184,BEA,2008-12-18 02:05,-97.791,28.3619,57.20,53.60,87.74,20.00,5.00,M,30.12,M,7.00,M,OVC,   ,   ,M,1600.00,M,M,M,M,M,M,M,M,M,M,57.20,METAR KBEA 180205Z AUTO 02005KT 7SM OVC016 14/12 A3012 RMK AO2,1229580000000.0,1229580000000.0_BEA
946,3764639,DPL,2008-07-06 21:40,-77.98,35.0,87.80,71.60,58.78,150.00,6.00,M,30.00,M,10.00,M,SCT,SCT,   ,M,5000.00,7000.00,M,M,M,M,M,M,M,M,M,94.18,METAR KDPL 062140Z AUTO 15006KT 10SM SCT050 SCT070 31/22 A3000 RMK AO2,1215388800000.0,1215388800000.0_DPL
947,4804362,ORC,2008-08-28 17:15,-96.0606,42.9895,77.00,64.40,65.12,310.00,7.00,M,29.87,M,10.00,-99.00,M,M,M,M,M,M,M,M,M,M,M,M,M,M,M,77.00,M,1219953600000.0,1219953600000.0_ORC
948,6858303,INT,2008-12-05 04:54,-80.222,36.1337,44.96,30.92,57.63,330.00,11.00,M,30.22,1023.50,10.00,M,FEW,OVC,   ,M,6000.00,8000.00,M,M,M,M,M,M,M,M,M,38.84,METAR KINT 050454Z AUTO 33011KT 10SM FEW060 OVC080 07/M01 A3022 RMK AO2 SLP235 T00721006 401280017,1228464000000.0,1228464000000.0_INT
949,2558337,OAJ,2008-05-07 13:15,-77.6121,34.8292,69.80,60.80,73.09,250.00,6.00,M,30.10,M,10.00,M,CLR,   ,   ,M,M,M,M,M,M,M,M,M,M,M,M,69.80,METAR KOAJ 071315Z AUTO 25006KT 10SM CLR 21/16 A3010 RMK AO1,1210176000000.0,1210176000000.0_OAJ
950,4373019,DEH,2008-08-06 23:45,-91.7433,43.2755,80.00,63.00,56.16,330.00,4.00,M,30.06,M,10.00,M,M,M,M,M,M,M,M,M,M,M,M,M,M,M,M,81.41,M,1218074400000.0,1218074400000.0_DEH
951,3355999,GYI,2008-06-16 19:25,-96.6737,33.7141,87.80,69.80,55.29,70.00,10.00,M,29.93,M,10.00,18.00,BKN,BKN,   ,M,5500.00,7000.00,M,M,M,M,M,M,M,M,M,92.71,METAR KGYI 161925Z AUTO 07010G18KT 10SM BKN055 BKN070 31/21 A2993 RMK AO2,1213653600000.0,1213653600000.0_GYI
952,4870938,CPT,2008-08-31 21:45,-97.4338,32.3537,91.40,69.80,49.36,110.00,9.00,M,29.90,M,10.00,15.00,FEW,   ,   ,M,4900.00,M,M,M,M,M,M,M,M,M,M,96.99,METAR KCPT 312145Z AUTO 11009G15KT 10SM FEW049 33/21 A2990 RMK AO2,1220227200000.0,1220227200000.0_CPT
953,2446600,SVH,2008-05-01 19:25,-80.9539,35.765,75.20,42.80,31.34,210.00,9.00,M,30.06,M,10.00,19.00,CLR,   ,   ,M,M,M,M,M,M,M,M,M,M,M,M,73.89,METAR KSVH 011925Z AUTO 21009G19KT 10SM CLR 24/06 A3006 RMK AO2,1209679200000.0,1209679200000.0_SVH
954,1442462,INT,2008-03-12 02:54,-80.222,36.1337,53.06,32.00,44.48,0.00,0.00,M,29.91,1012.70,10.00,M,CLR,   ,   ,M,M,M,M,M,M,M,M,M,M,M,M,53.06,METAR KINT 120254Z AUTO 00000KT 10SM CLR 12/00 A2991 RMK AO2 SLP127 T01170000 58005,1205301600000.0,1205301600000.0_INT
955,5536419,FZY,2008-10-02 12:54,-76.3847,43.3497,48.02,44.96,89.08,250.00,4.00,0.01,29.61,1002.70,8.00,M,BKN,BKN,OVC,   ,800.00,1500.00,2200.00,M,-RA,M,M,M,M,M,M,46.13,METAR KFZY 021254Z AUTO 25004KT 8SM -RA BKN008 BKN015 OVC022 09/07 A2961 RMK AO2 CIG 005V010 SLP027 P0001 T00890072,1222959600000.0,1222959600000.0_FZY
956,2732295,GNC,2008-05-16 10:25,-102.6527,32.6753,57.20,51.80,82.12,350.00,11.00,M,30.23,M,10.00,M,SCT,SCT,OVC,M,4600.00,5500.00,6500.00,M,M,M,M,M,M,M,M,57.20,METAR KGNC 161025Z AUTO 35011KT 10SM SCT046 SCT055 OVC065 14/11 A3023 RMK AO2,1210942800000.0,1210942800000.0_GNC
957,5201685,TNU,2008-09-17 00:13,-93.01899999999999,41.6701,69.00,62.00,78.38,190.00,4.00,M,30.14,M,10.00,M,M,M,M,M,M,M,M,M,M,M,M,M,M,M,M,69.00,M,1221620400000.0,1221620400000.0_TNU
958,2502467,BUY,2008-05-04 15:54,-79.4749,36.0485,73.04,51.98,47.59,M,4.00,M,30.01,1015.80,10.00,M,CLR,   ,   ,M,M,M,M,M,M,M,M,M,M,M,M,73.04,METAR KBUY 041554Z AUTO VRB04KT 10SM CLR 23/11 A3001 RMK AO2 SLP158 T02280111,1209924000000.0,1209924000000.0_BUY
959,1050691,JAS,2008-02-21 21:48,-94.0349,30.8857,73.40,69.80,88.51,0.00,0.00,0.01,29.77,M,7.00,M,CLR,   ,   ,M,M,M,M,M,M,M,M,M,M,M,M,74.60,METAR KJAS 212148Z AUTO 00000KT 7SM CLR 23/21 A2977 RMK AO2 P0001,1203642000000.0,1203642000000.0_JAS
960,5930310,CCY,2008-10-20 06:35,-92.6132,43.073,55.40,51.80,87.65,10.00,6.00,M,30.11,M,10.00,-99.00,M,M,M,M,M,M,M,M,M,M,M,M,M,M,M,55.40,M,1224493200000.0,1224493200000.0_CCY
961,2234531,INT,2008-04-20 17:54,-80.222,36.1337,62.06,42.98,49.55,290.00,12.00,M,29.89,1011.80,10.00,18.00,SCT,SCT,   ,M,3100.00,4200.00,M,M,M,M,M,M,M,M,M,62.06,METAR KINT 201754Z 29012G18KT 10SM SCT031 SCT042 17/06 A2989 RMK AO2 LTG DSNT ALQDS TSB23E45 SLP118 T01670061 10178 20100 56005,1208721600000.0,1208721600000.0_INT
962,3824189,TKI,2008-07-09 21:53,-96.59,33.18,93.02,68.00,44.12,120.00,6.00,M,29.99,1014.70,10.00,M,CLR,   ,   ,M,M,M,M,M,M,M,M,M,M,M,M,97.45,METAR KTKI 092153Z 12006KT 10SM CLR 34/20 A2999 RMK AO2 SLP147 T03390200,1215648000000.0,1215648000000.0_TKI
963,3742731,AXA,2008-07-05 19:37,-94.2724,43.0796,83.00,64.00,52.76,160.00,18.00,M,29.91,M,10.00,22.00,M,M,M,M,M,M,M,M,M,M,M,M,M,M,M,84.41,M,1215295200000.0,1215295200000.0_AXA
964,2413253,AVL,2008-04-29 20:54,-82.5375,35.4319,53.06,26.96,36.22,340.00,14.00,M,30.02,1016.20,10.00,19.00,CLR,   ,   ,M,M,M,M,M,M,M,M,M,M,M,M,53.06,METAR KAVL 292054Z 34014G19KT 10SM CLR 12/M03 A3002 RMK AO2 SLP162 T01171028 56011,1209510000000.0,1209510000000.0_AVL
965,5711582,CKP,2008-10-10 09:55,-95.5538,42.7304,53.60,32.00,M,M,M,M,29.98,M,10.00,-99.00,M,M,M,M,M,M,M,M,M,M,M,M,M,M,M,M,M,1223640000000.0,1223640000000.0_CKP
966,7296550,IKV,2008-12-25 20:13,-93.5695,41.6878,27.00,15.00,60.10,160.00,17.00,M,30.07,M,10.00,23.00,M,M,M,M,M,M,M,M,M,M,M,M,M,M,M,13.52,M,1230249600000.0,1230249600000.0_IKV
967,1136832,SUT,2008-02-25 21:40,-78.0747,33.9292,55.40,44.60,66.91,190.00,8.00,M,29.98,M,10.00,M,CLR,   ,   ,M,M,M,M,M,M,M,M,M,M,M,M,55.40,METAR KSUT 252140Z AUTO 19008KT 10SM CLR 13/07 A2998 RMK AO2,1203987600000.0,1203987600000.0_SUT
968,4608600,AWO,2008-08-19 08:15,-122.15899999999999,48.1608,60.80,57.20,87.92,200.00,5.00,M,29.83,M,10.00,M,BKN,OVC,   ,M,1700.00,2600.00,M,M,M,M,M,M,M,M,M,60.80,METAR KAWO 190815Z AUTO 20005KT 10SM BKN017 OVC026 16/14 A2983 RMK AO1,1219143600000.0,1219143600000.0_AWO
969,6234298,SLR,2008-11-04 22:28,-95.62,33.16,75.20,46.40,35.94,150.00,10.00,M,30.02,M,10.00,15.00,CLR,   ,   ,M,M,M,M,M,M,M,M,M,M,M,M,74.11,METAR KSLR 042228Z AUTO 15010G15KT 10SM CLR 24/08 A3002 RMK AO2,1225850400000.0,1225850400000.0_SLR
970,4224233,DPL,2008-07-29 19:41,-77.98,35.0,91.40,69.80,49.36,200.00,4.00,M,29.92,M,10.00,M,CLR,   ,   ,M,M,M,M,M,M,M,M,M,M,M,M,96.99,METAR KDPL 291941Z AUTO 20004KT 10SM CLR 33/21 A2992 RMK AO2,1217368800000.0,1217368800000.0_DPL
971,3105402,CIN,2008-06-04 10:32,-94.7889,42.0444,65.00,62.00,90.01,120.00,4.00,M,29.58,M,2.00,M,M,M,M,M,M,M,M,M,M,M,M,M,M,M,M,65.00,M,1212584400000.0,1212584400000.0_CIN
972,2214410,PRO,2008-04-19 16:58,-94.1637,41.8278,46.00,46.00,100.00,320.00,12.00,M,29.93,M,10.00,M,M,M,M,M,M,M,M,M,M,M,M,M,M,M,M,39.82,M,1208631600000.0,1208631600000.0_PRO
973,5095888,SHL,2008-09-11 22:15,-95.8353,43.2082,72.00,66.00,81.41,290.00,12.00,M,29.95,M,10.00,16.00,M,M,M,M,M,M,M,M,M,M,M,M,M,M,M,72.00,M,1221181200000.0,1221181200000.0_SHL
974,321662,HHF,2008-01-16 22:07,-100.404,35.895,30.20,21.20,68.83,360.00,20.00,M,30.02,M,7.00,24.00,BKN,OVC,   ,M,2000.00,2800.00,M,M,-SN,M,M,M,M,M,M,16.75,METAR KHHF 162207Z AUTO 36020G24KT 7SM -SN BKN020 OVC028 M01/M06 A3002 RMK AO2,1200535200000.0,1200535200000.0_HHF
975,4817156,FWS,2008-08-29 06:45,-97.3033,32.573,77.00,68.00,73.78,140.00,3.00,M,29.92,M,10.00,M,CLR,   ,   ,M,M,M,M,M,M,M,M,M,M,M,M,77.00,METAR KFWS 290645Z AUTO 14003KT 10SM CLR 25/20 A2992 RMK AO2 LTG DSNT S,1220000400000.0,1220000400000.0_FWS
976,1912341,RDK,2008-04-04 00:35,-95.2624,41.0106,39.20,35.60,86.79,50.00,9.00,M,29.96,M,10.00,-99.00,M,M,M,M,M,M,M,M,M,M,M,M,M,M,M,32.47,M,1207278000000.0,1207278000000.0_RDK
977,5393539,EOK,2008-09-25 20:15,-91.4274,40.4615,82.40,62.60,M,M,M,M,30.23,M,10.00,-99.00,M,M,M,M,M,M,M,M,M,M,M,M,M,M,M,M,M,1222383600000.0,1222383600000.0_EOK
978,5978201,AQO,2008-10-22 11:05,-98.6619,30.7836,62.60,60.80,93.83,0.00,0.00,M,30.01,M,5.00,M,OVC,   ,   ,M,1800.00,M,M,M,BR,M,M,M,M,M,M,62.60,METAR KAQO 221105Z AUTO 00000KT 5SM BR OVC018 17/16 A3001 RMK AO2,1224684000000.0,1224684000000.0_AQO
979,5641097,SDA,2008-10-07 06:32,-95.4112,40.7533,66.00,61.00,83.91,160.00,8.00,M,29.91,M,10.00,M,M,M,M,M,M,M,M,M,M,M,M,M,M,M,M,66.00,M,1223370000000.0,1223370000000.0_SDA
980,1445881,CNC,2008-03-12 06:42,-93.3608,41.0184,38.00,33.00,82.00,70.00,4.00,M,29.89,M,7.00,M,M,M,M,M,M,M,M,M,M,M,M,M,M,M,M,34.43,M,1205316000000.0,1205316000000.0_CNC
981,6331848,MRN,2008-11-09 23:00,-81.61,35.82,50.00,32.00,49.81,10.00,7.00,M,29.99,M,10.00,M,CLR,   ,   ,M,M,M,M,M,M,M,M,M,M,M,M,46.72,METAR KMRN 092300Z AUTO 01007KT 10SM CLR 10/00 A2999 RMK AO2,1226286000000.0,1226286000000.0_MRN
982,4186984,XBP,2008-07-27 15:09,-97.8284,33.1753,89.60,60.80,38.18,260.00,5.00,M,29.96,M,7.00,M,CLR,   ,   ,M,M,M,M,M,M,M,M,M,M,M,M,89.60,METAR KXBP 271509Z AUTO 26005KT 7SM CLR 32/16 A2996 RMK AO2,1217181600000.0,1217181600000.0_XBP
983,5532834,ELZ,2008-10-02 08:56,-77.99,42.11,41.00,39.02,92.59,280.00,7.00,M,29.67,1005.60,10.00,M,FEW,OVC,   ,   ,1600.00,3700.00,M,M,M,M,M,M,M,M,M,35.75,METAR KELZ 020856Z AUTO 28007KT 10SM FEW016 OVC037 05/04 A2967 RMK AO2 RAB13E36 SLP056 P0000 60000 T00500039 53002,1222945200000.0,1222945200000.0_ELZ
984,4030141,EHO,2008-07-20 00:40,-81.6011,35.2556,86.00,64.40,48.58,0.00,0.00,M,30.01,M,10.00,M,CLR,   ,   ,M,M,M,M,M,M,M,M,M,M,M,M,87.49,METAR KEHO 200040Z AUTO 00000KT 10SM CLR 30/18 A3001 RMK AO2,1216522800000.0,1216522800000.0_EHO
985,6809287,GGI,2008-12-02 19:15,-92.7332,41.7097,35.60,28.40,74.80,180.00,14.00,M,29.70,M,10.00,-99.00,M,M,M,M,M,M,M,M,M,M,M,M,M,M,M,25.80,M,1228258800000.0,1228258800000.0_GGI
986,1728807,CTZ,2008-03-25 10:02,-78.3644,34.9756,37.40,30.20,74.98,330.00,4.00,M,30.32,M,10.00,M,CLR,   ,   ,M,M,M,M,M,M,M,M,M,M,M,M,33.73,METAR KCTZ 251002Z AUTO 33004KT 10SM CLR 03/M01 A3032 RMK AO2,1206453600000.0,1206453600000.0_CTZ
987,3208118,SEP,2008-06-09 14:25,-98.1777,32.2153,80.60,68.00,65.54,180.00,10.00,M,29.91,M,10.00,16.00,SCT,SCT,   ,M,2600.00,3300.00,M,M,M,M,M,M,M,M,M,83.29,METAR KSEP 091425Z AUTO 18010G16KT 10SM SCT026 SCT033 27/20 A2991 RMK AO1,1213030800000.0,1213030800000.0_SEP
988,678471,ORC,2008-02-03 11:15,-96.0606,42.9895,15.80,14.00,92.44,140.00,3.00,M,29.98,M,4.00,-99.00,M,M,M,M,M,M,M,M,M,M,M,M,M,M,M,10.17,M,1202050800000.0,1202050800000.0_ORC
989,6962868,GLE,2008-12-09 22:05,-97.1969,33.6514,35.60,28.40,74.80,330.00,24.00,M,29.98,M,10.00,28.00,OVC,   ,   ,M,2000.00,M,M,M,M,M,M,M,M,M,M,22.92,METAR KGLE 092205Z AUTO 33024G28KT 10SM OVC020 02/M02 A2998 RMK AO2,1228874400000.0,1228874400000.0_GLE
990,6766242,PRO,2008-11-30 12:35,-94.1637,41.8278,32.00,32.00,100.00,330.00,9.00,M,29.54,M,5.00,-99.00,M,M,M,M,M,M,M,M,M,M,M,M,M,M,M,23.51,M,1228060800000.0,1228060800000.0_PRO
991,3497485,PVW,2008-06-23 15:45,-101.7173,34.1681,77.00,55.40,47.25,210.00,10.00,M,30.10,M,10.00,14.00,CLR,   ,   ,M,M,M,M,M,M,M,M,M,M,M,M,77.00,METAR KPVW 231545Z AUTO 21010G14KT 10SM CLR 25/13 A3010 RMK AO2,1214244000000.0,1214244000000.0_PVW
992,7189112,MAF,2008-12-20 14:53,-102.1892,31.9425,50.00,28.04,42.39,240.00,6.00,M,30.02,1014.50,10.00,M,CLR,   ,   ,M,M,M,M,M,M,M,M,M,M,M,M,47.21,METAR KMAF 201453Z 24006KT 10SM CLR 10/M02 A3002 RMK AO2 SLP145 T01001022 51010,1229796000000.0,1229796000000.0_MAF
993,4284179,LRJ,2008-08-02 04:55,-96.1923,42.7754,71.00,60.00,68.20,110.00,7.00,M,29.97,M,10.00,M,M,M,M,M,M,M,M,M,M,M,M,M,M,M,M,71.00,M,1217660400000.0,1217660400000.0_LRJ
994,5451180,UKF,2008-09-28 09:44,-81.0983,36.2228,62.60,62.60,100.00,0.00,0.00,M,29.97,M,0.25,M,OVC,   ,   ,M,100.00,M,M,M,M,M,M,M,M,M,M,62.60,METAR KUKF 280944Z AUTO 00000KT 1/4SM OVC001 17/17 A2997 RMK AO1,1222603200000.0,1222603200000.0_UKF
995,4893663,IKV,2008-09-02 00:33,-93.5695,41.6878,83.00,74.00,74.33,150.00,7.00,M,29.91,M,10.00,M,M,M,M,M,M,M,M,M,M,M,M,M,M,M,M,89.60,M,1220324400000.0,1220324400000.0_IKV
996,1499428,MXO,2008-03-14 16:15,-91.1605,42.2204,44.60,39.20,81.20,340.00,5.00,M,29.73,M,10.00,-99.00,M,M,M,M,M,M,M,M,M,M,M,M,M,M,M,41.36,M,1205524800000.0,1205524800000.0_MXO
997,5632109,CPT,2008-10-06 20:45,-97.4338,32.3537,78.80,69.80,73.95,170.00,12.00,M,29.89,M,10.00,M,SCT,BKN,   ,M,2100.00,7500.00,M,M,M,M,M,M,M,M,M,81.39,METAR KCPT 062045Z AUTO 17012KT 10SM SCT021 BKN075 26/21 A2989 RMK AO2,1223334000000.0,1223334000000.0_CPT
998,3367498,OLZ,2008-06-17 07:55,-91.976,42.6831,51.80,46.40,81.74,320.00,4.00,M,30.10,M,10.00,-99.00,M,M,M,M,M,M,M,M,M,M,M,M,M,M,M,51.80,M,1213696800000.0,1213696800000.0_OLZ
999,7060864,ADU,2008-12-14 09:42,-94.9204,41.6994,48.00,45.00,89.29,180.00,12.00,M,29.29,M,10.00,17.00,M,M,M,M,M,M,M,M,M,M,M,M,M,M,M,42.37,M,1229259600000.0,1229259600000.0_ADU
