,station,valid,lon,lat,tmpf,dwpf,relh,drct,sknt,p01i,alti,mslp,vsby,gust,skyc1,skyc2,skyc3,skyc4,skyl1,skyl2,skyl3,skyl4,wxcodes,ice_accretion_1hr,ice_accretion_3hr,ice_accretion_6hr,peak_wind_gust,peak_wind_drct,peak_wind_time,feel,metar
6381394,MUT,2008-11-12 09:55,-91.1406,41.367,44.60,44.60,100.00,150.00,6.00,M,29.91,M,4.00,-99.00,M,M,M,M,M,M,M,M,M,M,M,M,M,M,M,40.71,M
2996452,CIN,2008-05-29 21:12,-94.7889,42.0444,62.00,60.00,93.15,130.00,14.00,M,29.89,M,7.00,M,M,M,M,M,M,M,M,M,M,M,M,M,M,M,M,62.00,M
7138575,CRS,2008-12-18 03:53,-96.4,32.03,48.02,46.94,96.02,0.00,0.00,M,30.17,1021.80,0.25,M,VV ,   ,   ,M,100.00,M,M,M,FG,M,M,M,M,M,M,48.02,METAR KCRS 180353Z AUTO 00000KT 1/4SM FG VV001 09/08 A3017 RMK AO2 SLP218 T00890083
310551,PPA,2008-01-16 09:09,-100.9963,35.613,32.00,28.40,86.39,190.00,9.00,M,29.65,M,10.00,M,CLR,   ,   ,M,M,M,M,M,M,M,M,M,M,M,M,23.51,METAR KPPA 160909Z AUTO 19009KT 10SM CLR 00/M02 A2965 RMK AO2
2092933,CPT,2008-04-13 13:25,-97.4338,32.3537,51.80,41.00,66.48,350.00,8.00,M,30.33,M,10.00,M,OVC,   ,   ,M,12000.00,M,M,M,M,M,M,M,M,M,M,51.80,METAR KCPT 131325Z AUTO 35008KT 10SM OVC120 11/05 A3033 RMK AO2
2803869,ORC,2008-05-20 03:04,-96.0606,42.9895,65.00,46.00,50.14,340.00,6.00,M,29.65,M,10.00,M,M,M,M,M,M,M,M,M,M,M,M,M,M,M,M,65.00,M
5459135,TVK,2008-09-28 18:22,-92.8983,40.6832,73.00,64.00,M,M,M,M,30.17,M,10.00,M,M,M,M,M,M,M,M,M,M,M,M,M,M,M,M,M,M
6297443,ASJ,2008-11-08 05:43,-77.17,36.3,55.40,51.80,87.65,170.00,4.00,M,29.83,M,10.00,M,CLR,   ,   ,M,M,M,M,M,M,M,M,M,M,M,M,55.40,METAR KASJ 080543Z AUTO 17004KT 10SM CLR 13/11 A2983 RMK AO2
4097273,CAV,2008-07-23 06:55,-93.7593,42.743,64.40,62.60,93.88,90.00,5.00,M,30.13,M,10.00,-99.00,M,M,M,M,M,M,M,M,M,M,M,M,M,M,M,64.40,M
1279171,E38,2008-03-04 11:05,-103.684,30.384,30.20,12.20,46.62,0.00,0.00,M,30.10,M,10.00,M,CLR,   ,   ,M,M,M,M,M,M,M,M,M,M,M,M,30.20,METAR KE38 041105Z AUTO 00000KT 10SM CLR M01/M11 A3010 RMK AO2
2576486,LBT,2008-05-08 11:54,-79.06,34.61,69.08,64.04,83.98,220.00,6.00,M,29.95,1014.10,10.00,M,SCT,BKN,   ,M,2600.00,11000.00,M,M,M,M,M,M,M,M,M,69.08,METAR KLBT 081154Z AUTO 22006KT 10SM SCT026 BKN110 21/18 A2995 RMK AO2 SLP141 T02060178 10206 20178 53012
5573583,RWI,2008-10-04 04:53,-77.8919,35.8563,50.00,48.92,96.05,0.00,0.00,M,30.12,1020.00,3.00,M,CLR,   ,   ,M,M,M,M,M,BR,M,M,M,M,M,M,50.00,METAR KRWI 040453Z AUTO 00000KT 3SM BR CLR 10/09 A3012 RMK AO2 SLP200 T01000094 402330061
3060748,UIL,2008-06-02 06:53,-124.5626,47.9366,48.92,44.96,86.13,0.00,0.00,M,30.17,1021.60,10.00,M,OVC,   ,   ,M,4200.00,M,M,M,M,M,M,M,M,M,M,48.92,METAR KUIL 020653Z AUTO 00000KT 10SM OVC042 09/07 A3017 RMK AO2 SLP216 T00940072 TSNO
3958661,GGI,2008-07-16 13:55,-92.7332,41.7097,77.00,69.00,76.36,160.00,6.00,M,30.09,M,10.00,M,M,M,M,M,M,M,M,M,M,M,M,M,M,M,M,77.00,M
1693365,BVS,2008-03-23 14:10,-122.42,48.47,44.60,39.20,81.20,160.00,15.00,M,30.00,M,10.00,24.00,SCT,BKN,OVC,M,1700.00,4100.00,4900.00,M,M,M,M,M,M,M,M,37.11,METAR KBVS 231410Z AUTO 16015G24KT 10SM SCT017 BKN041 OVC049 07/04 A3000 RMK A01 P000
7230143,CCY,2008-12-22 14:53,-92.6132,43.073,-11.00,-15.00,81.85,260.00,5.00,M,30.41,M,10.00,M,M,M,M,M,M,M,M,M,M,M,M,M,M,M,M,-24.67,M
3084306,UIL,2008-06-03 10:53,-124.5626,47.9366,48.92,46.94,92.84,80.00,3.00,0.08,29.82,1009.60,5.00,M,OVC,   ,   ,M,1700.00,M,M,M,-RA BR,M,M,M,M,M,M,48.03,METAR KUIL 031053Z AUTO 08003KT 5SM -RA BR OVC017 09/08 A2982 RMK AO2 SLP096 P0008 T00940083 TSNO
1600462,HNR,2008-03-19 05:15,-95.3355,41.5834,33.80,32.00,93.03,M,0.00,M,30.02,M,5.00,-99.00,M,M,M,M,M,M,M,M,M,M,M,M,M,M,M,33.80,M
1291046,AFP,2008-03-05 00:40,-80.0771,35.0206,66.20,62.60,88.18,170.00,18.00,0.01,29.62,M,10.00,26.00,BKN,BKN,OVC,M,2100.00,2700.00,4800.00,M,-RA,M,M,M,M,M,M,66.20,METAR KAFP 050040Z AUTO 17018G26KT 10SM -RA BKN021 BKN027 OVC048 19/17 A2962 RMK AO2 P0001
4373088,SLK,2008-08-06 23:51,-74.2062,44.3853,60.98,59.00,93.19,0.00,0.00,M,29.80,1008.60,10.00,M,FEW,   ,   ,   ,6000.00,M,M,M,M,M,M,M,M,M,M,60.98,METAR KSLK 062351Z AUTO 00000KT 10SM FEW060 16/15 A2980 RMK AO2 SLP086 60017 T01610150 10228 20161 50003
11334,CLL,2008-01-01 14:53,-96.3639,30.5881,42.08,24.08,48.56,360.00,10.00,M,30.71,1039.90,10.00,M,CLR,   ,   ,M,M,M,M,M,M,M,M,M,M,M,M,35.61,METAR KCLL 011453Z 36010KT 10SM CLR 06/M04 A3071 RMK AO2 SLP399 T00561044 51036
7249967,XBP,2008-12-23 14:25,-97.8284,33.1753,32.00,32.00,100.00,150.00,5.00,M,29.99,M,1.75,M,OVC,   ,   ,M,900.00,M,M,M,BR,M,M,M,M,M,M,26.40,METAR KXBP 231425Z AUTO 15005KT 1 3/4SM BR OVC009 00/00 A2999 RMK AO2
6176684,FQD,2008-11-01 22:52,-81.9351,35.4282,66.20,35.60,32.14,0.00,0.00,M,30.29,M,10.00,M,   ,   ,   ,M,M,M,M,M,M,M,M,M,M,M,M,66.20,METAR KFQD 012252Z AUTO 00000KT 10SM 19/02 A3029 RMK AO2
347192,JSO,2008-01-18 04:25,-95.22,31.87,33.80,23.00,64.23,10.00,4.00,M,30.20,M,10.00,M,OVC,   ,   ,M,9000.00,M,M,M,M,M,M,M,M,M,M,29.52,METAR KJSO 180425Z AUTO 01004KT 10SM OVC090 01/M05 A3020 RMK AO2
118765,OOA,2008-01-07 00:15,-92.4919,41.2273,41.00,37.40,86.89,M,0.00,M,29.75,M,M,-99.00,M,M,M,M,M,M,M,M,M,M,M,M,M,M,M,41.00,M
7170499,AWG,2008-12-19 16:53,-91.6748,41.2751,29.00,25.00,84.79,0.00,0.00,M,29.97,M,5.50,M,M,M,M,M,M,M,M,M,M,M,M,M,M,M,M,29.00,M
2453671,PEZ,2008-05-02 03:25,-98.52,28.9542,75.20,75.20,100.00,120.00,11.00,M,29.63,M,7.00,15.00,CLR,   ,   ,M,M,M,M,M,M,M,M,M,M,M,M,77.12,METAR KPEZ 020325Z AUTO 12011G15KT 7SM CLR 24/24 A2963 RMK AO2
4401871,RWV,2008-08-08 12:05,-96.7041,30.5155,75.20,73.40,94.14,220.00,4.00,M,30.01,M,7.00,M,CLR,   ,   ,M,M,M,M,M,M,M,M,M,M,M,M,76.84,METAR KRWV 081205Z AUTO 22004KT 7SM CLR 24/23 A3001 RMK AO2
236416,HHF,2008-01-12 18:27,-100.404,35.895,51.80,23.00,32.17,360.00,12.00,M,30.07,M,10.00,17.00,CLR,   ,   ,M,M,M,M,M,M,M,M,M,M,M,M,51.80,METAR KHHF 121827Z AUTO 36012G17KT 10SM CLR 11/M05 A3007 RMK AO2
1634317,EBS,2008-03-20 17:33,-93.8691,42.4392,50.00,41.00,71.07,130.00,15.00,M,30.12,M,10.00,M,M,M,M,M,M,M,M,M,M,M,M,M,M,M,M,44.12,M
524093,OLZ,2008-01-26 17:14,-91.976,42.6831,19.00,13.00,77.06,270.00,10.00,M,29.92,M,10.00,M,M,M,M,M,M,M,M,M,M,M,M,M,M,M,M,6.67,M
1875107,SHN,2008-04-02 02:53,-123.1476,47.2336,42.98,28.94,57.35,10.00,3.00,M,30.17,1022.30,10.00,M,CLR,   ,   ,M,M,M,M,M,M,M,M,M,M,M,M,41.24,METAR KSHN 020253Z AUTO 01003KT 10SM CLR 06/M02 A3017 RMK AO2 SLP223 T00611017 55005
3841180,ICL,2008-07-10 17:55,-95.0223,40.7242,86.00,66.20,51.72,200.00,12.00,M,29.95,M,10.00,17.00,M,M,M,M,M,M,M,M,M,M,M,M,M,M,M,88.39,M
2160645,SUT,2008-04-17 00:40,-78.0747,33.9292,53.60,35.60,50.36,0.00,0.00,M,30.22,M,10.00,M,CLR,   ,   ,M,M,M,M,M,M,M,M,M,M,M,M,53.60,METAR KSUT 170040Z AUTO 00000KT 10SM CLR 12/02 A3022 RMK AO2
198987,HPN,2008-01-10 23:56,-73.7075,41.0669,42.98,21.02,41.24,0.00,0.00,M,30.10,1019.60,10.00,M,BKN,   ,   ,   ,9500.00,M,M,M,M,M,M,M,M,M,M,42.98,METAR KHPN 102356Z 00000KT 10SM BKN095 06/M06 A3010 RMK AO2 SLP196 T00611061 10094 20050 58006
856116,GEV,2008-02-12 05:02,-81.42,36.43,33.80,10.40,37.22,0.00,0.00,M,30.18,M,10.00,M,CLR,   ,   ,M,M,M,M,M,M,M,M,M,M,M,M,33.80,METAR KGEV 120502Z AUTO 00000KT 10SM CLR 01/M12 A3018 RMK AO2
2681864,INJ,2008-05-13 21:25,-97.0972,32.0836,80.60,71.60,74.11,140.00,15.00,M,29.78,M,10.00,22.00,SCT,SCT,   ,M,2000.00,12000.00,M,M,M,M,M,M,M,M,M,84.57,METAR KINJ 132125Z AUTO 14015G22KT 10SM SCT020 SCT120 27/22 A2978 RMK AO2
2521785,MUT,2008-05-05 15:57,-91.1406,41.367,72.00,44.00,M,M,M,M,30.03,M,10.00,M,M,M,M,M,M,M,M,M,M,M,M,M,M,M,M,M,M
6114024,EBS,2008-10-29 13:25,-93.8691,42.4392,31.00,25.00,M,M,M,M,30.18,M,10.00,M,M,M,M,M,M,M,M,M,M,M,M,M,M,M,M,M,M
144656,CAV,2008-01-08 09:25,-93.7593,42.743,31.00,31.00,100.00,330.00,6.00,M,29.72,M,M,M,M,M,M,M,M,M,M,M,M,M,M,M,M,M,M,24.33,M
4942972,JQF,2008-09-04 05:40,-80.7091,35.3878,62.60,62.60,100.00,0.00,0.00,M,29.99,M,3.00,M,CLR,   ,   ,M,M,M,M,M,BR,M,M,M,M,M,M,62.60,METAR KJQF 040540Z AUTO 00000KT 3SM BR CLR 17/17 A2999 RMK AO2
4554997,OAJ,2008-08-16 15:15,-77.6121,34.8292,77.00,69.80,78.48,50.00,6.00,M,30.06,M,10.00,M,SCT,   ,   ,M,12000.00,M,M,M,M,M,M,M,M,M,M,78.09,METAR KOAJ 161515Z AUTO 05006KT 10SM SCT120 25/21 A3006 RMK AO2 PWINO FZRANO RVRNO
4813072,AIO,2008-08-29 02:32,-95.0465,41.4059,63.00,58.00,83.72,350.00,5.00,M,29.96,M,10.00,M,M,M,M,M,M,M,M,M,M,M,M,M,M,M,M,63.00,M
2987549,FFL,2008-05-29 10:45,-91.9834,41.0521,52.00,45.00,76.94,120.00,4.00,M,30.19,M,10.00,M,M,M,M,M,M,M,M,M,M,M,M,M,M,M,M,52.00,M
1956346,SDA,2008-04-06 06:17,-95.4112,40.7533,52.00,40.00,63.48,130.00,7.00,M,29.71,M,10.00,M,M,M,M,M,M,M,M,M,M,M,M,M,M,M,M,52.00,M
6319138,DFW,2008-11-09 07:53,-97.038,32.8968,53.06,35.96,52.11,50.00,3.00,M,30.04,M,10.00,-99.00,M,M,M,M,M,M,M,M,M,M,M,M,M,M,M,53.06,M
3422766,EOK,2008-06-19 23:26,-91.4274,40.4615,74.00,57.00,55.34,270.00,6.00,M,29.91,M,10.00,M,M,M,M,M,M,M,M,M,M,M,M,M,M,M,M,74.00,M
2638900,F39,2008-05-11 16:44,-96.6667,33.7167,59.00,33.80,38.56,310.00,7.00,M,30.14,M,10.00,16.00,CLR,   ,   ,M,M,M,M,M,M,M,M,M,M,M,M,59.00,METAR KGYI 111644Z AUTO 31007G16KT 10SM CLR 15/01 A3014 RMK AO2
5100770,MXO,2008-09-12 04:45,-91.1605,42.2204,71.00,67.00,87.19,190.00,5.00,M,29.96,M,5.50,M,M,M,M,M,M,M,M,M,M,M,M,M,M,M,M,71.00,M
4268177,NOG,2008-08-01 08:53,-98.0517,27.9011,75.92,73.94,93.59,0.00,0.00,M,29.85,1010.60,2.00,M,FEW,   ,   ,M,800.00,M,M,M,BR,M,M,M,M,M,M,77.61,METAR KALI 010853Z AUTO 00000KT 2SM BR FEW008 24/23 A2985 RMK AO2 SLP106 T02440233 53000
1326262,BNW,2008-03-06 16:16,-93.8486,42.0486,26.00,18.00,71.33,280.00,12.00,M,30.17,M,10.00,M,M,M,M,M,M,M,M,M,M,M,M,M,M,M,M,14.37,M
3512585,MUT,2008-06-24 09:06,-91.1406,41.367,65.00,62.00,M,M,M,M,30.14,M,10.00,M,M,M,M,M,M,M,M,M,M,M,M,M,M,M,M,M,M
6343281,ATT,2008-11-10 12:51,-97.7601,30.3208,66.02,57.02,72.72,M,4.00,M,29.92,1012.40,10.00,M,BKN,OVC,   ,M,2700.00,3200.00,M,M,M,M,M,M,M,M,M,66.02,METAR KATT 101251Z AUTO VRB04KT 10SM BKN027 OVC032 19/14 A2992 RMK AO2 SLP124 T01890139
1832195,DEH,2008-03-30 17:07,-91.7433,43.2755,44.00,36.00,73.27,190.00,4.00,M,30.11,M,10.00,M,M,M,M,M,M,M,M,M,M,M,M,M,M,M,M,41.43,M
4488432,POU,2008-08-13 01:53,-73.8842,41.6266,64.94,62.06,90.39,0.00,0.00,M,29.79,1008.30,10.00,M,BKN,OVC,   ,   ,9500.00,11000.00,M,M,M,M,M,M,M,M,M,64.94,METAR KPOU 130153Z 00000KT 10SM BKN095 OVC110 18/17 A2979 RMK AO2 SLP083 T01830167
723617,FFL,2008-02-05 15:14,-91.9834,41.0521,35.00,32.00,88.68,20.00,8.00,M,29.96,M,4.00,M,M,M,M,M,M,M,M,M,M,M,M,M,M,M,M,27.81,M
6085460,MUT,2008-10-28 01:35,-91.1406,41.367,41.00,28.40,60.54,310.00,5.00,M,30.44,M,10.00,-99.00,M,M,M,M,M,M,M,M,M,M,M,M,M,M,M,37.08,M
7269720,CAV,2008-12-24 13:23,-93.7593,42.743,9.00,5.00,83.41,290.00,15.00,M,29.81,M,10.00,M,M,M,M,M,M,M,M,M,M,M,M,M,M,M,M,-9.04,M
2428126,SLB,2008-04-30 17:55,-95.2399,42.5972,66.20,41.00,39.72,120.00,23.00,M,29.62,M,10.00,28.00,CLR,   ,   ,M,M,M,M,M,M,M,M,M,M,M,M,66.20,METAR KSLB 301755Z AUTO 12023G28KT 10SM CLR 19/05 A2962 RMK AO2
4511874,NOG,2008-08-14 08:53,-98.0517,27.9011,78.98,75.92,90.37,0.00,0.00,M,29.83,1009.90,3.00,M,OVC,   ,   ,M,1600.00,M,M,M,BR,M,M,M,M,M,M,82.96,METAR KALI 140853Z AUTO 00000KT 3SM BR OVC016 26/24 A2983 RMK AO2 SLP099 T02610244 55001
4039091,MSV,2008-07-20 10:55,-74.795,41.7016,66.20,64.40,93.92,0.00,0.00,M,30.01,M,3.00,M,CLR,   ,   ,   ,M,M,M,M,M,M,M,M,M,M,M,66.20,METAR KMSV 201055Z AUTO 00000KT 3SM CLR 19/18 A3001 RMK AO1
1815111,SDA,2008-03-29 20:47,-95.4112,40.7533,55.00,30.00,38.21,130.00,18.00,M,30.00,M,10.00,25.00,M,M,M,M,M,M,M,M,M,M,M,M,M,M,M,55.00,M
780964,PEZ,2008-02-08 12:05,-98.52,28.9542,35.60,28.40,74.80,0.00,0.00,M,29.96,M,10.00,M,CLR,   ,   ,M,M,M,M,M,M,M,M,M,M,M,M,35.60,METAR KPEZ 081205Z AUTO 00000KT 10SM CLR 02/M02 A2996 RMK AO2
7314628,VTI,2008-12-26 17:15,-92.0248,42.2176,37.40,35.60,93.14,160.00,16.00,M,29.72,M,4.00,21.00,M,M,M,M,M,M,M,M,M,M,M,M,M,M,M,27.46,M
1831127,NKT,2008-03-30 15:54,-76.88,34.9,48.02,44.96,89.08,50.00,16.00,0.01,30.47,1031.30,6.00,25.00,SCT,BKN,OVC,M,1000.00,1500.00,2500.00,M,BR,M,M,M,M,M,M,41.30,METAR KNKT 301554Z 05016G25KT 6SM BR SCT010 BKN015 OVC025 09/07 A3047 RMK AO2 RAE53 SLP313 P0001 T00890072
3064699,ICL,2008-06-02 11:36,-95.0223,40.7242,66.00,59.00,M,M,M,M,29.90,M,10.00,M,M,M,M,M,M,M,M,M,M,M,M,M,M,M,M,M,M
165732,PEQ,2008-01-09 11:46,-103.51,31.38,30.20,17.60,59.01,320.00,4.00,M,30.05,M,10.00,M,CLR,   ,   ,M,M,M,M,M,M,M,M,M,M,M,M,25.32,METAR KPEQ 091146Z AUTO 32004KT 10SM CLR M01/M08 A3005 RMK AO2
1350058,OAJ,2008-03-07 20:55,-77.6121,34.8292,68.00,66.20,93.97,170.00,15.00,0.01,29.77,M,10.00,23.00,SCT,BKN,OVC,M,1100.00,1900.00,2400.00,M,M,M,M,M,M,M,M,68.00,METAR KOAJ 072055Z AUTO 17015G23KT 10SM SCT011 BKN019 OVC024 20/19 A2977 RMK AO1 P0001 60021 57037
1114495,PEA,2008-02-24 21:15,-92.9431,41.3989,41.00,32.00,70.08,190.00,11.00,M,29.96,M,10.00,16.00,M,M,M,M,M,M,M,M,M,M,M,M,M,M,M,33.84,M
6352651,DRT,2008-11-10 23:53,-100.9272,29.3742,77.00,57.02,50.11,0.00,0.00,M,29.78,1007.00,10.00,M,CLR,   ,   ,M,M,M,M,M,M,M,M,M,M,M,M,77.00,METAR KDRT 102353Z AUTO 00000KT 10SM CLR 25/14 A2978 RMK AO2 SLP070 T02500139 10272 20239 53007
4101849,IKV,2008-07-23 12:03,-93.5695,41.6878,65.00,63.00,M,M,M,M,30.16,M,10.00,M,M,M,M,M,M,M,M,M,M,M,M,M,M,M,M,M,M
5599587,MSS,2008-10-05 08:53,-74.8456,44.9358,39.02,37.04,92.53,0.00,0.00,M,30.25,1024.70,10.00,M,BKN,   ,   ,   ,8000.00,M,M,M,M,M,M,M,M,M,M,39.02,METAR KMSS 050853Z AUTO 00000KT 10SM BKN080 04/03 A3025 RMK AO2 SLP247 T00390028 50003
5923408,SLK,2008-10-19 22:51,-74.2062,44.3853,32.00,26.06,78.45,0.00,0.00,M,30.31,1029.10,10.00,M,CLR,   ,   ,   ,M,M,M,M,M,M,M,M,M,M,M,32.00,METAR KSLK 192251Z AUTO 00000KT 10SM CLR 00/M03 A3031 RMK AO2 SLP291 T00001033
4459005,RCZ,2008-08-11 12:22,-79.76,34.89,69.80,66.20,88.34,30.00,3.00,M,29.87,M,7.00,M,CLR,   ,   ,M,M,M,M,M,M,M,M,M,M,M,M,69.80,METAR KRCZ 111222Z AUTO 03003KT 7SM CLR 21/19 A2987 RMK AO2
7236873,JHW,2008-12-22 22:55,-79.258,42.1534,12.20,8.60,85.17,250.00,13.00,M,30.26,M,2.00,16.00,OVC,   ,   ,   ,1000.00,M,M,M,M,M,M,M,M,M,M,-3.80,METAR KJHW 222255Z 25013G16KT 2SM OVC010 M11/M13 A3026 RMK AO1
788936,HQZ,2008-02-08 21:46,-96.5304,32.747,73.40,21.20,13.93,290.00,14.00,M,29.84,M,10.00,23.00,CLR,   ,   ,M,M,M,M,M,M,M,M,M,M,M,M,71.09,METAR KHQZ 082146Z AUTO 29014G23KT 10SM CLR 23/M06 A2984 RMK AO2
3168756,PEZ,2008-06-07 09:24,-98.52,28.9542,78.80,73.40,83.55,130.00,6.00,M,29.93,M,10.00,M,BKN,BKN,OVC,M,1800.00,2400.00,2800.00,M,M,M,M,M,M,M,M,82.03,METAR KPEZ 070924Z AUTO 13006KT 10SM BKN018 BKN024 OVC028 26/23 A2993 RMK AO2
4566946,AWO,2008-08-17 05:55,-122.159,48.1608,68.00,57.20,68.35,0.00,0.00,M,29.74,M,9.00,M,CLR,   ,   ,M,M,M,M,M,M,M,M,M,M,M,M,68.00,METAR KAWO 170555Z AUTO 00000KT 9SM CLR 20/14 A2974 RMK AO1 10300 20190 52007
1805478,AIO,2008-03-29 09:15,-95.0465,41.4059,35.60,26.60,69.46,130.00,11.00,M,30.24,M,10.00,-99.00,M,M,M,M,M,M,M,M,M,M,M,M,M,M,M,27.02,M
2699494,CNC,2008-05-14 19:04,-93.3608,41.0184,61.00,42.00,49.54,350.00,14.00,M,29.98,M,10.00,17.00,M,M,M,M,M,M,M,M,M,M,M,M,M,M,M,61.00,M
6833477,DPL,2008-12-03 23:40,-77.98,35.0,33.80,32.00,93.03,0.00,0.00,M,30.34,M,10.00,M,CLR,   ,   ,M,M,M,M,M,M,M,M,M,M,M,M,33.80,METAR KDPL 032340Z AUTO 00000KT 10SM CLR 01/00 A3034 RMK AO2
4993191,HSE,2008-09-06 12:51,-75.6225,35.2322,80.96,75.92,84.69,180.00,24.00,0.36,29.68,1005.10,2.50,38.00,FEW,SCT,BKN,M,1000.00,2400.00,4000.00,M,HZ,M,M,M,45.00,170.00,2008-09-06 12:05,87.26,METAR KHSE 061251Z AUTO 18024G38KT 2 1/2SM HZ FEW010 SCT024 BKN040 27/24 A2968 RMK AO2 PK WND 17045/1205 RAB1158E37 SLP051 P0036 T02720244 TSNO
6510720,RUQ,2008-11-18 17:28,-80.5203,35.6459,39.20,10.40,30.07,360.00,15.00,M,30.23,M,10.00,20.00,BKN,   ,   ,M,6500.00,M,M,M,M,M,M,M,M,M,M,30.11,METAR KRUQ 181728Z AUTO 36015G20KT 10SM BKN065 04/M12 A3023 RMK AO2
5447396,EBS,2008-09-28 05:41,-93.8691,42.4392,54.00,52.00,92.92,40.00,4.00,M,30.16,M,5.50,M,M,M,M,M,M,M,M,M,M,M,M,M,M,M,M,54.00,M
5560835,LHZ,2008-10-03 15:23,-78.3303,36.0233,68.00,48.20,49.10,0.00,0.00,M,30.07,M,10.00,M,CLR,   ,   ,M,M,M,M,M,M,M,M,M,M,M,M,68.00,METAR KLHZ 031523Z AUTO 00000KT 10SM CLR 20/09 A3007 RMK AO2
4724325,FFA,2008-08-24 22:41,-75.67,36.02,80.60,68.00,65.54,110.00,5.00,M,30.00,M,10.00,M,CLR,   ,   ,M,M,M,M,M,M,M,M,M,M,M,M,83.29,METAR KFFA 242241Z AUTO 11005KT 10SM CLR 27/20 A3000 RMK AO2
7295661,ORS,2008-12-25 19:10,-122.91,48.71,33.80,32.00,93.03,0.00,0.00,M,29.56,M,8.00,M,SCT,BKN,OVC,M,500.00,900.00,1700.00,M,M,M,M,M,M,M,M,33.80,METAR KORS 251910Z AUTO 00000KT 8SM SCT005 BKN009 OVC017 01/00 A2956 RMK AO2
6460210,ADU,2008-11-16 06:35,-94.9204,41.6994,26.00,24.00,92.01,240.00,3.00,M,30.07,M,10.00,M,M,M,M,M,M,M,M,M,M,M,M,M,M,M,M,21.83,M
6525548,JSO,2008-11-19 10:26,-95.22,31.87,41.00,33.80,75.33,180.00,7.00,M,30.35,M,10.00,M,CLR,   ,   ,M,M,M,M,M,M,M,M,M,M,M,M,35.75,METAR KJSO 191026Z AUTO 18007KT 10SM CLR 05/01 A3035 RMK AO2
612365,JQF,2008-01-31 01:57,-80.7091,35.3878,32.00,17.60,54.87,0.00,0.00,M,30.16,M,10.00,M,CLR,   ,   ,M,M,M,M,M,M,M,M,M,M,M,M,32.00,METAR KJQF 310157Z 00000KT 10SM CLR 00/M08 A3016
1786771,RHP,2008-03-28 11:21,-83.863,35.1952,53.60,48.20,81.87,0.00,0.00,M,30.03,M,10.00,M,BKN,OVC,   ,M,2600.00,3500.00,M,M,M,M,M,M,M,M,M,53.60,METAR KRHP 281121Z AUTO 00000KT 10SM BKN026 OVC035 12/09 A3003 RMK AO2
7113345,LVJ,2008-12-16 22:53,-95.24,29.52,44.06,44.06,100.00,20.00,5.00,M,30.13,1020.00,0.25,M,OVC,   ,   ,M,200.00,M,M,M,FG,M,M,M,M,M,M,40.72,METAR KLVJ 162253Z AUTO 02005KT 1/4SM FG OVC002 07/07 A3013 RMK AO2 SLP200 T00670067 TSNO
6388454,RBO,2008-11-12 18:34,-97.6905,27.7785,82.40,57.20,42.25,30.00,13.00,M,29.84,M,10.00,19.00,CLR,   ,   ,M,M,M,M,M,M,M,M,M,M,M,M,82.08,METAR KRBO 121834Z AUTO 03013G19KT 10SM CLR 28/14 A2984 RMK AO2
92732,UKF,2008-01-05 15:22,-81.0983,36.2228,33.80,17.60,51.04,0.00,0.00,M,30.44,M,10.00,M,CLR,   ,   ,M,M,M,M,M,M,M,M,M,M,M,M,33.80,METAR KUKF 051522Z AUTO 00000KT 10SM CLR 01/M08 A3044 RMK AO1
227782,XBP,2008-01-12 08:29,-97.8284,33.1753,35.60,28.40,74.80,0.00,0.00,M,29.83,M,10.00,M,CLR,   ,   ,M,M,M,M,M,M,M,M,M,M,M,M,35.60,METAR KXBP 120829Z AUTO 00000KT 10SM CLR 02/M02 A2983 RMK AO2
1869940,OOA,2008-04-01 20:37,-92.4919,41.2273,44.00,35.00,70.42,330.00,13.00,M,30.30,M,10.00,M,M,M,M,M,M,M,M,M,M,M,M,M,M,M,M,36.94,M
861875,MUT,2008-02-12 11:57,-91.1406,41.367,11.00,6.00,79.85,30.00,6.00,M,30.10,M,10.00,M,M,M,M,M,M,M,M,M,M,M,M,M,M,M,M,0.24,M
6255371,GYI,2008-11-06 00:05,-96.6737,33.7141,77.00,53.60,44.25,170.00,17.00,M,29.72,M,10.00,21.00,CLR,   ,   ,M,M,M,M,M,M,M,M,M,M,M,M,77.00,METAR KGYI 060005Z AUTO 17017G21KT 10SM CLR 25/12 A2972 RMK AO2
2545386,CAV,2008-05-06 20:55,-93.7593,42.743,82.40,51.80,34.69,200.00,20.00,M,29.71,M,10.00,-99.00,M,M,M,M,M,M,M,M,M,M,M,M,M,M,M,81.20,M
178949,MUT,2008-01-10 01:52,-91.1406,41.367,34.00,30.00,85.11,120.00,7.00,M,30.02,M,M,M,M,M,M,M,M,M,M,M,M,M,M,M,M,M,M,27.22,M
2841194,NYC,2008-05-22 01:51,-73.9693,40.779,55.94,44.06,64.28,M,5.00,M,29.57,1000.30,10.00,M,OVC,   ,   ,   ,10000.00,M,M,M,M,M,M,M,M,M,M,55.94,METAR KNYC 220151Z AUTO VRB05KT 10SM OVC100 13/07 A2957 RMK AO2 SLP003 T01330067 TSNO
380395,CKP,2008-01-19 19:23,-95.5538,42.7304,4.00,-10.00,51.33,290.00,11.00,M,30.34,M,10.00,M,M,M,M,M,M,M,M,M,M,M,M,M,M,M,M,-12.92,M
4359464,1A5,2008-08-06 06:21,-83.42,35.22,66.20,62.60,88.18,0.00,0.00,M,30.16,M,3.00,M,CLR,   ,   ,M,M,M,M,M,BR,M,M,M,M,M,M,66.20,METAR K1A5 060621Z AUTO 00000KT 3SM BR CLR 19/17 A3016 RMK AO2
1156497,CCY,2008-02-26 22:43,-92.6132,43.073,25.00,18.00,74.36,310.00,16.00,M,30.09,M,10.00,25.00,M,M,M,M,M,M,M,M,M,M,M,M,M,M,M,11.29,M
6983283,RHP,2008-12-10 20:40,-83.863,35.1952,62.60,57.20,82.50,0.00,0.00,M,29.94,M,10.00,M,OVC,   ,   ,M,3100.00,M,M,M,M,M,M,M,M,M,M,62.60,METAR KRHP 102040Z AUTO 00000KT 10SM OVC031 17/14 A2994 RMK AO2
1963240,PEA,2008-04-06 14:17,-92.9431,41.3989,54.00,43.00,66.24,150.00,12.00,M,29.80,M,10.00,M,M,M,M,M,M,M,M,M,M,M,M,M,M,M,M,54.00,M
6341537,ORC,2008-11-10 10:45,-96.0606,42.9895,21.00,20.00,95.84,90.00,4.00,M,30.14,M,10.00,M,M,M,M,M,M,M,M,M,M,M,M,M,M,M,M,14.57,M
5479178,OXV,2008-09-29 16:33,-93.1114,41.2984,68.00,60.00,75.57,350.00,8.00,M,30.10,M,10.00,M,M,M,M,M,M,M,M,M,M,M,M,M,M,M,M,68.00,M
4476512,T65,2008-08-12 10:45,-97.9731,26.1776,80.60,77.00,88.83,170.00,7.00,M,29.75,M,7.00,M,OVC,   ,   ,M,2600.00,M,M,M,M,M,M,M,M,M,M,87.10,METAR KT65 121045Z AUTO 17007KT 7SM OVC026 27/25 A2975 RMK AO2 T02700250
3147572,CLM,2008-06-06 09:53,-123.5,48.12,46.04,42.98,88.99,80.00,3.00,M,29.77,1008.30,10.00,M,FEW,SCT,OVC,M,3600.00,6000.00,8000.00,M,-RA,M,M,M,M,M,M,44.74,METAR KCLM 060953Z AUTO 08003KT 10SM -RA FEW036 SCT060 OVC080 08/06 A2977 RMK AO2 RAB23 SLP083 P0000 T00780061
3458025,GGI,2008-06-21 16:55,-92.7332,41.7097,82.40,35.60,18.67,300.00,10.00,M,30.10,M,10.00,15.00,M,M,M,M,M,M,M,M,M,M,M,M,M,M,M,80.08,M
495446,HWV,2008-01-25 07:56,-72.8689,40.8217,21.92,6.98,52.01,330.00,10.00,M,30.20,1022.80,10.00,M,CLR,   ,   ,   ,M,M,M,M,M,M,M,M,M,M,M,10.33,METAR KHWV 250756Z AUTO 33010KT 10SM CLR M06/M14 A3020 RMK AO2 SLP228 T10561139 TSNO
3233727,6R6,2008-06-10 19:53,-102.2129,30.046,96.08,64.94,36.11,140.00,13.00,M,29.89,1007.50,M,24.00,   ,   ,   ,M,M,M,M,M,M,M,M,M,M,M,M,98.87,METAR K6R6 101953Z AUTO 14013G24KT 36/18 A2989 RMK AO2 SLP075 T03560183 PWINO TSNO
6089933,BBD,2008-10-28 07:05,-99.3239,31.1793,41.00,24.80,52.17,0.00,0.00,M,30.55,M,10.00,M,CLR,   ,   ,M,M,M,M,M,M,M,M,M,M,M,M,41.00,METAR KBBD 280705Z AUTO 00000KT 10SM CLR 05/M04 A3055 RMK
609944,ORC,2008-01-30 23:15,-96.0606,42.9895,3.20,-4.00,71.29,70.00,6.00,M,30.06,M,7.00,-99.00,M,M,M,M,M,M,M,M,M,M,M,M,M,M,M,-9.16,M
6695496,MXO,2008-11-27 03:43,-91.1605,42.2204,22.00,18.00,M,M,M,M,29.99,M,5.50,M,M,M,M,M,M,M,M,M,M,M,M,M,M,M,M,M,M
1521704,ORC,2008-03-15 16:03,-96.0606,42.9895,27.00,20.00,74.57,20.00,8.00,M,30.03,M,10.00,M,M,M,M,M,M,M,M,M,M,M,M,M,M,M,M,17.95,M
956950,TVK,2008-02-17 06:35,-92.8983,40.6832,32.00,32.00,100.00,110.00,4.00,M,29.59,M,3.00,M,M,M,M,M,M,M,M,M,M,M,M,M,M,M,M,27.42,M
2556779,MNZ,2008-05-07 11:09,-98.1486,31.6659,64.40,60.80,88.09,160.00,12.00,M,29.63,M,10.00,18.00,CLR,   ,   ,M,M,M,M,M,M,M,M,M,M,M,M,64.40,METAR KMNZ 071109Z AUTO 16012G18KT 10SM CLR 18/16 A2963 RMK AO2
2127510,11R,2008-04-15 08:22,-96.3742,30.2189,39.20,39.20,100.00,0.00,0.00,M,30.24,M,10.00,M,CLR,   ,   ,M,M,M,M,M,M,M,M,M,M,M,M,39.20,METAR K11R 150822Z AUTO 00000KT 10SM CLR 04/04 A3024 RMK AO2
5733331,PRX,2008-10-11 09:55,-95.4507,33.6366,59.00,57.20,93.74,120.00,7.00,M,30.05,M,5.00,M,CLR,   ,   ,M,M,M,M,M,M,M,M,M,M,M,M,59.00,METAR KPRX 110955Z AUTO 12007KT 5SM CLR 15/14 A3005 RMK AO1
5987946,MXO,2008-10-22 21:53,-91.1605,42.2204,53.00,27.00,36.36,110.00,15.00,M,30.19,M,10.00,21.00,M,M,M,M,M,M,M,M,M,M,M,M,M,M,M,53.00,M
7392015,MUT,2008-12-30 07:55,-91.1406,41.367,30.20,26.60,86.28,0.00,0.00,M,30.15,M,10.00,-99.00,M,M,M,M,M,M,M,M,M,M,M,M,M,M,M,30.20,M
5034941,ELP,2008-09-08 16:51,-106.3758,31.8111,71.96,60.08,66.20,0.00,0.00,M,30.08,1013.20,10.00,M,FEW,   ,   ,M,2500.00,M,M,M,M,M,M,M,M,M,M,71.96,METAR KELP 081651Z 00000KT 10SM FEW025 22/16 A3008 RMK AO2 SLP132 CLDS TPG MTNS NW T02220156
1787268,MUT,2008-03-28 11:55,-91.1406,41.367,30.20,24.80,80.07,M,0.00,M,30.20,M,10.00,-99.00,M,M,M,M,M,M,M,M,M,M,M,M,M,M,M,30.20,M
6409306,1A5,2008-11-13 19:04,-83.42,35.22,57.20,53.60,87.74,0.00,0.00,M,29.98,M,10.00,M,OVC,   ,   ,M,500.00,M,M,M,M,M,M,M,M,M,M,57.20,METAR K1A5 131904Z AUTO 00000KT 10SM OVC005 14/12 A2998 RMK AO2
6100718,LFK,2008-10-28 20:53,-94.75,31.234,64.04,21.92,19.80,10.00,5.00,M,30.46,1031.50,10.00,M,CLR,   ,   ,M,M,M,M,M,M,M,M,M,M,M,M,64.04,METAR KLFK 282053Z AUTO 01005KT 10SM CLR 18/M06 A3046 RMK AO2 SLP315 T01781056 56028
6551726,FRG,2008-11-20 16:53,-73.4134,40.7288,35.06,21.02,56.18,320.00,6.00,M,29.84,1010.40,10.00,M,BKN,BKN,BKN,   ,4100.00,4900.00,6000.00,M,M,M,M,M,M,M,M,29.22,METAR KFRG 201653Z 32006KT 10SM BKN041 BKN049 BKN060 02/M06 A2984 RMK AO2 SLP104 T00171061
5397720,SLK,2008-09-26 00:51,-74.2062,44.3853,53.96,48.92,83.00,0.00,0.00,M,30.43,1030.90,6.00,M,CLR,   ,   ,   ,M,M,M,M,HZ,M,M,M,M,M,M,53.96,METAR KSLK 260051Z AUTO 00000KT 6SM HZ CLR 12/09 A3043 RMK AO2 SLP309 T01220094
3285965,GYI,2008-06-13 11:05,-96.6737,33.7141,73.40,68.00,83.21,170.00,10.00,M,29.93,M,10.00,M,CLR,   ,   ,M,M,M,M,M,M,M,M,M,M,M,M,73.40,METAR KGYI 131105Z AUTO 17010KT 10SM CLR 23/20 A2993 RMK AO2
1178777,RDK,2008-02-27 22:55,-95.2624,41.0106,37.40,28.40,69.67,20.00,4.00,M,30.13,M,10.00,-99.00,M,M,M,M,M,M,M,M,M,M,M,M,M,M,M,33.73,M
3365841,CSQ,2008-06-17 06:13,-94.3608,41.0188,56.00,48.00,74.45,330.00,6.00,M,30.13,M,10.00,M,M,M,M,M,M,M,M,M,M,M,M,M,M,M,M,56.00,M
4267683,PWG,2008-08-01 08:15,-97.3165,31.4849,82.40,71.60,69.90,180.00,12.00,M,29.85,M,10.00,15.00,SCT,   ,   ,M,12000.00,M,M,M,M,M,M,M,M,M,M,87.18,METAR KPWG 010815Z AUTO 18012G15KT 10SM SCT120 28/22 A2985 RMK AO1
3837693,ALW,2008-07-10 13:53,-118.289,46.0948,71.06,48.92,45.43,200.00,6.00,M,29.93,1012.40,10.00,M,CLR,   ,   ,M,M,M,M,M,M,M,M,M,M,M,M,70.00,METAR KALW 101353Z 20006KT 10SM CLR 22/09 A2993 RMK AO2 SLP124 T02170094
981061,HHF,2008-02-18 11:27,-100.404,35.895,32.00,17.60,54.87,0.00,0.00,M,30.11,M,10.00,M,SCT,SCT,   ,M,9000.00,10000.00,M,M,M,M,M,M,M,M,M,32.00,METAR KHHF 181127Z AUTO 00000KT 10SM SCT090 SCT100 00/M08 A3011 RMK AO2
6945613,EBG,2008-12-09 03:25,-98.1222,26.4417,73.58,67.10,80.18,180.00,13.00,M,29.73,M,7.00,18.00,SCT,   ,   ,M,1700.00,M,M,M,M,M,M,M,M,M,M,73.58,METAR KEBG 090325Z AUTO 18013G18KT 7SM SCT017 23/20 A2973 RMK AO2 T02310195
4716819,PKV,2008-08-24 14:06,-96.681,28.654,78.80,71.60,78.62,270.00,7.00,M,29.94,M,2.00,M,CLR,   ,   ,M,M,M,M,M,HZ,M,M,M,M,M,M,81.70,METAR KPKV 241406Z AUTO 27007KT 2SM HZ CLR 26/22 A2994 RMK AO2
5621627,TVK,2008-10-06 09:15,-92.8983,40.6832,60.80,55.40,M,M,M,M,30.04,M,10.00,-99.00,M,M,M,M,M,M,M,M,M,M,M,M,M,M,M,M,M
4071533,HNR,2008-07-22 01:33,-95.3355,41.5834,75.00,70.00,84.46,20.00,4.00,M,29.97,M,10.00,M,M,M,M,M,M,M,M,M,M,M,M,M,M,M,M,76.17,M
26714,AXA,2008-01-02 08:53,-94.2724,43.0796,1.00,-4.00,78.95,320.00,9.00,M,30.64,M,M,18.00,M,M,M,M,M,M,M,M,M,M,M,M,M,M,M,-15.03,M
2207616,SHN,2008-04-19 08:53,-123.1476,47.2336,33.98,30.92,88.42,200.00,3.00,M,29.89,1012.70,10.00,M,OVC,   ,   ,M,800.00,M,M,M,M,M,M,M,M,M,M,30.95,METAR KSHN 190853Z AUTO 20003KT 10SM OVC008 01/M01 A2989 RMK AO2 SLP127 T00111006 58006
1942178,CSQ,2008-04-05 13:16,-94.3608,41.0188,42.00,36.00,79.11,210.00,11.00,M,29.95,M,7.00,M,M,M,M,M,M,M,M,M,M,M,M,M,M,M,M,35.10,M
3967852,DEH,2008-07-17 00:33,-91.7433,43.2755,81.00,73.00,76.70,150.00,3.00,M,30.10,M,10.00,M,M,M,M,M,M,M,M,M,M,M,M,M,M,M,M,85.81,M
1308707,TNB,2008-03-05 20:43,-81.65,36.2,35.60,26.60,69.46,260.00,14.00,M,29.92,M,10.00,19.00,CLR,   ,   ,M,M,M,M,M,M,M,M,M,M,M,M,25.80,METAR KTNB 052043Z AUTO 26014G19KT 10SM CLR 02/M03 A2992 RMK AO2
6669946,PVW,2008-11-25 23:45,-101.7173,34.1681,59.00,23.00,24.76,200.00,7.00,M,30.06,M,10.00,M,CLR,   ,   ,M,M,M,M,M,M,M,M,M,M,M,M,59.00,METAR KPVW 252345Z AUTO 20007KT 10SM CLR 15/M05 A3006 RMK AO2
3765803,DPL,2008-07-06 23:00,-77.98,35.0,87.80,68.00,51.98,180.00,3.00,M,30.01,M,10.00,M,CLR,   ,   ,M,M,M,M,M,M,M,M,M,M,M,M,91.43,METAR KDPL 062300Z AUTO 18003KT 10SM CLR 31/20 A3001 RMK AO2
3337247,HNR,2008-06-15 21:53,-95.3355,41.5834,84.00,52.00,33.19,320.00,8.00,M,29.92,M,10.00,M,M,M,M,M,M,M,M,M,M,M,M,M,M,M,M,82.36,M
3306543,TCM,2008-06-14 10:55,-122.4765,47.1377,46.94,41.00,79.70,200.00,5.00,M,30.24,1024.30,10.00,M,OVC,   ,   ,M,2000.00,M,M,M,M,M,M,M,M,M,M,44.14,METAR KTCM 141055Z AUTO 20005KT 10SM OVC020 08/05 A3024 RMK AO2 SLP243 T00830050
4081980,GDJ,2008-07-22 13:25,-97.8169,32.4444,80.60,64.40,57.84,0.00,0.00,M,29.98,M,10.00,M,CLR,   ,   ,M,M,M,M,M,M,M,M,M,M,M,M,82.27,METAR KGDJ 221325Z AUTO 00000KT 10SM CLR 27/18 A2998 RMK AO2
1180610,PIL,2008-02-28 00:53,-97.3378,26.1597,53.06,41.00,63.47,110.00,5.00,M,30.29,1025.50,10.00,M,CLR,   ,   ,M,M,M,M,M,M,M,M,M,M,M,M,53.06,METAR KPIL 280053Z AUTO 11005KT 10SM CLR 12/05 A3029 RMK AO2 SLP255 T01170050
3553082,CPC,2008-06-26 09:37,-78.7146,34.2753,71.60,71.60,100.00,0.00,0.00,M,30.11,M,2.50,M,   ,   ,   ,M,M,M,M,M,BR,M,M,M,M,M,M,73.16,METAR KCPC 260937Z AUTO 00000KT 2 1/2SM BR 22/22 A3011 RMK AO2 SKY OBSCURED
6406809,CCY,2008-11-13 16:06,-92.6132,43.073,45.00,43.00,92.65,200.00,15.00,M,29.47,M,7.00,M,M,M,M,M,M,M,M,M,M,M,M,M,M,M,M,37.63,M
3722194,OOA,2008-07-04 19:38,-92.4919,41.2273,80.00,57.00,M,M,M,M,30.07,M,10.00,M,M,M,M,M,M,M,M,M,M,M,M,M,M,M,M,M,M
5820383,SHL,2008-10-15 07:15,-95.8353,43.2082,46.40,44.60,93.40,210.00,9.00,M,30.13,M,10.00,-99.00,M,M,M,M,M,M,M,M,M,M,M,M,M,M,M,41.42,M
3714344,EBS,2008-07-04 10:36,-93.8691,42.4392,59.00,55.00,86.56,140.00,4.00,M,30.08,M,10.00,M,M,M,M,M,M,M,M,M,M,M,M,M,M,M,M,59.00,M
46662,CAV,2008-01-03 07:44,-93.7593,42.743,9.00,5.00,83.41,170.00,10.00,M,30.53,M,M,M,M,M,M,M,M,M,M,M,M,M,M,M,M,M,M,-5.87,M
2749632,DSV,2008-05-17 07:54,-77.713,42.5709,42.98,39.02,85.79,140.00,9.00,M,29.65,1005.10,10.00,M,BKN,BKN,   ,   ,7500.00,9000.00,M,M,M,M,M,M,M,M,M,37.17,METAR KDSV 170754Z AUTO 14009KT 10SM BKN075 BKN090 06/04 A2965 RMK AO2 SLP051 T00610039
4971580,CAV,2008-09-05 11:55,-93.7593,42.743,46.40,46.40,M,M,M,M,29.96,M,1.00,-99.00,M,M,M,M,M,M,M,M,M,M,M,M,M,M,M,M,M
3649035,BEA,2008-07-01 07:23,-97.791,28.3619,75.20,71.60,88.59,50.00,3.00,M,30.05,M,10.00,M,CLR,   ,   ,M,M,M,M,M,M,M,M,M,M,M,M,76.58,METAR KBEA 010723Z AUTO 05003KT 10SM CLR 24/22 A3005 RMK AO2
1333772,SNK,2008-03-07 01:26,-100.9505,32.6934,35.60,28.40,74.80,360.00,6.00,M,30.14,M,10.00,M,SCT,OVC,   ,M,4300.00,6000.00,M,M,M,M,M,M,M,M,M,29.87,METAR KSNK 070126Z AUTO 36006KT 10SM SCT043 OVC060 02/M02 A3014 RMK AO2
2529904,LBT,2008-05-06 01:54,-79.06,34.61,64.04,60.08,86.95,60.00,4.00,M,30.00,1015.80,7.00,M,SCT,BKN,OVC,M,5500.00,7500.00,9500.00,M,-RA,M,M,M,M,M,M,64.04,METAR KLBT 060154Z AUTO 06004KT 7SM -RA SCT055 BKN075 OVC095 18/16 A3000 RMK AO2 RAB38 SLP158 P0000 T01780156
4736145,BEA,2008-08-25 12:04,-97.791,28.3619,73.40,M,M,310.00,3.00,M,29.88,M,10.00,M,CLR,   ,   ,M,M,M,M,M,M,M,M,M,M,M,M,M,METAR KBEA 251204Z AUTO 31003KT 10SM CLR 23/ A2988 RMK AO2
426669,T82,2008-01-22 01:45,-98.9092,30.2432,57.20,55.40,93.69,150.00,3.00,M,30.12,M,0.50,M,OVC,   ,   ,M,100.00,M,M,M,M,M,M,M,M,M,M,57.20,METAR KT82 220145Z AUTO 15003KT 1/2SM OVC001 14/13 A3012 RMK AO1
3786302,EOK,2008-07-07 23:33,-91.4274,40.4615,92.00,75.00,57.75,210.00,8.00,M,29.80,M,10.00,M,M,M,M,M,M,M,M,M,M,M,M,M,M,M,M,103.19,M
7133928,3T5,2008-12-17 22:25,-96.95,29.91,53.60,51.80,93.60,0.00,4.00,M,30.10,M,1.25,M,OVC,   ,   ,M,700.00,M,M,M,BR,M,M,M,M,M,M,53.60,METAR K3T5 172225Z AUTO 00004KT 1 1/4SM BR OVC007 12/11 A3010 RMK AO2
1061850,AFP,2008-02-22 11:00,-80.0771,35.0206,33.80,33.80,100.00,360.00,5.00,M,30.03,M,3.00,M,OVC,   ,   ,M,600.00,M,M,M,RA,M,M,M,M,M,M,28.53,METAR KAFP 221100Z AUTO 36005KT 3SM RA OVC006 01/01 A3003 RMK AO2
7216270,BNW,2008-12-21 22:43,-93.8486,42.0486,-2.00,-8.00,74.93,290.00,18.00,M,30.34,M,5.50,25.00,M,M,M,M,M,M,M,M,M,M,M,M,M,M,M,-25.01,M
5001891,HNZ,2008-09-06 23:40,-78.53,36.36,80.60,73.40,78.76,210.00,4.00,M,29.86,M,10.00,M,CLR,   ,   ,M,M,M,M,M,M,M,M,M,M,M,M,85.32,METAR KHNZ 062340Z AUTO 21004KT 10SM CLR 27/23 A2986 RMK AO2
207653,PYX,2008-01-11 09:49,-100.75,36.414,30.20,26.60,86.28,220.00,4.00,M,29.83,M,10.00,M,CLR,   ,   ,M,M,M,M,M,M,M,M,M,M,M,M,25.32,METAR KPYX 110949Z AUTO 22004KT 10SM CLR M01/M03 A2983 RMK AO2
961921,RWV,2008-02-17 12:25,-96.7041,30.5155,42.80,42.80,100.00,210.00,8.00,M,29.77,M,10.00,M,CLR,   ,   ,M,M,M,M,M,M,M,M,M,M,M,M,37.42,METAR KRWV 171225Z AUTO 21008KT 10SM CLR 06/06 A2977 RMK AO2
5589064,PLU,2008-10-04 21:30,-122.2872,47.1039,57.20,51.80,82.12,220.00,11.00,M,29.55,M,10.00,26.00,FEW,SCT,BKN,M,1600.00,2200.00,3000.00,M,-DZ,M,M,M,M,M,M,57.20,METAR KPLU 042130Z AUTO 22011G26KT 10SM -DZ FEW016 SCT022 BKN030 14/11 A2955 RMK AO2
143223,TFP,2008-01-08 07:45,-97.2115,27.913,69.80,69.80,100.00,150.00,12.00,M,29.89,M,7.00,16.00,BKN,BKN,OVC,M,1300.00,1700.00,2500.00,M,M,M,M,M,M,M,M,69.80,METAR KTFP 080745Z AUTO 15012G16KT 7SM BKN013 BKN017 OVC025 21/21 A2989 RMK AO2
5773006,PEA,2008-10-13 03:55,-92.9431,41.3989,68.00,62.60,82.86,150.00,8.00,M,30.14,M,10.00,-99.00,M,M,M,M,M,M,M,M,M,M,M,M,M,M,M,68.00,M
1072997,ASJ,2008-02-22 23:23,-77.17,36.3,39.20,37.40,93.19,0.00,0.00,M,29.87,M,1.75,M,OVC,   ,   ,M,300.00,M,M,M,BR,M,M,M,M,M,M,39.20,METAR KASJ 222323Z AUTO 00000KT 1 3/4SM BR OVC003 04/03 A2987 RMK AO2
2616419,JNX,2008-05-10 13:22,-78.3903,35.5409,69.80,64.40,82.98,250.00,3.00,M,29.73,M,10.00,M,CLR,   ,   ,M,M,M,M,M,M,M,M,M,M,M,M,69.80,METAR KJNX 101322Z AUTO 25003KT 10SM CLR 21/18 A2973 RMK AO1
1115240,ORC,2008-02-24 22:03,-96.0606,42.9895,34.00,31.00,88.63,310.00,3.00,M,29.86,M,3.00,M,M,M,M,M,M,M,M,M,M,M,M,M,M,M,M,30.97,M
1162183,SDA,2008-02-27 04:54,-95.4112,40.7533,22.00,16.00,77.34,M,0.00,M,30.23,M,10.00,M,M,M,M,M,M,M,M,M,M,M,M,M,M,M,M,22.00,M
3836005,EWN,2008-07-10 11:54,-77.0472,35.0675,73.94,69.98,87.45,240.00,4.00,M,30.05,1017.40,10.00,M,CLR,   ,   ,M,M,M,M,M,M,M,M,M,M,M,M,75.14,METAR KEWN 101154Z 24004KT 10SM CLR 23/21 A3005 RMK AO2 SLP174 60000 70001 T02330211 10233 20217 51013
2299891,ORC,2008-04-24 01:35,-96.0606,42.9895,69.80,50.00,49.37,140.00,9.00,M,29.88,M,10.00,16.00,M,M,M,M,M,M,M,M,M,M,M,M,M,M,M,69.80,M
87603,OMK,2008-01-05 08:53,-119.5181,48.4644,39.02,30.92,72.46,170.00,11.00,0.05,28.99,982.40,10.00,M,BKN,BKN,   ,M,4400.00,5500.00,M,M,M,M,M,M,M,M,M,31.34,METAR KOMK 050853Z AUTO 17011KT 10SM BKN044 BKN055 04/M01 A2899 RMK AO2 SLP824 P0005 60013 T00391006 51013
349992,IAG,2008-01-18 07:53,-78.9462,43.1073,37.04,35.06,92.46,220.00,22.00,0.06,29.67,1005.80,4.00,26.00,OVC,   ,   ,   ,900.00,M,M,M,-RA BR,M,M,M,M,M,M,25.33,METAR KIAG 180753Z AUTO 22022G26KT 4SM -RA BR OVC009 03/02 A2967 RMK AO2 PK WND 20028/0656 CIG 007V013 SLP058 P0006 T00280017
3815720,MNZ,2008-07-09 11:49,-98.1486,31.6659,66.20,64.40,93.92,170.00,4.00,M,30.07,M,5.00,M,CLR,   ,   ,M,M,M,M,M,BR,M,M,M,M,M,M,66.20,METAR KMNZ 091149Z AUTO 17004KT 5SM BR CLR 19/18 A3007 RMK AO2 LTG DSNT NW
4035738,OOA,2008-07-20 07:05,-92.4919,41.2273,71.00,69.00,93.40,220.00,4.00,M,29.91,M,10.00,M,M,M,M,M,M,M,M,M,M,M,M,M,M,M,M,72.19,M
5396181,ECU,2008-09-25 23:05,-100.1739,29.9469,82.40,51.80,34.69,70.00,5.00,M,30.21,M,10.00,M,CLR,   ,   ,M,M,M,M,M,M,M,M,M,M,M,M,81.20,METAR KECU 252305Z AUTO 07005KT 10SM CLR 28/11 A3021 RMK AO2
4680688,LUD,2008-08-22 21:45,-97.5805,33.2542,93.20,62.60,36.35,140.00,9.00,M,29.90,M,10.00,M,CLR,   ,   ,M,M,M,M,M,M,M,M,M,M,M,M,93.20,METAR KLUD 222145Z AUTO 14009KT 10SM CLR 34/17 A2990 RMK AO2
7079229,TDF,2008-12-15 07:21,-78.9842,36.2849,44.60,39.20,81.20,0.00,0.00,M,30.41,M,10.00,M,OVC,   ,   ,M,8000.00,M,M,M,M,M,M,M,M,M,M,44.60,METAR KTDF 150721Z AUTO 00000KT 10SM OVC080 07/04 A3041 RMK AO1
594591,DEH,2008-01-30 05:34,-91.7433,43.2755,-8.00,-17.00,63.79,300.00,11.00,M,29.75,M,10.00,27.00,M,M,M,M,M,M,M,M,M,M,M,M,M,M,M,-28.08,M
432907,AUS,2008-01-22 08:53,-97.6699,30.1945,53.96,53.06,96.76,10.00,3.00,M,30.12,1020.00,0.00,M,VV ,   ,   ,M,100.00,M,M,M,FG,M,M,M,M,M,M,53.96,METAR KAUS 220853Z 01003KT 0SM FG VV001 12/12 A3012 RMK AO2 SLP200 T01220117 58008 RVRNO $
29066,SLB,2008-01-02 11:33,-95.2399,42.5972,-1.00,-6.00,78.77,310.00,11.00,M,30.69,M,M,M,M,M,M,M,M,M,M,M,M,M,M,M,M,M,M,-19.24,M
1704424,FFL,2008-03-24 03:46,-91.9834,41.0521,33.00,27.00,78.34,310.00,7.00,M,30.39,M,10.00,M,M,M,M,M,M,M,M,M,M,M,M,M,M,M,M,26.00,M
2236885,SEA,2008-04-20 20:53,-122.3144,47.4447,42.98,32.00,64.93,10.00,5.00,M,30.03,1018.00,10.00,M,SCT,BKN,   ,M,2600.00,4500.00,M,M,M,M,M,M,M,M,M,39.44,METAR KSEA 202053Z 01005KT 10SM SCT026 BKN045 06/00 A3003 RMK AO2 RAB03E13 SLP180 P0000 60000 T00610000 50002 $
1188736,GLE,2008-02-28 16:24,-97.1969,33.6514,55.40,24.80,30.40,190.00,16.00,M,30.04,M,10.00,20.00,CLR,   ,   ,M,M,M,M,M,M,M,M,M,M,M,M,55.40,METAR KGLE 281624Z AUTO 19016G20KT 10SM CLR 13/M04 A3004 RMK AO2
4588291,CIN,2008-08-18 08:15,-94.7889,42.0444,64.40,59.00,82.62,230.00,6.00,M,30.01,M,10.00,-99.00,M,M,M,M,M,M,M,M,M,M,M,M,M,M,M,64.40,M
4658976,OOA,2008-08-21 19:35,-92.4919,41.2273,73.40,69.80,88.51,170.00,7.00,M,29.92,M,10.00,-99.00,M,M,M,M,M,M,M,M,M,M,M,M,M,M,M,74.60,M
2565000,JFK,2008-05-07 21:51,-73.7622,40.6386,62.96,39.02,41.18,160.00,14.00,0.00,29.88,1011.80,10.00,17.00,BKN,   ,   ,   ,25000.00,M,M,M,M,M,M,M,M,M,M,62.96,KJFK 072151Z 16014G17KT 10SM BKN250 17/04 A2988 RMK AO2 SLP118 T01720039 $
3070572,GPM,2008-06-02 18:50,-97.0469,32.6988,89.60,68.00,49.10,170.00,11.00,M,29.89,M,10.00,18.00,FEW,   ,   ,M,30000.00,M,M,M,M,M,M,M,M,M,M,93.47,METAR KGPM 021850Z 17011G18KT 10SM FEW300 32/20 A2989
3969755,PWT,2008-07-17 02:35,-122.7648,47.4903,71.60,48.20,43.42,210.00,9.00,M,30.15,M,10.00,M,CLR,   ,   ,M,M,M,M,M,M,M,M,M,M,M,M,70.50,METAR KPWT 170235Z AUTO 21009KT 10SM CLR 22/09 A3015 RMK AO1
2600644,LRJ,2008-05-09 17:48,-96.1923,42.7754,60.00,50.00,69.49,50.00,6.00,M,29.90,M,10.00,M,M,M,M,M,M,M,M,M,M,M,M,M,M,M,M,60.00,M
6946025,GKY,2008-12-09 03:53,-97.0943,32.6639,69.08,60.98,75.40,190.00,12.00,M,29.65,1003.30,10.00,22.00,FEW,   ,   ,M,2700.00,M,M,M,M,M,M,M,M,M,M,69.08,METAR KGKY 090353Z AUTO 19012G22KT 10SM FEW027 21/16 A2965 RMK AO2 PK WND 17028/0329 LTG DSNT SW-N PRESRR SLP033 T02060161
6030186,PVW,2008-10-24 20:45,-101.7173,34.1681,73.40,23.00,15.03,280.00,6.00,M,29.98,M,10.00,M,CLR,   ,   ,M,M,M,M,M,M,M,M,M,M,M,M,71.15,METAR KPVW 242045Z AUTO 28006KT 10SM CLR 23/M05 A2998 RMK AO2
2135961,F05,2008-04-15 18:45,-99.2837,34.2257,77.00,41.00,27.53,180.00,20.00,M,29.96,M,10.00,25.00,   ,   ,   ,M,M,M,M,M,M,M,M,M,M,M,M,75.69,METAR KF05 151845Z AUTO 18020G25KT 10SM 25/05 A2996 RMK AO2
1956882,CSQ,2008-04-06 06:55,-94.3608,41.0188,44.60,35.60,70.48,160.00,11.00,M,29.76,M,10.00,-99.00,M,M,M,M,M,M,M,M,M,M,M,M,M,M,M,38.39,M
4168250,LRJ,2008-07-26 15:05,-96.1923,42.7754,69.00,63.00,81.19,310.00,4.00,M,30.16,M,10.00,M,M,M,M,M,M,M,M,M,M,M,M,M,M,M,M,69.00,M
4527300,CNC,2008-08-15 04:44,-93.3608,41.0184,66.00,60.00,80.98,90.00,6.00,M,30.03,M,10.00,M,M,M,M,M,M,M,M,M,M,M,M,M,M,M,M,66.00,M
7372421,ADU,2008-12-29 11:33,-94.9204,41.6994,31.00,25.00,78.16,0.00,0.00,M,29.97,M,10.00,M,M,M,M,M,M,M,M,M,M,M,M,M,M,M,M,31.00,M
222779,3T5,2008-01-12 02:48,-96.95,29.91,51.80,33.80,50.08,170.00,4.00,M,29.89,M,10.00,M,CLR,   ,   ,M,M,M,M,M,M,M,M,M,M,M,M,51.80,METAR K3T5 120248Z AUTO 17004KT 10SM CLR 11/01 A2989 RMK AO2
4298101,RYW,2008-08-02 22:45,-97.9659,30.4967,96.80,59.00,28.63,160.00,4.00,M,29.91,M,10.00,M,SCT,   ,   ,M,7000.00,M,M,M,M,M,M,M,M,M,M,96.80,METAR KRYW 022245Z AUTO 16004KT 10SM SCT070 36/15 A2991 RMK AO2
5673161,DNS,2008-10-08 17:13,-95.38,41.9842,70.00,41.00,34.85,180.00,13.00,M,29.92,M,10.00,M,M,M,M,M,M,M,M,M,M,M,M,M,M,M,M,70.00,M
734825,DEH,2008-02-06 03:55,-91.7433,43.2755,31.00,29.00,92.19,30.00,4.00,M,29.86,M,5.50,M,M,M,M,M,M,M,M,M,M,M,M,M,M,M,M,26.25,M
5021792,BKD,2008-09-08 00:23,-98.891,32.719,89.60,51.80,27.56,190.00,10.00,M,29.96,M,10.00,M,CLR,   ,   ,M,M,M,M,M,M,M,M,M,M,M,M,87.00,METAR KBKD 080023Z AUTO 19010KT 10SM CLR 32/11 A2996 RMK AO2
1494432,HWV,2008-03-14 10:56,-72.8689,40.8217,37.04,33.98,88.57,M,3.00,M,29.86,1011.10,7.00,M,OVC,   ,   ,   ,10000.00,M,M,M,M,M,M,M,M,M,M,34.45,METAR KHWV 141056Z AUTO VRB03KT 7SM OVC100 03/01 A2986 RMK AO2 SLP111 T00280011 TSNO
7407616,EPH,2008-12-30 23:53,-119.5147,47.3081,26.06,21.92,84.10,10.00,10.00,M,30.25,1025.90,10.00,M,CLR,   ,   ,M,M,M,M,M,M,M,M,M,M,M,M,15.52,METAR KEPH 302353Z AUTO 01010KT 10SM CLR M03/M06 A3025 RMK AO2 SLP259 T10331056 11028 21078 56021
4365991,GVT,2008-08-06 14:45,-96.0653,33.0678,82.40,69.80,65.74,180.00,11.00,M,30.06,M,10.00,M,SCT,   ,   ,M,6000.00,M,M,M,M,M,M,M,M,M,M,86.22,METAR KGVT 061445Z AUTO 18011KT 10SM SCT060 28/21 A3006 RMK AO2
5000945,IKV,2008-09-06 22:25,-93.5695,41.6878,66.00,58.00,75.39,140.00,3.00,M,30.03,M,10.00,M,M,M,M,M,M,M,M,M,M,M,M,M,M,M,M,66.00,M
4919251,FSW,2008-09-03 04:03,-91.3267,40.6615,69.00,66.00,90.17,350.00,11.00,M,30.06,M,10.00,15.00,M,M,M,M,M,M,M,M,M,M,M,M,M,M,M,69.00,M
7185143,PYX,2008-12-20 10:11,-100.75,36.414,42.80,19.40,38.75,280.00,13.00,M,29.84,M,10.00,M,CLR,   ,   ,M,M,M,M,M,M,M,M,M,M,M,M,35.40,METAR KPYX 201011Z AUTO 28013KT 10SM CLR 06/M07 A2984 RMK AO2
2876347,AIO,2008-05-23 21:04,-95.0465,41.4059,58.00,51.00,77.47,100.00,10.00,M,30.00,M,10.00,16.00,M,M,M,M,M,M,M,M,M,M,M,M,M,M,M,58.00,M
5844149,GTB,2008-10-16 08:55,-75.7195,44.0556,52.16,52.16,100.00,50.00,3.00,0.18,29.84,1011.00,7.00,M,OVC,   ,   ,   ,1100.00,M,M,M,RA,M,M,M,M,M,M,52.16,METAR KGTB 160855Z AUTO 05003KT 7SM R21/5000V5500FT R33/5500FT RA OVC011 11/11 A2984 RMK AO2 SLP110 P0018 60023 T01120112 55009
3442286,FQD,2008-06-20 22:08,-81.9351,35.4282,84.20,48.20,28.63,0.00,0.00,M,30.04,M,10.00,M,CLR,   ,   ,M,M,M,M,M,M,M,M,M,M,M,M,82.04,METAR KFQD 202208Z AUTO 00000KT 10SM CLR 29/09 A3004 RMK AO2
555788,RAS,2008-01-28 07:45,-97.09,27.81,60.80,57.20,87.92,140.00,5.00,M,30.17,M,10.00,M,BKN,   ,   ,M,3600.00,M,M,M,M,M,M,M,M,M,M,60.80,METAR KRAS 280745Z AUTO 14005KT 10SM BKN036 16/14 A3017 RMK AO2
1421386,BNW,2008-03-11 04:43,-93.8486,42.0486,29.00,23.00,77.98,200.00,7.00,M,30.28,M,10.00,M,M,M,M,M,M,M,M,M,M,M,M,M,M,M,M,21.12,M
4297955,11R,2008-08-02 22:27,-96.3742,30.2189,100.40,55.40,22.54,170.00,3.00,M,29.87,M,10.00,M,CLR,   ,   ,M,M,M,M,M,M,M,M,M,M,M,M,99.06,METAR K11R 022227Z AUTO 17003KT 10SM CLR 38/13 A2987 RMK AO2
6633624,GDJ,2008-11-24 08:05,-97.8169,32.4444,59.00,55.40,87.83,310.00,5.00,M,30.12,M,10.00,M,SCT,   ,   ,M,3500.00,M,M,M,M,M,M,M,M,M,M,59.00,METAR KGDJ 240805Z AUTO 31005KT 10SM SCT035 15/13 A3012 RMK AO2
500929,F39,2008-01-25 14:25,-96.6667,33.7167,32.00,30.20,92.97,90.00,6.00,M,30.39,M,5.00,M,SCT,BKN,OVC,M,500.00,3500.00,5000.00,M,UP,M,M,M,M,M,M,25.53,METAR KGYI 251425Z AUTO 09006KT 5SM UP SCT005 BKN035 OVC050 00/M01 A3039 RMK AO2
2036184,OOA,2008-04-10 13:37,-92.4919,41.2273,43.00,40.00,89.06,80.00,21.00,0.07,29.70,M,3.00,31.00,M,M,M,M,M,M,M,M,M,M,M,M,M,M,M,33.52,M
3560508,TDF,2008-06-26 18:41,-78.9842,36.2849,96.80,50.00,20.62,250.00,6.00,M,30.01,M,10.00,M,SCT,   ,   ,M,8000.00,M,M,M,M,M,M,M,M,M,M,93.71,METAR KTDF 261841Z AUTO 25006KT 10SM SCT080 36/10 A3001
4661755,SDA,2008-08-21 22:55,-95.4112,40.7533,78.80,68.00,69.52,190.00,4.00,M,29.84,M,10.00,-99.00,M,M,M,M,M,M,M,M,M,M,M,M,M,M,M,81.10,M
6326543,GPM,2008-11-09 16:50,-97.0469,32.6988,62.60,30.20,29.35,100.00,9.00,M,30.11,M,10.00,M,CLR,   ,   ,M,M,M,M,M,M,M,M,M,M,M,M,62.60,METAR KGPM 091650Z 10009KT 10SM SKC 17/M01 A3011
4967925,SDA,2008-09-05 08:12,-95.4112,40.7533,47.00,42.00,M,M,M,M,29.96,M,1.75,M,M,M,M,M,M,M,M,M,M,M,M,M,M,M,M,M,M
5226301,SSF,2008-09-18 03:53,-98.4711,29.337,71.06,51.08,49.23,90.00,6.00,M,30.13,1019.60,10.00,M,BKN,   ,   ,M,9500.00,M,M,M,M,M,M,M,M,M,M,71.06,METAR KSSF 180353Z AUTO 09006KT 10SM BKN095 22/11 A3013 RMK AO2 SLP196 T02170106
6859149,PRO,2008-12-05 05:55,-94.1637,41.8278,17.60,8.60,67.28,240.00,6.00,M,30.50,M,10.00,-99.00,M,M,M,M,M,M,M,M,M,M,M,M,M,M,M,8.19,M
839004,MRH,2008-02-11 08:56,-76.6606,34.7336,39.92,10.04,28.78,360.00,11.00,M,30.24,1024.10,10.00,M,CLR,   ,   ,M,M,M,M,M,M,M,M,M,M,M,M,32.48,METAR KMRH 110856Z AUTO 36011KT 10SM CLR 04/M12 A3024 RMK AO2 SLP241 T00441122 51036 TSNO
4186048,SKF,2008-07-27 13:55,-98.5811,29.3842,75.56,71.96,88.60,170.00,6.00,M,30.02,1015.70,10.00,M,BKN,   ,   ,M,2500.00,M,M,M,M,M,M,M,M,M,M,76.98,METAR KSKF 271355Z 17006KT 10SM BKN025 24/22 A3002 RMK AO2A SLP157 T02420222 $
4858873,HQZ,2008-08-31 03:45,-96.5304,32.747,78.80,69.80,73.95,0.00,0.00,M,29.98,M,7.00,M,CLR,   ,   ,M,M,M,M,M,M,M,M,M,M,M,M,81.39,METAR KHQZ 310345Z AUTO 00000KT 7SM CLR 26/21 A2998 RMK AO1
1652335,DEH,2008-03-21 12:35,-91.7433,43.2755,32.00,30.20,92.97,90.00,16.00,M,29.98,M,3.00,26.00,M,M,M,M,M,M,M,M,M,M,M,M,M,M,M,20.42,M
250898,LNC,2008-01-13 10:50,-96.719,32.5792,32.00,32.00,100.00,290.00,4.00,M,30.17,M,10.00,M,CLR,   ,   ,M,M,M,M,M,M,M,M,M,M,M,M,27.42,METAR KLNC 131050Z AUTO 29004KT 10SM CLR 00/00 A3017 RMK AO2
6870838,VUJ,2008-12-05 19:55,-80.1508,35.4167,51.80,24.80,34.69,50.00,6.00,M,30.19,M,10.00,M,CLR,   ,   ,M,M,M,M,M,M,M,M,M,M,M,M,51.80,METAR KVUJ 051955Z 05006KT 10SM SKC 11/M04 A3019
5433002,SMP,2008-09-27 13:56,-121.3372,47.2767,44.06,42.08,92.69,M,4.00,M,30.17,1021.60,0.25,M,BKN,OVC,   ,M,100.00,3500.00,M,M,FG,M,M,M,M,M,M,41.50,METAR KSMP 271356Z AUTO VRB04KT 1/4SM FG BKN001 OVC035 07/06 A3017 RMK AO2 SLP216 T00670056 TSNO
2598390,ICL,2008-05-09 14:58,-95.0223,40.7242,53.00,46.00,77.03,130.00,4.00,M,29.83,M,10.00,M,M,M,M,M,M,M,M,M,M,M,M,M,M,M,M,53.00,M
3844762,CLS,2008-07-10 22:10,-122.9827,46.677,71.60,50.00,46.43,250.00,7.00,M,30.11,M,10.00,M,CLR,   ,   ,M,M,M,M,M,M,M,M,M,M,M,M,71.60,METAR KCLS 102210Z AUTO 25007KT 10SM CLR 22/10 A3011 RMK AO2
5459525,MFE,2008-09-28 18:53,-98.2386,26.1758,86.00,53.96,33.45,360.00,4.00,M,30.05,1017.50,10.00,M,CLR,   ,   ,M,M,M,M,M,M,M,M,M,M,M,M,84.25,METAR KMFE 281853Z 36004KT 10SM CLR 30/12 A3005 RMK AO2 SLP175 T03000122
1656909,KLS,2008-03-21 17:55,-122.9,46.12,42.80,35.60,75.50,140.00,8.00,M,30.54,M,10.00,M,SCT,   ,   ,M,1800.00,M,M,M,M,M,M,M,M,M,M,37.42,METAR KKLS 211755Z AUTO 14008KT 090V160 10SM SCT018 06/02 A3054 RMK AO1 60001 10060 20030 52020
293818,KLS,2008-01-15 12:35,-122.9,46.12,33.80,33.80,100.00,0.00,0.00,0.01,30.55,M,7.00,M,BKN,BKN,OVC,M,900.00,2100.00,5500.00,M,M,M,M,M,M,M,M,33.80,METAR KKLS 151235Z AUTO 00000KT 7SM BKN009 BKN021 OVC055 01/01 A3055 RMK AO1 P0001
155274,FSW,2008-01-08 23:05,-91.3267,40.6615,35.00,34.00,96.09,300.00,12.00,M,29.78,M,M,M,M,M,M,M,M,M,M,M,M,M,M,M,M,M,M,25.82,M
3442760,GPM,2008-06-20 22:50,-97.0469,32.6988,95.00,60.80,32.27,0.00,0.00,M,29.94,M,10.00,M,CLR,   ,   ,M,M,M,M,M,M,M,M,M,M,M,M,95.00,METAR KGPM 202250Z 00000KT 10SM SKC 35/16 A2994
1828049,BNW,2008-03-30 12:15,-93.8486,42.0486,39.20,33.80,80.79,130.00,3.00,M,30.07,M,10.00,-99.00,M,M,M,M,M,M,M,M,M,M,M,M,M,M,M,36.92,M
6877350,RYW,2008-12-06 03:25,-97.9659,30.4967,41.00,15.80,35.57,120.00,3.00,M,30.23,M,10.00,M,CLR,   ,   ,M,M,M,M,M,M,M,M,M,M,M,M,38.98,METAR KRYW 060325Z AUTO 12003KT 10SM CLR 05/M09 A3023 RMK AO2
3617803,SLB,2008-06-29 13:15,-95.2399,42.5972,64.40,59.00,82.62,320.00,13.00,M,30.01,M,10.00,18.00,M,M,M,M,M,M,M,M,M,M,M,M,M,M,M,64.40,M
631635,CKP,2008-02-01 06:43,-95.5538,42.7304,6.00,2.00,83.19,M,0.00,M,30.03,M,10.00,M,M,M,M,M,M,M,M,M,M,M,M,M,M,M,M,6.00,M
2588174,FSW,2008-05-09 01:57,-91.3267,40.6615,58.00,40.00,51.03,40.00,6.00,M,29.76,M,10.00,M,M,M,M,M,M,M,M,M,M,M,M,M,M,M,M,58.00,M
2573402,T82,2008-05-08 08:05,-98.9092,30.2432,57.20,46.40,67.12,0.00,0.00,M,M,M,10.00,M,CLR,   ,   ,M,M,M,M,M,M,M,M,M,M,M,M,57.20,METAR KT82 080805Z AUTO 00000KT 10SM CLR 14/08 RMK AO1
4458575,RNT,2008-08-11 11:53,-122.2157,47.4931,60.98,53.06,75.14,170.00,3.00,M,30.12,1020.40,10.00,M,BKN,OVC,   ,M,6000.00,7500.00,M,M,M,M,M,M,M,M,M,60.98,METAR KRNT 111153Z AUTO 17003KT 10SM BKN060 OVC075 16/12 A3012 RMK AO2 SLP204 T01610117 10172 20156 56005
5968762,OOA,2008-10-22 00:35,-92.4919,41.2273,53.00,32.00,44.58,80.00,10.00,M,30.19,M,10.00,16.00,M,M,M,M,M,M,M,M,M,M,M,M,M,M,M,53.00,M
7017508,FOD,2008-12-12 09:35,-94.2032,42.5497,8.60,3.20,78.18,0.00,0.00,M,30.19,M,10.00,-99.00,M,M,M,M,M,M,M,M,M,M,M,M,M,M,M,8.60,M
6137673,GNC,2008-10-30 20:05,-102.6527,32.6753,80.60,41.00,24.46,230.00,7.00,M,30.23,M,10.00,15.00,CLR,   ,   ,M,M,M,M,M,M,M,M,M,M,M,M,79.20,METAR KGNC 302005Z AUTO 23007G15KT 10SM CLR 27/05 A3023 RMK AO2
1731938,MTP,2008-03-25 13:54,-71.9233,41.0731,35.96,21.92,56.32,50.00,10.00,M,30.31,1026.20,M,17.00,   ,   ,   ,   ,M,M,M,M,M,M,M,M,M,M,M,27.93,METAR KMTP 251354Z AUTO 05010G17KT 02/M06 A3031 RMK AO2 SLP262 T00221056 PWINO FZRANO TSNO
6019135,ABI,2008-10-24 07:52,-99.6819,32.4113,44.96,28.94,53.17,80.00,7.00,M,30.11,1018.80,10.00,M,CLR,   ,   ,M,M,M,M,M,M,M,M,M,M,M,M,40.58,METAR KABI 240752Z 08007KT 10SM CLR 07/M02 A3011 RMK AO2 SLP188 T00721017
77638,CBF,2008-01-04 20:45,-95.7604,41.2611,36.00,26.00,66.69,180.00,12.00,M,29.84,M,M,M,M,M,M,M,M,M,M,M,M,M,M,M,M,M,M,27.09,M
6598591,SJT,2008-11-22 18:51,-100.495,31.3517,64.04,42.08,44.64,200.00,14.00,M,30.26,1024.70,10.00,22.00,CLR,   ,   ,M,M,M,M,M,M,M,M,M,M,M,M,64.04,METAR KSJT 221851Z 20014G22KT 10SM CLR 18/06 A3026 RMK AO2 SLP247 T01780056
5249022,MXO,2008-09-19 04:35,-91.1605,42.2204,62.60,57.20,82.50,150.00,5.00,M,30.20,M,10.00,-99.00,M,M,M,M,M,M,M,M,M,M,M,M,M,M,M,62.60,M
5888012,CWI,2008-10-18 08:15,-90.3328,41.8295,35.60,33.80,93.08,350.00,3.00,M,30.32,M,0.50,-99.00,M,M,M,M,M,M,M,M,M,M,M,M,M,M,M,32.80,M
336927,VUJ,2008-01-17 16:22,-80.1508,35.4167,33.80,30.20,86.49,10.00,7.00,0.04,30.07,M,3.00,M,   ,   ,   ,M,M,M,M,M,M,M,M,M,M,M,M,26.97,METAR KVUJ 171622Z AUTO 01007KT 3SM 01/M01 A3007 RMK AO2 P0004
679755,HRX,2008-02-03 12:45,-102.3264,34.8578,33.80,24.80,69.25,260.00,9.00,M,29.86,M,10.00,M,CLR,   ,   ,M,M,M,M,M,M,M,M,M,M,M,M,25.75,METAR KHRX 031245Z AUTO 26009KT 10SM CLR 01/M04 A2986 RMK AO2
1218402,KLS,2008-03-01 16:15,-122.9,46.12,41.00,39.20,93.24,150.00,8.00,M,30.11,M,7.00,M,SCT,BKN,OVC,M,3000.00,3600.00,4400.00,M,M,M,M,M,M,M,M,35.20,METAR KKLS 011615Z AUTO 15008KT 7SM SCT030 BKN036 OVC044 05/04 A3011 RMK AO1
3920580,BNW,2008-07-14 17:33,-93.8486,42.0486,85.00,66.00,53.04,200.00,5.00,M,29.95,M,10.00,M,M,M,M,M,M,M,M,M,M,M,M,M,M,M,M,87.24,M
4155088,PAE,2008-07-25 22:53,-122.2816,47.907,73.04,48.02,41.07,260.00,7.00,M,30.04,1016.90,10.00,M,CLR,   ,   ,M,M,M,M,M,M,M,M,M,M,M,M,71.97,METAR KPAE 252253Z AUTO 26007KT 10SM CLR 23/09 A3004 RMK AO2 SLP169 T02280089 TSNO
1386668,OLZ,2008-03-09 15:51,-91.976,42.6831,22.00,17.00,80.77,290.00,7.00,M,30.17,M,10.00,M,M,M,M,M,M,M,M,M,M,M,M,M,M,M,M,12.59,M
1191782,OCH,2008-02-29 01:35,-94.7094,31.5778,62.60,48.20,59.26,180.00,12.00,M,30.06,M,10.00,21.00,OVC,   ,   ,M,6000.00,M,M,M,M,M,M,M,M,M,M,62.60,METAR KOCH 290135Z AUTO 18012G21KT 10SM OVC060 17/09 A3006 RMK AO1
4919416,RDK,2008-09-03 04:15,-95.2624,41.0106,62.60,53.60,72.38,360.00,10.00,M,30.18,M,10.00,15.00,M,M,M,M,M,M,M,M,M,M,M,M,M,M,M,62.60,M
6194090,PEZ,2008-11-02 20:04,-98.52,28.9542,82.40,50.00,32.46,150.00,7.00,M,30.13,M,10.00,M,SCT,   ,   ,M,7500.00,M,M,M,M,M,M,M,M,M,M,80.99,METAR KPEZ 022004Z AUTO 15007KT 10SM SCT075 28/10 A3013 RMK AO2
4849426,SDA,2008-08-30 17:32,-95.4112,40.7533,82.00,62.00,50.80,170.00,11.00,M,30.11,M,10.00,M,M,M,M,M,M,M,M,M,M,M,M,M,M,M,M,82.89,M
3959755,LRJ,2008-07-16 15:13,-96.1923,42.7754,79.00,66.00,64.45,110.00,6.00,M,30.03,M,0.24,M,M,M,M,M,M,M,M,M,M,M,M,M,M,M,M,81.01,M
1178277,PEZ,2008-02-27 22:25,-98.52,28.9542,68.00,-25.60,1.80,220.00,3.00,M,30.21,M,10.00,M,CLR,   ,   ,M,M,M,M,M,M,M,M,M,M,M,M,68.00,METAR KPEZ 272225Z AUTO 22003KT 10SM CLR 20/M32 A3021 RMK AO2
4876600,GYB,2008-09-01 06:07,-96.98,30.17,77.00,68.00,73.78,0.00,0.00,M,29.89,M,10.00,M,CLR,   ,   ,M,M,M,M,M,M,M,M,M,M,M,M,77.00,METAR KGYB 010607Z AUTO 00000KT 10SM CLR 25/20 A2989 RMK AO2
60326,PEQ,2008-01-03 23:47,-103.51,31.38,55.40,10.40,16.34,70.00,8.00,M,30.24,M,10.00,M,CLR,   ,   ,M,M,M,M,M,M,M,M,M,M,M,M,55.40,METAR KPEQ 032347Z AUTO 07008KT 10SM CLR 13/M12 A3024 RMK AO2
3286365,DPL,2008-06-13 11:41,-77.98,35.0,69.80,68.00,94.01,0.00,0.00,M,30.23,M,7.00,M,CLR,   ,   ,M,M,M,M,M,M,M,M,M,M,M,M,69.80,METAR KDPL 131141Z AUTO 00000KT 7SM CLR 21/20 A3023 RMK AO2
3471405,ELP,2008-06-22 08:51,-106.3758,31.8111,73.94,48.92,41.21,0.00,0.00,M,30.23,1015.70,10.00,M,FEW,SCT,   ,M,18000.00,25000.00,M,M,M,M,M,M,M,M,M,73.94,METAR KELP 220851Z 00000KT 10SM FEW180 SCT250 23/09 A3023 RMK AO2 SLP157 T02330094 56009
6634134,PVW,2008-11-24 08:45,-101.7173,34.1681,41.00,21.20,44.85,20.00,13.00,M,30.28,M,10.00,21.00,CLR,   ,   ,M,M,M,M,M,M,M,M,M,M,M,M,33.10,METAR KPVW 240845Z AUTO 02013G21KT 10SM CLR 05/M06 A3028 RMK AO2
4295799,HRX,2008-08-02 19:45,-102.3264,34.8578,91.40,50.00,24.37,230.00,5.00,M,30.04,M,10.00,22.00,SCT,   ,   ,M,8000.00,M,M,M,M,M,M,M,M,M,M,88.36,METAR KHRX 021945Z AUTO 23005G22KT 10SM SCT080 33/10 A3004 RMK AO2
1520512,CLM,2008-03-15 14:53,-123.5,48.12,41.00,35.96,82.09,250.00,8.00,M,29.94,1013.90,10.00,M,OVC,   ,   ,M,4800.00,M,M,M,M,M,M,M,M,M,M,35.20,METAR KCLM 151453Z AUTO 25008KT 10SM OVC048 05/02 A2994 RMK AO2 RAB1359E22 SLP139 P0000 60000 T00500022 51014 $
3972817,3T5,2008-07-17 06:05,-96.95,29.91,77.00,71.60,83.44,0.00,0.00,M,30.02,M,10.00,M,CLR,   ,   ,M,M,M,M,M,M,M,M,M,M,M,M,78.32,METAR K3T5 170605Z AUTO 00000KT 10SM CLR 25/22 A3002 RMK AO2
4291833,FWS,2008-08-02 14:49,-97.3033,32.573,89.60,68.00,49.10,240.00,8.00,M,29.97,M,20.00,M,CLR,   ,   ,M,M,M,M,M,M,M,M,M,M,M,M,93.47,METAR KFWS 021449Z 24008KT 20SM SKC 32/20 A2997
1105664,HNR,2008-02-24 11:15,-95.3355,41.5834,26.60,26.60,100.00,190.00,7.00,M,30.06,M,3.50,-99.00,M,M,M,M,M,M,M,M,M,M,M,M,M,M,M,18.20,M
6162383,MUT,2008-11-01 06:53,-91.1406,41.367,51.00,49.00,M,M,M,M,30.28,M,5.50,M,M,M,M,M,M,M,M,M,M,M,M,M,M,M,M,M,M
4136465,IKV,2008-07-25 02:14,-93.5695,41.6878,70.00,69.00,96.64,100.00,7.00,M,29.97,M,2.00,M,M,M,M,M,M,M,M,M,M,M,M,M,M,M,M,70.00,M
1795828,IGX,2008-03-28 21:56,-79.0642,35.9333,75.92,48.92,38.57,0.00,0.00,M,29.91,1012.40,9.00,M,SCT,   ,   ,M,7500.00,M,M,M,M,M,M,M,M,M,M,75.92,METAR KIGX 282156Z AUTO 00000KT 9SM SCT075 24/09 A2991 RMK AO2 SLP124 T02440094
6860316,11R,2008-12-05 07:25,-96.3742,30.2189,35.60,24.80,64.46,10.00,6.00,M,30.41,M,10.00,M,CLR,   ,   ,M,M,M,M,M,M,M,M,M,M,M,M,29.87,METAR K11R 050725Z AUTO 01006KT 10SM CLR 02/M04 A3041 RMK AO2
4962022,TNU,2008-09-05 01:55,-93.019,41.6701,55.40,51.80,87.65,360.00,4.00,M,29.90,M,10.00,-99.00,M,M,M,M,M,M,M,M,M,M,M,M,M,M,M,55.40,M
4952136,AXA,2008-09-04 15:15,-94.2724,43.0796,57.20,53.60,M,M,M,M,29.99,M,10.00,-99.00,M,M,M,M,M,M,M,M,M,M,M,M,M,M,M,M,M
1349605,FFL,2008-03-07 20:26,-91.9834,41.0521,25.00,14.00,62.50,10.00,11.00,M,30.27,M,10.00,21.00,M,M,M,M,M,M,M,M,M,M,M,M,M,M,M,13.62,M
634420,RWI,2008-02-01 09:53,-77.8919,35.8563,39.02,37.94,95.86,50.00,3.00,M,30.12,1020.10,9.00,M,OVC,   ,   ,M,600.00,M,M,M,M,M,M,M,M,M,M,36.71,METAR KRWI 010953Z AUTO 05003KT 9SM OVC006 04/03 A3012 RMK AO2 RAE15B35E48 SLP201 P0000 T00390033
1367533,TVK,2008-03-08 17:23,-92.8983,40.6832,23.00,1.00,37.74,200.00,7.00,M,30.04,M,10.00,M,M,M,M,M,M,M,M,M,M,M,M,M,M,M,M,13.81,M
6343488,NBT,2008-11-10 12:56,-76.4625,35.0222,53.06,M,M,350.00,9.00,M,30.14,1021.00,10.00,M,CLR,   ,   ,M,M,M,M,M,M,M,M,M,M,M,M,M,METAR KNBT 101256Z AUTO 35009KT 10SM CLR 12/ A3014 RMK AO2 SLP210 T0117 TSNO $
3618381,INT,2008-06-29 13:54,-80.222,36.1337,78.08,64.04,62.05,240.00,6.00,M,30.00,1014.60,10.00,M,CLR,   ,   ,M,M,M,M,M,M,M,M,M,M,M,M,78.08,METAR KINT 291354Z 24006KT 10SM CLR 26/18 A3000 RMK AO2 SLP146 T02560178
2769149,LGA,2008-05-18 08:51,-73.8803,40.7794,59.00,48.92,69.17,270.00,8.00,M,29.48,998.30,10.00,M,FEW,   ,   ,   ,10000.00,M,M,M,M,M,M,M,M,M,M,59.00,METAR KLGA 180851Z 27008KT 10SM FEW100 15/09 A2948 RMK AO2 SLP983 T01500094 53003
5997548,HRJ,2008-10-23 08:23,-78.7336,35.3786,41.00,37.40,M,M,M,M,30.47,M,10.00,M,CLR,   ,   ,M,M,M,M,M,M,M,M,M,M,M,M,M,METAR KHRJ 230823Z AUTO 10SM CLR 05/03 A3047 RMK AO2
726441,CSQ,2008-02-05 18:34,-94.3608,41.0188,32.00,28.00,84.98,30.00,15.00,M,29.87,M,2.50,21.00,M,M,M,M,M,M,M,M,M,M,M,M,M,M,M,20.78,M
1138516,AWG,2008-02-25 23:33,-91.6748,41.2751,35.00,33.00,92.32,40.00,8.00,0.04,29.74,M,1.50,M,M,M,M,M,M,M,M,M,M,M,M,M,M,M,M,27.81,M
2038085,GLE,2008-04-10 16:03,-97.1969,33.6514,68.00,55.40,64.04,210.00,11.00,M,29.61,M,10.00,15.00,CLR,   ,   ,M,M,M,M,M,M,M,M,M,M,M,M,68.00,METAR KGLE 101603Z AUTO 21011G15KT 10SM CLR 20/13 A2961 RMK AO2
3428336,ORC,2008-06-20 05:55,-96.0606,42.9895,62.60,55.40,77.29,290.00,6.00,M,29.98,M,10.00,-99.00,M,M,M,M,M,M,M,M,M,M,M,M,M,M,M,62.60,M
1979194,FFL,2008-04-07 09:16,-91.9834,41.0521,35.00,27.00,72.32,270.00,15.00,M,29.93,M,10.00,18.00,M,M,M,M,M,M,M,M,M,M,M,M,M,M,M,24.67,M
4794856,IFA,2008-08-28 06:35,-93.2651,42.4691,68.00,64.40,88.26,200.00,8.00,0.02,29.75,M,7.00,-99.00,M,M,M,M,M,M,M,M,M,M,M,M,M,M,M,68.00,M
2565159,KLS,2008-05-07 21:55,-122.9,46.12,53.60,35.60,50.36,300.00,11.00,M,30.26,M,10.00,16.00,OVC,   ,   ,M,4600.00,M,M,M,M,M,M,M,M,M,M,53.60,METAR KKLS 072155Z AUTO 30011G16KT 10SM OVC046 12/02 A3026 RMK AO1
7257739,RWV,2008-12-23 23:25,-96.7041,30.5155,51.80,50.00,93.55,190.00,6.00,M,29.93,M,9.00,M,OVC,   ,   ,M,800.00,M,M,M,M,M,M,M,M,M,M,51.80,METAR KRWV 232325Z AUTO 19006KT 9SM OVC008 11/10 A2993 RMK AO2
6826028,ELM,2008-12-03 14:53,-76.8916,42.1599,30.92,19.04,60.97,220.00,6.00,M,30.17,1022.70,10.00,M,OVC,   ,   ,   ,11000.00,M,M,M,M,M,M,M,M,M,M,24.23,METAR KELM 031453Z 22006KT 10SM OVC110 M01/M07 A3017 RMK AO2 SLP227 T10061072 56007
7126941,F05,2008-12-17 14:27,-99.2837,34.2257,32.00,28.40,86.39,50.00,4.00,M,30.14,M,4.00,M,CLR,   ,   ,M,M,M,M,M,M,M,M,M,M,M,M,27.42,METAR KF05 171427Z AUTO 05004KT 4SM CLR 00/M02 A3014 RMK AO2
2671359,YKM,2008-05-13 08:53,-120.5441,46.5682,50.00,35.96,58.34,260.00,7.00,M,30.07,1018.10,10.00,M,BKN,   ,   ,M,11000.00,M,M,M,M,M,M,M,M,M,M,46.72,METAR KYKM 130853Z AUTO 26007KT 10SM BKN110 10/02 A3007 RMK AO2 SLP181 T01000022 51002
5596673,SOA,2008-10-05 05:45,-100.6486,30.5857,69.80,50.00,49.37,160.00,9.00,M,30.05,M,10.00,M,CLR,   ,   ,M,M,M,M,M,M,M,M,M,M,M,M,69.80,METAR KSOA 050545Z AUTO 16009KT 10SM CLR 21/10 A3005 RMK AO2
3087799,TKI,2008-06-03 14:53,-96.59,33.18,82.04,68.00,62.53,190.00,17.00,M,29.81,1008.80,10.00,25.00,CLR,   ,   ,M,M,M,M,M,M,M,M,M,26.00,190.00,2008-06-03 14:33,84.97,METAR KTKI 031453Z 19017G25KT 10SM CLR 28/20 A2981 RMK AO2 PK WND 19026/1433 SLP088 T02780200 50003
4246896,BEA,2008-07-31 00:44,-97.791,28.3619,86.00,75.20,70.27,140.00,10.00,M,29.77,M,10.00,M,CLR,   ,   ,M,M,M,M,M,M,M,M,M,M,M,M,95.19,METAR KBEA 310044Z AUTO 14010KT 10SM CLR 30/24 A2977 RMK AO2
2679128,T82,2008-05-13 18:05,-98.9092,30.2432,80.60,68.00,65.54,250.00,6.00,M,29.83,M,7.00,M,BKN,BKN,   ,M,3200.00,4000.00,M,M,M,M,M,M,M,M,M,83.29,METAR KT82 131805Z AUTO 25006KT 7SM BKN032 BKN040 27/20 A2983 RMK AO1
261786,AXA,2008-01-13 23:14,-94.2724,43.0796,23.00,18.00,80.85,300.00,3.00,M,30.06,M,7.00,M,M,M,M,M,M,M,M,M,M,M,M,M,M,M,M,18.40,M
3963436,TFP,2008-07-16 19:25,-97.2115,27.913,89.60,69.80,52.23,140.00,9.00,M,30.02,M,10.00,M,CLR,   ,   ,M,M,M,M,M,M,M,M,M,M,M,M,94.85,METAR KTFP 161925Z AUTO 14009KT 10SM CLR 32/21 A3002 RMK AO2 LTG DSNT N
1431184,CKP,2008-03-11 15:01,-95.5538,42.7304,40.00,30.00,67.18,210.00,8.00,M,29.92,M,10.00,M,M,M,M,M,M,M,M,M,M,M,M,M,M,M,M,33.97,M
3456309,FZY,2008-06-21 14:54,-76.3847,43.3497,73.04,57.92,59.08,M,4.00,M,30.03,1016.70,10.00,M,CLR,   ,   ,   ,M,M,M,M,M,M,M,M,M,M,M,73.04,METAR KFZY 211454Z AUTO VRB04KT 10SM CLR 23/14 A3003 RMK AO2 SLP167 T02280144 50001
1871705,VTI,2008-04-01 22:44,-92.0248,42.2176,46.00,28.00,49.18,310.00,8.00,M,30.30,M,10.00,M,M,M,M,M,M,M,M,M,M,M,M,M,M,M,M,41.36,M
529536,MWL,2008-01-26 23:53,-98.0602,32.7816,57.92,28.04,31.74,20.00,4.00,M,30.21,1023.10,10.00,M,CLR,   ,   ,M,M,M,M,M,M,M,M,M,M,M,M,57.92,METAR KMWL 262353Z AUTO 02004KT 10SM CLR 14/M02 A3021 RMK AO2 SLP231 T01441022 10194 20111 53017
961695,RBO,2008-02-17 12:05,-97.6905,27.7785,44.60,42.80,93.35,290.00,7.00,M,29.81,M,7.00,M,CLR,   ,   ,M,M,M,M,M,M,M,M,M,M,M,M,40.14,METAR KRBO 171205Z AUTO 29007KT 7SM CLR 07/06 A2981 RMK AO2
2106525,JWY,2008-04-14 06:45,-96.9125,32.4561,42.80,26.60,52.45,350.00,4.00,M,30.31,M,10.00,M,CLR,   ,   ,M,M,M,M,M,M,M,M,M,M,M,M,40.03,METAR KJWY 140645Z AUTO 35004KT 10SM CLR 06/M03 A3031 RMK AO2
1056229,OLZ,2008-02-22 04:19,-91.976,42.6831,17.00,11.00,76.87,160.00,5.00,M,30.02,M,10.00,M,M,M,M,M,M,M,M,M,M,M,M,M,M,M,M,8.58,M
4423093,JSO,2008-08-09 14:45,-95.22,31.87,73.40,69.80,88.51,160.00,4.00,M,30.00,M,10.00,M,SCT,SCT,   ,M,6000.00,8000.00,M,M,M,M,M,M,M,M,M,74.60,METAR KJSO 091445Z AUTO 16004KT 10SM SCT060 SCT080 23/21 A3000 RMK AO2 LTG DSNT NW
511195,F39,2008-01-26 02:25,-96.6667,33.7167,35.60,32.00,86.59,190.00,9.00,M,30.24,M,7.00,M,OVC,   ,   ,M,700.00,M,M,M,M,M,M,M,M,M,M,27.99,METAR KGYI 260225Z AUTO 19009KT 7SM OVC007 02/00 A3024 RMK AO2
4610760,GEG,2008-08-19 10:53,-117.528,47.6216,60.98,57.92,89.65,160.00,6.00,M,29.81,1007.30,9.00,M,SCT,BKN,   ,M,10000.00,14000.00,M,M,M,M,M,M,M,M,M,60.98,METAR KGEG 191053Z 16006KT 9SM SCT100 BKN140 16/14 A2981 RMK AO2 SLP073 T01610144
3744777,NCA,2008-07-05 21:56,-77.4397,34.7084,82.04,73.94,76.53,170.00,10.00,M,29.99,1015.60,10.00,17.00,SCT,   ,   ,M,2300.00,M,M,M,M,M,M,M,M,M,M,88.02,METAR KNCA 052156Z 17010G17KT 10SM SCT023 28/23 A2999 RMK AO2 SLP156 T02780233
1300025,SSF,2008-03-05 10:53,-98.4711,29.337,37.04,28.04,69.63,0.00,0.00,M,29.89,1012.20,10.00,M,CLR,   ,   ,M,M,M,M,M,M,M,M,M,M,M,M,37.04,METAR KSSF 051053Z AUTO 00000KT 10SM CLR 03/M02 A2989 RMK AO2 SLP122 T00281022 TSNO PNO $
3151533,DEH,2008-06-06 14:13,-91.7433,43.2755,72.00,65.00,78.62,190.00,16.00,M,29.53,M,10.00,25.00,M,M,M,M,M,M,M,M,M,M,M,M,M,M,M,72.00,M
5668550,FOD,2008-10-08 12:15,-94.2032,42.5497,37.40,33.80,M,M,M,M,29.93,M,10.00,-99.00,M,M,M,M,M,M,M,M,M,M,M,M,M,M,M,M,M
891521,LRJ,2008-02-13 23:47,-96.1923,42.7754,28.00,24.00,84.72,140.00,8.00,M,29.61,M,10.00,M,M,M,M,M,M,M,M,M,M,M,M,M,M,M,M,19.19,M
2980320,SDA,2008-05-29 01:44,-95.4112,40.7533,63.00,57.00,80.76,90.00,4.00,M,30.18,M,10.00,M,M,M,M,M,M,M,M,M,M,M,M,M,M,M,M,63.00,M
5875523,IGX,2008-10-17 18:56,-79.0642,35.9333,57.92,51.98,80.55,20.00,7.00,M,30.03,1016.40,2.50,M,OVC,   ,   ,M,600.00,M,M,M,HZ,M,M,M,M,M,M,57.92,METAR KIGX 171856Z AUTO 02007KT 2 1/2SM HZ OVC006 14/11 A3003 RMK AO2 SLP164 T01440111
2099831,RBO,2008-04-13 22:05,-97.6905,27.7785,80.60,23.00,11.83,340.00,9.00,M,30.17,M,M,17.00,CLR,   ,   ,M,M,M,M,M,M,M,M,M,M,M,M,78.80,METAR KRBO 132205Z AUTO 34009G17KT CLR 27/M05 A3017 RMK AO2 PWINO
3408843,AQO,2008-06-19 06:45,-98.6619,30.7836,78.80,66.20,65.33,0.00,0.00,M,29.90,M,10.00,M,CLR,   ,   ,M,M,M,M,M,M,M,M,M,M,M,M,80.82,METAR KAQO 190645Z AUTO 00000KT 10SM CLR 26/19 A2990 RMK AO2 PWINO TSNO
6153351,PEA,2008-10-31 17:35,-92.9431,41.3989,71.60,55.40,56.63,0.00,0.00,M,30.27,M,10.00,M,CLR,   ,   ,M,M,M,M,M,M,M,M,M,M,M,M,71.60,METAR KPEA 311735Z AUTO 00000KT 10SM CLR 22/13 A3027 RMK AO2
4481080,EBS,2008-08-12 16:44,-93.8691,42.4392,66.00,62.00,M,M,M,M,29.90,M,10.00,M,M,M,M,M,M,M,M,M,M,M,M,M,M,M,M,M,M
4709822,BYY,2008-08-24 06:26,-95.8634,28.9733,77.00,73.40,88.67,270.00,3.00,M,29.94,M,10.00,M,SCT,   ,   ,M,1100.00,M,M,M,M,M,M,M,M,M,M,78.57,METAR KBYY 240626Z AUTO 27003KT 10SM SCT011 25/23 A2994 RMK AO2
6938373,RCZ,2008-12-08 19:41,-79.76,34.89,50.00,17.60,27.33,0.00,0.00,M,30.34,M,10.00,M,CLR,   ,   ,M,M,M,M,M,M,M,M,M,M,M,M,50.00,METAR KRCZ 081941Z AUTO 00000KT 10SM CLR 10/M08 A3034 RMK AO2
5652817,HYI,2008-10-07 19:15,-97.863,29.8927,86.00,51.80,30.90,20.00,19.00,M,30.10,M,10.00,23.00,CLR,   ,   ,M,M,M,M,M,M,M,M,M,M,M,M,83.87,METAR KHYI 071915Z AUTO 02019G23KT 10SM CLR 30/11 A3010 RMK AO1
5086799,AXA,2008-09-11 10:15,-94.2724,43.0796,62.60,57.20,82.50,170.00,14.00,M,29.91,M,5.00,17.00,M,M,M,M,M,M,M,M,M,M,M,M,M,M,M,62.60,M
5545233,SEP,2008-10-02 22:24,-98.1777,32.2153,87.80,39.20,18.09,0.00,0.00,M,29.92,M,10.00,M,CLR,   ,   ,M,M,M,M,M,M,M,M,M,M,M,M,84.22,METAR KSEP 022224Z AUTO 00000KT 10SM CLR 31/04 A2992 RMK AO1
4468217,CDS,2008-08-11 23:53,-100.2881,34.4339,M,M,M,M,M,M,29.82,M,M,M,   ,   ,   ,M,M,M,M,M,M,M,M,M,M,M,M,M,METAR KCDS 112353Z AUTO A2982 RMK AO2 SLPNO 6//// 56013 PWINO FZRANO
1423370,GGG,2008-03-11 06:53,-94.7115,32.384,46.94,44.96,92.78,320.00,5.00,M,30.28,1025.50,1.50,M,CLR,   ,   ,M,M,M,M,M,BR,M,M,M,M,M,M,44.14,METAR KGGG 110653Z AUTO 32005KT 1 1/2SM BR CLR 08/07 A3028 RMK AO2 SLP255 T00830072
6814139,LBX,2008-12-03 00:53,-95.4621,29.1086,64.04,55.94,74.94,170.00,8.00,M,30.11,1019.60,10.00,M,OVC,   ,   ,M,3900.00,M,M,M,M,M,M,M,M,M,M,64.04,METAR KLBX 030053Z AUTO 17008KT 10SM OVC039 18/13 A3011 RMK AO2 SLP196 T01780133
2156228,GLE,2008-04-16 19:24,-97.1969,33.6514,68.00,55.40,64.04,170.00,18.00,M,29.92,M,10.00,29.00,OVC,   ,   ,M,3200.00,M,M,M,M,M,M,M,M,M,M,68.00,METAR KGLE 161924Z AUTO 17018G29KT 10SM OVC032 20/13 A2992 RMK AO2
1452815,SKF,2008-03-12 13:55,-98.5811,29.3842,47.48,42.80,83.71,310.00,2.00,M,30.15,1020.60,7.00,M,CLR,   ,   ,M,M,M,M,M,M,M,M,M,M,M,M,47.48,METAR KSKF 121355Z 31002KT 7SM CLR 09/06 A3015 RMK AO2A SLP206 T00860060 VISNO RWY33 CHINO RWY33 $
2983948,ILE,2008-05-29 06:15,-97.6865,31.0858,71.60,64.40,78.04,0.00,0.00,M,30.09,M,10.00,M,CLR,   ,   ,M,M,M,M,M,M,M,M,M,M,M,M,71.60,METAR KILE 290615Z AUTO 00000KT 10SM CLR 22/18 A3009 RMK AO1
6980721,POB,2008-12-10 17:55,-79.0145,35.1709,68.90,64.58,86.11,220.00,10.00,M,30.03,1017.10,10.00,17.00,OVC,   ,   ,M,1400.00,M,M,M,M,M,M,M,M,M,M,68.90,METAR KPOB 101755Z 22010G17KT 10SM OVC014 20/18 A3003 RMK AO2A SLP171 T02050181 10205 20167 58015 $
3405626,COT,2008-06-19 02:53,-99.2183,28.4567,84.92,60.98,44.59,120.00,8.00,M,29.82,1008.90,10.00,M,CLR,   ,   ,M,M,M,M,M,M,M,M,M,M,M,M,85.13,METAR KCOT 190253Z AUTO 12008KT 10SM CLR 29/16 A2982 RMK AO2 SLP089 T02940161 53012
4146349,DKK,2008-07-25 12:53,-79.272,42.4933,71.06,57.02,61.16,210.00,9.00,M,30.09,1018.50,10.00,M,CLR,   ,   ,   ,M,M,M,M,M,M,M,M,M,M,M,71.06,METAR KDKK 251253Z AUTO 21009KT 10SM CLR 22/14 A3009 RMK AO2 SLP185 T02170139
2754908,3T5,2008-05-17 15:45,-96.95,29.91,71.60,57.20,60.44,0.00,0.00,M,30.05,M,10.00,M,SCT,   ,   ,M,10000.00,M,M,M,M,M,M,M,M,M,M,71.60,METAR K3T5 171545Z AUTO 00000KT 10SM SCT100 22/14 A3005 RMK AO2
4013224,ELZ,2008-07-19 02:56,-77.99,42.11,66.92,62.06,84.38,0.00,0.00,M,30.10,1017.80,7.00,M,CLR,   ,   ,   ,M,M,M,M,M,M,M,M,M,M,M,66.92,METAR KELZ 190256Z AUTO 00000KT 7SM CLR 19/17 A3010 RMK AO2 SLP178 T01940167 53003
1883583,IPJ,2008-04-02 13:01,-81.1612,35.4833,57.20,50.00,76.82,40.00,7.00,M,30.24,M,10.00,M,BKN,   ,   ,M,9500.00,M,M,M,M,M,M,M,M,M,M,57.20,METAR KIPJ 021301Z AUTO 04007KT 10SM BKN095 14/10 A3024 RMK AO1
989059,CSQ,2008-02-18 20:58,-94.3608,41.0188,14.00,1.00,55.54,300.00,22.00,M,29.98,M,10.00,27.00,M,M,M,M,M,M,M,M,M,M,M,M,M,M,M,-5.52,M
2341406,PEQ,2008-04-26 04:45,-103.51,31.38,62.60,17.60,17.32,0.00,0.00,M,29.99,M,10.00,M,CLR,   ,   ,M,M,M,M,M,M,M,M,M,M,M,M,62.60,METAR KPEQ 260445Z AUTO 00000KT 10SM CLR 17/M08 A2999 RMK AO2
4763671,EOK,2008-08-26 20:13,-91.4274,40.4615,79.00,52.00,39.06,60.00,4.00,M,29.96,M,10.00,M,M,M,M,M,M,M,M,M,M,M,M,M,M,M,M,79.00,M
3850376,BLI,2008-07-11 04:53,-122.5375,48.7927,57.92,48.02,69.52,180.00,8.00,M,30.15,1021.60,10.00,M,CLR,   ,   ,M,M,M,M,M,M,M,M,M,M,M,M,57.92,METAR KBLI 110453Z 18008KT 10SM CLR 14/09 A3015 RMK AO2 SLP216 T01440089
7241825,OLZ,2008-12-23 04:43,-91.976,42.6831,6.00,0.00,75.78,140.00,13.00,M,30.21,M,10.00,M,M,M,M,M,M,M,M,M,M,M,M,M,M,M,M,-11.74,M
5510389,PSN,2008-10-01 09:05,-95.7063,31.7797,62.60,48.20,59.26,30.00,4.00,M,30.09,M,10.00,M,CLR,   ,   ,M,M,M,M,M,M,M,M,M,M,M,M,62.60,METAR KPSN 010905Z AUTO 03004KT 10SM CLR 17/09 A3009 RMK AO2
3403654,HRJ,2008-06-19 00:40,-78.7336,35.3786,78.80,57.20,47.52,0.00,0.00,M,29.84,M,10.00,M,CLR,   ,   ,M,M,M,M,M,M,M,M,M,M,M,M,78.80,METAR KHRJ 190040Z AUTO 00000KT 10SM CLR 26/14 A2984 RMK AO2
3732702,E38,2008-07-05 07:45,-103.684,30.384,64.40,60.80,88.09,170.00,5.00,M,30.12,M,10.00,M,CLR,   ,   ,M,M,M,M,M,M,M,M,M,M,M,M,64.40,METAR KE38 050745Z AUTO 17005KT 10SM CLR 18/16 A3012 RMK AO2
226510,CKP,2008-01-12 07:03,-95.5538,42.7304,29.00,24.00,81.32,M,0.00,M,29.78,M,10.00,M,M,M,M,M,M,M,M,M,M,M,M,M,M,M,M,29.00,M
2852221,FQD,2008-05-22 15:24,-81.9351,35.4282,73.40,37.40,26.98,0.00,0.00,M,29.86,M,10.00,M,SCT,   ,   ,M,9000.00,M,M,M,M,M,M,M,M,M,M,71.71,METAR KFQD 221524Z AUTO 00000KT 10SM SCT090 23/03 A2986 RMK AO2
2203986,OOA,2008-04-19 04:28,-92.4919,41.2273,51.00,49.00,92.83,230.00,4.00,M,29.72,M,5.00,M,M,M,M,M,M,M,M,M,M,M,M,M,M,M,M,51.00,M
5200026,HNR,2008-09-16 22:33,-95.3355,41.5834,82.00,51.00,34.12,210.00,6.00,M,30.15,M,10.00,M,M,M,M,M,M,M,M,M,M,M,M,M,M,M,M,80.84,M
3174399,EHO,2008-06-07 15:40,-81.6011,35.2556,89.60,68.00,49.10,230.00,8.00,M,30.20,M,10.00,M,CLR,   ,   ,M,M,M,M,M,M,M,M,M,M,M,M,93.47,METAR KEHO 071540Z AUTO 23008KT 10SM CLR 32/20 A3020 RMK AO2
1882015,RDK,2008-04-02 11:15,-95.2624,41.0106,30.20,28.40,M,M,M,M,30.37,M,7.00,-99.00,M,M,M,M,M,M,M,M,M,M,M,M,M,M,M,M,M
2588446,LHZ,2008-05-09 02:21,-78.3303,36.0233,71.60,62.60,73.27,170.00,12.00,M,29.75,M,10.00,18.00,CLR,   ,   ,M,M,M,M,M,M,M,M,M,M,M,M,71.60,METAR KLHZ 090221Z AUTO 17012G18KT 10SM CLR 22/17 A2975 RMK AO2
3199715,MRN,2008-06-09 03:20,-81.61,35.82,75.20,66.20,73.61,0.00,0.00,M,30.12,M,10.00,M,CLR,   ,   ,M,M,M,M,M,M,M,M,M,M,M,M,75.20,METAR KMRN 090320Z AUTO 00000KT 10SM CLR 24/19 A3012 RMK AO2
6628754,BPG,2008-11-24 02:45,-101.5216,32.2126,57.20,46.40,67.12,170.00,11.00,M,30.09,M,10.00,M,CLR,   ,   ,M,M,M,M,M,M,M,M,M,M,M,M,57.20,METAR KBPG 240245Z AUTO 17011KT 10SM CLR 14/08 A3009 RMK AO1
3839378,AMA,2008-07-10 15:53,-101.7059,35.2194,71.96,64.04,76.13,190.00,16.00,M,30.13,1015.90,10.00,23.00,BKN,OVC,   ,M,11000.00,15000.00,M,M,M,M,M,M,M,M,M,71.96,METAR KAMA 101553Z 19016G23KT 10SM BKN110 OVC150 22/18 A3013 RMK AO2 RAE1457 SLP159 P0000 T02220178 $
3560045,GGI,2008-06-26 18:00,-92.7332,41.7097,68.00,64.00,87.03,100.00,8.00,M,29.95,M,10.00,M,M,M,M,M,M,M,M,M,M,M,M,M,M,M,M,68.00,M
3633136,SAT,2008-06-30 07:53,-98.4698,29.5337,80.06,71.06,74.07,120.00,9.00,M,30.13,1018.30,10.00,M,FEW,SCT,BKN,M,2500.00,3900.00,4600.00,M,M,M,M,M,M,M,M,83.56,METAR KSAT 300753Z 12009KT 10SM FEW025 SCT039 BKN046 27/22 A3013 RMK AO2 SLP183 T02670217
4601523,ADU,2008-08-18 23:56,-94.9204,41.6994,81.00,63.00,M,M,M,M,30.02,M,10.00,M,M,M,M,M,M,M,M,M,M,M,M,M,M,M,M,M,M
1207563,SKA,2008-03-01 03:55,-117.6558,47.6151,41.72,34.16,74.33,170.00,11.00,M,29.70,1007.30,10.00,M,BKN,BKN,   ,M,10000.00,20000.00,M,M,M,M,M,M,M,M,M,34.75,METAR KSKA 010355Z 17011KT 10SM BKN100 BKN200 05/01 A2970 RMK AO2A SLP073 T00540012 $
6247900,ICL,2008-11-05 14:55,-95.0223,40.7242,62.60,50.00,63.38,170.00,14.00,M,29.63,M,10.00,20.00,M,M,M,M,M,M,M,M,M,M,M,M,M,M,M,62.60,M
2350143,RBO,2008-04-26 15:25,-97.6905,27.7785,73.40,62.60,68.94,100.00,13.00,M,29.98,M,10.00,M,CLR,   ,   ,M,M,M,M,M,M,M,M,M,M,M,M,73.40,METAR KRBO 261525Z AUTO 10013KT 10SM CLR 23/17 A2998 RMK AO2
4821009,CIN,2008-08-29 10:52,-94.7889,42.0444,51.00,49.00,M,M,M,M,30.03,M,10.00,M,M,M,M,M,M,M,M,M,M,M,M,M,M,M,M,M,M
662795,EAT,2008-02-02 17:55,-120.207,47.399,24.98,21.02,84.67,0.00,0.00,M,29.74,1008.50,10.00,M,BKN,OVC,   ,M,2000.00,6500.00,M,M,M,M,M,M,M,M,M,24.98,METAR KEAT 021755Z AUTO 00000KT 10SM BKN020 OVC065 M04/M06 A2974 RMK AO2 SLP085 T10391061 11033 21050 58016
1100695,ELP,2008-02-24 05:51,-106.3758,31.8111,57.02,15.98,19.70,360.00,7.00,M,30.21,1018.70,10.00,M,FEW,   ,   ,M,25000.00,M,M,M,M,M,M,M,M,M,M,57.02,METAR KELP 240551Z 36007KT 10SM FEW250 14/M09 A3021 RMK AO2 SLP187 T01391089 10194 20139 53025 $
3670636,UVA,2008-07-02 08:25,-99.7436,29.2113,69.80,68.00,94.01,60.00,4.00,M,29.99,M,10.00,M,CLR,   ,   ,M,M,M,M,M,M,M,M,M,M,M,M,69.80,METAR KUVA 020825Z AUTO 06004KT 10SM CLR 21/20 A2999 RMK AO2
1204482,PRO,2008-02-29 23:34,-94.1637,41.8278,37.00,32.00,81.93,270.00,12.00,M,30.17,M,10.00,M,M,M,M,M,M,M,M,M,M,M,M,M,M,M,M,28.37,M
5503452,IGX,2008-09-30 23:56,-79.0642,35.9333,68.00,62.96,83.91,0.00,0.00,M,29.82,1009.30,5.00,M,CLR,   ,   ,M,M,M,M,M,HZ,M,M,M,M,M,M,68.00,METAR KIGX 302356Z AUTO 00000KT 5SM HZ CLR 20/17 A2982 RMK AO2 SLP093 60000 T02000172 10278 20194 55002
1271793,RAS,2008-03-04 03:05,-97.09,27.81,55.40,33.80,43.90,340.00,24.00,M,30.15,M,10.00,31.00,CLR,   ,   ,M,M,M,M,M,M,M,M,M,M,M,M,55.40,METAR KRAS 040305Z AUTO 34024G31KT 10SM CLR 13/01 A3015 RMK AO2
3905620,NQI,2008-07-13 22:56,-97.8097,27.5072,89.96,73.94,59.42,120.00,16.00,M,29.91,1012.60,10.00,M,CLR,   ,   ,M,M,M,M,M,M,M,M,M,M,M,M,99.26,METAR KNQI 132256Z AUTO 12016KT 10SM CLR 32/23 A2991 RMK AO2 SLP126 T03220233
5201195,AQO,2008-09-16 23:45,-98.6619,30.7836,78.80,39.20,24.19,50.00,4.00,M,30.19,M,10.00,M,CLR,   ,   ,M,M,M,M,M,M,M,M,M,M,M,M,77.52,METAR KAQO 162345Z AUTO 05004KT 10SM CLR 26/04 A3019 RMK AO2
2801059,EXX,2008-05-19 23:40,-80.3038,35.7811,71.60,33.80,24.86,0.00,0.00,M,29.71,M,10.00,M,CLR,   ,   ,M,M,M,M,M,M,M,M,M,M,M,M,69.63,METAR KEXX 192340Z AUTO 00000KT 10SM CLR 22/01 A2971 RMK AO2
5930829,OXV,2008-10-20 07:13,-93.1114,41.2984,58.00,52.00,80.38,170.00,3.00,M,30.10,M,10.00,M,M,M,M,M,M,M,M,M,M,M,M,M,M,M,M,58.00,M
855527,ARM,2008-02-12 04:25,-96.1544,29.2543,64.40,59.00,82.62,130.00,15.00,M,29.94,M,10.00,M,CLR,   ,   ,M,M,M,M,M,M,M,M,M,M,M,M,64.40,METAR KARM 120425Z AUTO 13015KT 10SM CLR 18/15 A2994 RMK AO2 LTG DSNT E AND SE
5314279,IKV,2008-09-22 04:33,-93.5695,41.6878,64.00,63.00,96.55,150.00,3.00,M,30.21,M,5.50,M,M,M,M,M,M,M,M,M,M,M,M,M,M,M,M,64.00,M
2348617,EDE,2008-04-26 13:40,-76.5671,36.0277,69.80,60.80,73.09,240.00,4.00,M,30.08,M,10.00,M,CLR,   ,   ,M,M,M,M,M,M,M,M,M,M,M,M,69.80,METAR KEDE 261340Z AUTO 24004KT 10SM CLR 21/16 A3008 RMK AO2
2574576,AIO,2008-05-08 09:37,-95.0465,41.4059,42.00,35.00,76.03,360.00,5.00,M,29.82,M,10.00,M,M,M,M,M,M,M,M,M,M,M,M,M,M,M,M,38.27,M
2108375,CWI,2008-04-14 08:55,-90.3328,41.8295,28.40,23.00,79.92,40.00,3.00,M,30.26,M,10.00,-99.00,M,M,M,M,M,M,M,M,M,M,M,M,M,M,M,24.57,M
3638754,EBG,2008-06-30 16:25,-98.1222,26.4417,89.60,68.00,49.10,140.00,8.00,M,30.08,M,5.00,16.00,SCT,SCT,SCT,M,4000.00,4600.00,6500.00,M,HZ,M,M,M,M,M,M,93.47,METAR KEBG 301625Z AUTO 14008G16KT 100V160 5SM HZ SCT040 SCT046 SCT065 32/20 A3008 RMK AO2
2200534,PVW,2008-04-19 00:25,-101.7173,34.1681,69.80,17.60,13.49,290.00,7.00,M,29.97,M,10.00,M,CLR,   ,   ,M,M,M,M,M,M,M,M,M,M,M,M,69.80,METAR KPVW 190025Z AUTO 29007KT 10SM CLR 21/M08 A2997 RMK AO2
5599286,IFA,2008-10-05 08:33,-93.2651,42.4691,53.00,44.00,71.39,150.00,9.00,M,30.09,M,10.00,14.00,M,M,M,M,M,M,M,M,M,M,M,M,M,M,M,53.00,M
5960036,EOK,2008-10-21 15:15,-91.4274,40.4615,50.00,41.00,71.07,90.00,8.00,M,30.40,M,10.00,-99.00,M,M,M,M,M,M,M,M,M,M,M,M,M,M,M,46.29,M
2989436,CBF,2008-05-29 12:55,-95.7604,41.2611,64.40,60.80,88.09,180.00,9.00,M,30.07,M,4.00,-99.00,M,M,M,M,M,M,M,M,M,M,M,M,M,M,M,64.40,M
6703868,GDJ,2008-11-27 12:45,-97.8169,32.4444,41.00,35.60,80.93,0.00,0.00,M,30.07,M,10.00,M,CLR,   ,   ,M,M,M,M,M,M,M,M,M,M,M,M,41.00,METAR KGDJ 271245Z AUTO 00000KT 10SM CLR 05/02 A3007 RMK AO2
1770001,LUD,2008-03-27 14:08,-97.5805,33.2542,66.20,57.20,72.74,190.00,15.00,M,29.78,M,10.00,20.00,CLR,   ,   ,M,M,M,M,M,M,M,M,M,M,M,M,66.20,METAR KLUD 271408Z AUTO 19015G20KT 10SM CLR 19/14 A2978 RMK AO2
3564423,TNU,2008-06-26 23:18,-93.019,41.6701,72.00,66.00,81.41,240.00,6.00,M,29.82,M,10.00,M,M,M,M,M,M,M,M,M,M,M,M,M,M,M,M,72.00,M
657993,HRJ,2008-02-02 12:45,-78.7336,35.3786,33.80,30.20,86.49,0.00,0.00,M,30.29,M,7.00,M,CLR,   ,   ,M,M,M,M,M,M,M,M,M,M,M,M,33.80,METAR KHRJ 021245Z AUTO 00000KT 7SM CLR 01/M01 A3029 RMK AO2
6962640,CLM,2008-12-09 21:53,-123.5,48.12,44.06,39.92,85.25,0.00,0.00,M,30.24,1024.30,9.00,M,SCT,BKN,OVC,M,1000.00,1400.00,1900.00,M,M,M,M,M,M,M,M,44.06,METAR KCLM 092153Z AUTO 00000KT 9SM SCT010 BKN014 OVC019 07/04 A3024 RMK AO2 SLP243 T00670044
7327451,RZZ,2008-12-27 07:54,-77.71,36.44,44.06,41.00,88.90,0.00,0.00,M,30.43,1030.50,6.00,M,OVC,   ,   ,M,200.00,M,M,M,BR,M,M,M,M,M,M,44.06,METAR KRZZ 270754Z AUTO 00000KT 6SM BR OVC002 07/05 A3043 RMK AO2 SLP305 T00670050
4389740,OXV,2008-08-07 20:45,-93.1114,41.2984,83.00,62.00,49.17,30.00,6.00,M,30.08,M,10.00,M,M,M,M,M,M,M,M,M,M,M,M,M,M,M,M,83.75,M
7262605,GGI,2008-12-24 04:55,-92.7332,41.7097,32.00,32.00,100.00,210.00,5.00,M,29.75,M,2.00,-99.00,M,M,M,M,M,M,M,M,M,M,M,M,M,M,M,26.40,M
1750474,HNR,2008-03-26 13:26,-95.3355,41.5834,36.00,32.00,85.23,M,0.00,M,30.14,M,10.00,M,M,M,M,M,M,M,M,M,M,M,M,M,M,M,M,36.00,M
2236253,DNS,2008-04-20 19:58,-95.38,41.9842,66.00,52.00,60.60,120.00,19.00,M,29.80,M,10.00,28.00,M,M,M,M,M,M,M,M,M,M,M,M,M,M,M,66.00,M
2338617,DEH,2008-04-26 01:18,-91.7433,43.2755,43.00,35.00,73.16,250.00,9.00,M,29.65,M,10.00,21.00,M,M,M,M,M,M,M,M,M,M,M,M,M,M,M,37.19,M
5546907,T82,2008-10-03 00:05,-98.9092,30.2432,80.60,44.60,28.08,190.00,5.00,M,29.94,M,10.00,M,CLR,   ,   ,M,M,M,M,M,M,M,M,M,M,M,M,79.42,METAR KT82 030005Z AUTO 19005KT 10SM CLR 27/07 A2994 RMK AO1
2869013,GGI,2008-05-23 11:56,-92.7332,41.7097,52.00,47.00,82.99,90.00,11.00,M,30.00,M,10.00,21.00,M,M,M,M,M,M,M,M,M,M,M,M,M,M,M,52.00,M
2911065,HRJ,2008-05-25 14:41,-78.7336,35.3786,73.40,59.00,60.67,0.00,0.00,M,30.15,M,10.00,M,CLR,   ,   ,M,M,M,M,M,M,M,M,M,M,M,M,73.40,METAR KHRJ 251441Z AUTO 00000KT 10SM CLR 23/15 A3015 RMK AO2
5338992,UVA,2008-09-23 07:26,-99.7436,29.2113,75.20,69.80,83.32,140.00,6.00,M,30.13,M,10.00,M,SCT,   ,   ,M,7500.00,M,M,M,M,M,M,M,M,M,M,76.34,METAR KUVA 230726Z AUTO 14006KT 10SM SCT075 24/21 A3013 RMK AO2
2714188,FAY,2008-05-15 12:53,-78.8803,34.9912,64.04,57.02,77.92,220.00,6.00,M,30.06,1017.40,10.00,M,FEW,SCT,   ,M,8500.00,11000.00,M,M,M,M,M,M,M,M,M,64.04,METAR KFAY 151253Z AUTO 22006KT 10SM FEW085 SCT110 18/14 A3006 RMK AO2 RAB33E45 SLP174 P0000 T01780139
3302835,VTI,2008-06-14 06:55,-92.0248,42.2176,59.00,50.00,72.01,180.00,6.00,M,29.95,M,10.00,-99.00,M,M,M,M,M,M,M,M,M,M,M,M,M,M,M,59.00,M
4256606,E38,2008-07-31 14:45,-103.684,30.384,73.40,59.00,60.67,250.00,3.00,M,30.06,M,10.00,M,CLR,   ,   ,M,M,M,M,M,M,M,M,M,M,M,M,73.40,METAR KE38 311445Z AUTO 25003KT 10SM CLR 23/15 A3006 RMK AO2
2986725,RHP,2008-05-29 09:41,-83.863,35.1952,64.40,62.60,93.88,250.00,3.00,M,30.19,M,10.00,M,SCT,OVC,   ,M,1800.00,4200.00,M,M,M,M,M,M,M,M,M,64.40,METAR KRHP 290941Z AUTO 25003KT 10SM SCT018 OVC042 18/17 A3019 RMK AO2
4010338,CKP,2008-07-18 23:53,-95.5538,42.7304,83.00,69.00,62.74,70.00,6.00,M,29.92,M,10.00,M,M,M,M,M,M,M,M,M,M,M,M,M,M,M,M,86.55,M
1882378,EBG,2008-04-02 11:45,-98.1222,26.4417,71.60,68.00,88.43,70.00,3.00,M,30.02,M,5.00,M,OVC,   ,   ,M,3100.00,M,M,M,BR,M,M,M,M,M,M,72.62,METAR KEBG 021145Z AUTO 07003KT 5SM BR OVC031 22/20 A3002 RMK AO2
3993468,DNS,2008-07-18 05:01,-95.38,41.9842,71.00,67.00,87.19,120.00,3.00,M,30.02,M,10.00,M,M,M,M,M,M,M,M,M,M,M,M,M,M,M,M,71.00,M
150605,BWD,2008-01-08 17:04,-98.9565,31.7936,60.80,33.80,36.16,350.00,16.00,M,30.16,M,10.00,M,CLR,   ,   ,M,M,M,M,M,M,M,M,M,M,M,M,60.80,METAR KBWD 081704Z AUTO 35016KT 10SM CLR 16/01 A3016 RMK
6994578,GGI,2008-12-11 08:45,-92.7332,41.7097,22.00,17.00,80.77,0.00,0.00,M,30.06,M,10.00,M,M,M,M,M,M,M,M,M,M,M,M,M,M,M,M,22.00,M
5942200,ILE,2008-10-20 19:55,-97.6865,31.0858,80.60,55.40,41.97,190.00,3.00,M,30.15,M,10.00,M,CLR,   ,   ,M,M,M,M,M,M,M,M,M,M,M,M,80.53,METAR KILE 201955Z AUTO 19003KT 10SM CLR 27/13 A3015 RMK AO1
5379859,LRJ,2008-09-25 05:35,-96.1923,42.7754,M,M,M,160.00,5.00,M,30.26,M,7.00,-99.00,M,M,M,M,M,M,M,M,M,M,M,M,M,M,M,M,M
4981168,HNZ,2008-09-05 22:20,-78.53,36.36,77.00,73.40,88.67,40.00,6.00,M,29.90,M,10.00,M,OVC,   ,   ,M,2100.00,M,M,M,M,M,M,M,M,M,M,78.57,METAR KHNZ 052220Z AUTO 04006KT 10SM OVC021 25/23 A2990 RMK AO2
2730831,11R,2008-05-16 08:46,-96.3742,30.2189,62.60,55.40,77.29,340.00,6.00,M,30.00,M,10.00,M,CLR,   ,   ,M,M,M,M,M,M,M,M,M,M,M,M,62.60,METAR K11R 160846Z AUTO 34006KT 10SM CLR 17/13 A3000 RMK AO2
3640730,ORG,2008-06-30 19:25,-93.8036,30.0692,87.80,73.40,62.47,320.00,5.00,M,30.08,M,10.00,M,SCT,   ,   ,M,6500.00,M,M,M,M,M,M,M,M,M,M,95.86,METAR KORG 301925Z AUTO 32005KT 10SM SCT065 31/23 A3008 RMK AO2
2649521,LRD,2008-05-12 05:56,-99.4615,27.5438,79.88,48.92,33.84,150.00,7.00,M,29.99,1014.40,10.00,M,OVC,   ,   ,M,4000.00,M,M,M,M,M,M,M,M,M,M,79.88,METAR KLRD 120556Z AUTO 15007KT 10SM OVC040 27/09 A2999 RMK AO2 50000 T02660094 10294 20266 403160266 SLP144
1595092,LBR,2008-03-18 23:41,-95.0636,33.5932,57.20,55.40,93.69,320.00,11.00,0.34,29.55,M,1.75,19.00,BKN,OVC,   ,M,900.00,1300.00,M,M,M,M,M,M,M,M,M,57.20,METAR KLBR 182341Z AUTO 32011G19KT 1 3/4SM BKN009 OVC013 14/13 A2955 RMK AO1 VIS 1V5 P0034
1518228,IKV,2008-03-15 12:22,-93.5695,41.6878,30.00,27.00,88.44,360.00,9.00,M,29.91,M,10.00,M,M,M,M,M,M,M,M,M,M,M,M,M,M,M,M,21.03,M
827334,ISP,2008-02-10 18:56,-73.1017,40.7939,42.98,8.06,23.39,280.00,19.00,M,29.56,1001.10,10.00,28.00,SCT,BKN,   ,   ,6500.00,8000.00,M,M,M,M,M,M,31.00,270.00,2008-02-10 18:44,33.96,METAR KISP 101856Z 28019G28KT 10SM SCT065 BKN080 06/M13 A2956 RMK AO2 PK WND 27031/1844 SLP011 T00611133
6500835,MRF,2008-11-18 06:15,-104.02,30.37,35.60,19.40,51.33,360.00,6.00,M,30.45,M,10.00,M,CLR,   ,   ,M,M,M,M,M,M,M,M,M,M,M,M,29.87,METAR KMRF 180615Z AUTO 36006KT 10SM CLR 02/M07 A3045 RMK AO1
2906672,PVW,2008-05-25 09:25,-101.7173,34.1681,69.80,62.60,77.90,160.00,11.00,M,29.93,M,10.00,M,CLR,   ,   ,M,M,M,M,M,M,M,M,M,M,M,M,69.80,METAR KPVW 250925Z AUTO 16011KT 10SM CLR 21/17 A2993 RMK AO2
2113705,DKR,2008-04-14 15:25,-95.4038,31.307,53.60,35.60,50.36,20.00,4.00,M,30.40,M,10.00,M,CLR,   ,   ,M,M,M,M,M,M,M,M,M,M,M,M,53.60,METAR KDKR 141525Z AUTO 02004KT 10SM CLR 12/02 A3040 RMK AO2
137964,POB,2008-01-08 00:55,-79.0145,35.1709,53.24,50.00,88.72,0.00,0.00,M,30.35,1027.80,10.00,M,CLR,   ,   ,M,M,M,M,M,M,M,M,M,M,M,M,53.24,METAR KPOB 080055Z AUTO 00000KT 10SM CLR 12/10 A3035 RMK AO2 SLP278 T01180100 CHINO RWY05 $
7395341,SHL,2008-12-30 11:23,-95.8353,43.2082,25.00,17.00,71.22,150.00,15.00,M,29.73,M,10.00,21.00,M,M,M,M,M,M,M,M,M,M,M,M,M,M,M,11.71,M
5644211,VTI,2008-10-07 09:53,-92.0248,42.2176,59.00,57.00,93.07,70.00,5.00,0.01,30.03,M,5.00,M,M,M,M,M,M,M,M,M,M,M,M,M,M,M,M,59.00,M
3101794,RWV,2008-06-04 06:45,-96.7041,30.5155,75.20,71.60,88.59,160.00,17.00,M,29.78,M,10.00,24.00,CLR,   ,   ,M,M,M,M,M,M,M,M,M,M,M,M,76.58,METAR KRWV 040645Z AUTO 16017G24KT 10SM CLR 24/22 A2978 RMK AO2
4662549,CIN,2008-08-21 23:55,-94.7889,42.0444,73.40,69.80,88.51,140.00,5.00,M,29.84,M,10.00,-99.00,M,M,M,M,M,M,M,M,M,M,M,M,M,M,M,74.60,M
239629,HWV,2008-01-12 21:56,-72.8689,40.8217,44.96,28.94,53.17,340.00,4.00,M,30.06,1017.80,10.00,M,CLR,   ,   ,   ,M,M,M,M,M,M,M,M,M,M,M,42.55,METAR KHWV 122156Z AUTO 34004KT 10SM CLR 07/M02 A3006 RMK AO2 SLP178 T00721017 TSNO
1357654,FOK,2008-03-08 05:53,-72.6318,40.8436,51.98,50.00,92.93,280.00,9.00,0.01,29.70,1005.90,0.75,20.00,OVC,   ,   ,   ,100.00,M,M,M,BR,M,M,M,M,M,M,51.98,METAR KFOK 080553Z AUTO 28009G20KT 3/4SM BR OVC001 11/10 A2970 RMK AO2 PK WND 16027/0512 RAB0459E12B30E46 PRESRR SLP059 P0001 60065 T01110100 10117 20050 55036 TSNO
2330904,T82,2008-04-25 15:49,-98.9092,30.2432,69.80,66.20,88.34,230.00,8.00,M,29.95,M,7.00,M,OVC,   ,   ,M,900.00,M,M,M,M,M,M,M,M,M,M,69.80,METAR KT82 251549Z AUTO 23008KT 7SM OVC009 21/19 A2995 RMK AO1
6079658,GTB,2008-10-27 17:55,-75.7195,44.0556,49.64,32.72,51.96,230.00,12.00,M,29.94,1014.30,10.00,16.00,CLR,   ,   ,   ,M,M,M,M,M,M,M,M,M,M,M,44.45,METAR KGTB 271755Z AUTO 23012G16KT 10SM CLR 10/00 A2994 RMK AO2 SLP143 60000 T00980004 10102 20058 52009
3682789,MUT,2008-07-02 22:17,-91.1406,41.367,84.00,72.00,67.28,220.00,9.00,M,29.76,M,10.00,M,M,M,M,M,M,M,M,M,M,M,M,M,M,M,M,89.62,M
7215335,AIO,2008-12-21 21:35,-95.0465,41.4059,-0.40,-9.40,64.88,290.00,14.00,M,30.43,M,5.00,21.00,M,M,M,M,M,M,M,M,M,M,M,M,M,M,M,-20.60,M
1910903,FOK,2008-04-03 22:53,-72.6318,40.8436,41.00,24.08,50.63,210.00,7.00,M,30.45,1031.10,10.00,M,CLR,   ,   ,   ,M,M,M,M,M,M,M,M,M,M,M,35.75,METAR KFOK 032253Z 21007KT 10SM CLR 05/M04 A3045 RMK AO2 SLP311 T00501044
7282109,1A5,2008-12-25 03:40,-83.42,35.22,53.60,48.20,81.87,260.00,4.00,0.02,30.21,M,10.00,M,BKN,BKN,OVC,M,1800.00,7000.00,9000.00,M,-RA,M,M,M,M,M,M,53.60,METAR K1A5 250340Z AUTO 26004KT 10SM -RA BKN018 BKN070 OVC090 12/09 A3021 RMK AO2 P0002
7137184,BEA,2008-12-18 02:05,-97.791,28.3619,57.20,53.60,87.74,20.00,5.00,M,30.12,M,7.00,M,OVC,   ,   ,M,1600.00,M,M,M,M,M,M,M,M,M,M,57.20,METAR KBEA 180205Z AUTO 02005KT 7SM OVC016 14/12 A3012 RMK AO2
3764639,DPL,2008-07-06 21:40,-77.98,35.0,87.80,71.60,58.78,150.00,6.00,M,30.00,M,10.00,M,SCT,SCT,   ,M,5000.00,7000.00,M,M,M,M,M,M,M,M,M,94.18,METAR KDPL 062140Z AUTO 15006KT 10SM SCT050 SCT070 31/22 A3000 RMK AO2
4804362,ORC,2008-08-28 17:15,-96.0606,42.9895,77.00,64.40,65.12,310.00,7.00,M,29.87,M,10.00,-99.00,M,M,M,M,M,M,M,M,M,M,M,M,M,M,M,77.00,M
6858303,INT,2008-12-05 04:54,-80.222,36.1337,44.96,30.92,57.63,330.00,11.00,M,30.22,1023.50,10.00,M,FEW,OVC,   ,M,6000.00,8000.00,M,M,M,M,M,M,M,M,M,38.84,METAR KINT 050454Z AUTO 33011KT 10SM FEW060 OVC080 07/M01 A3022 RMK AO2 SLP235 T00721006 401280017
2558337,OAJ,2008-05-07 13:15,-77.6121,34.8292,69.80,60.80,73.09,250.00,6.00,M,30.10,M,10.00,M,CLR,   ,   ,M,M,M,M,M,M,M,M,M,M,M,M,69.80,METAR KOAJ 071315Z AUTO 25006KT 10SM CLR 21/16 A3010 RMK AO1
4373019,DEH,2008-08-06 23:45,-91.7433,43.2755,80.00,63.00,56.16,330.00,4.00,M,30.06,M,10.00,M,M,M,M,M,M,M,M,M,M,M,M,M,M,M,M,81.41,M
3355999,GYI,2008-06-16 19:25,-96.6737,33.7141,87.80,69.80,55.29,70.00,10.00,M,29.93,M,10.00,18.00,BKN,BKN,   ,M,5500.00,7000.00,M,M,M,M,M,M,M,M,M,92.71,METAR KGYI 161925Z AUTO 07010G18KT 10SM BKN055 BKN070 31/21 A2993 RMK AO2
4870938,CPT,2008-08-31 21:45,-97.4338,32.3537,91.40,69.80,49.36,110.00,9.00,M,29.90,M,10.00,15.00,FEW,   ,   ,M,4900.00,M,M,M,M,M,M,M,M,M,M,96.99,METAR KCPT 312145Z AUTO 11009G15KT 10SM FEW049 33/21 A2990 RMK AO2
2446600,SVH,2008-05-01 19:25,-80.9539,35.765,75.20,42.80,31.34,210.00,9.00,M,30.06,M,10.00,19.00,CLR,   ,   ,M,M,M,M,M,M,M,M,M,M,M,M,73.89,METAR KSVH 011925Z AUTO 21009G19KT 10SM CLR 24/06 A3006 RMK AO2
1442462,INT,2008-03-12 02:54,-80.222,36.1337,53.06,32.00,44.48,0.00,0.00,M,29.91,1012.70,10.00,M,CLR,   ,   ,M,M,M,M,M,M,M,M,M,M,M,M,53.06,METAR KINT 120254Z AUTO 00000KT 10SM CLR 12/00 A2991 RMK AO2 SLP127 T01170000 58005
5536419,FZY,2008-10-02 12:54,-76.3847,43.3497,48.02,44.96,89.08,250.00,4.00,0.01,29.61,1002.70,8.00,M,BKN,BKN,OVC,   ,800.00,1500.00,2200.00,M,-RA,M,M,M,M,M,M,46.13,METAR KFZY 021254Z AUTO 25004KT 8SM -RA BKN008 BKN015 OVC022 09/07 A2961 RMK AO2 CIG 005V010 SLP027 P0001 T00890072
2732295,GNC,2008-05-16 10:25,-102.6527,32.6753,57.20,51.80,82.12,350.00,11.00,M,30.23,M,10.00,M,SCT,SCT,OVC,M,4600.00,5500.00,6500.00,M,M,M,M,M,M,M,M,57.20,METAR KGNC 161025Z AUTO 35011KT 10SM SCT046 SCT055 OVC065 14/11 A3023 RMK AO2
5201685,TNU,2008-09-17 00:13,-93.019,41.6701,69.00,62.00,78.38,190.00,4.00,M,30.14,M,10.00,M,M,M,M,M,M,M,M,M,M,M,M,M,M,M,M,69.00,M
2502467,BUY,2008-05-04 15:54,-79.4749,36.0485,73.04,51.98,47.59,M,4.00,M,30.01,1015.80,10.00,M,CLR,   ,   ,M,M,M,M,M,M,M,M,M,M,M,M,73.04,METAR KBUY 041554Z AUTO VRB04KT 10SM CLR 23/11 A3001 RMK AO2 SLP158 T02280111
1050691,JAS,2008-02-21 21:48,-94.0349,30.8857,73.40,69.80,88.51,0.00,0.00,0.01,29.77,M,7.00,M,CLR,   ,   ,M,M,M,M,M,M,M,M,M,M,M,M,74.60,METAR KJAS 212148Z AUTO 00000KT 7SM CLR 23/21 A2977 RMK AO2 P0001
5930310,CCY,2008-10-20 06:35,-92.6132,43.073,55.40,51.80,87.65,10.00,6.00,M,30.11,M,10.00,-99.00,M,M,M,M,M,M,M,M,M,M,M,M,M,M,M,55.40,M
2234531,INT,2008-04-20 17:54,-80.222,36.1337,62.06,42.98,49.55,290.00,12.00,M,29.89,1011.80,10.00,18.00,SCT,SCT,   ,M,3100.00,4200.00,M,M,M,M,M,M,M,M,M,62.06,METAR KINT 201754Z 29012G18KT 10SM SCT031 SCT042 17/06 A2989 RMK AO2 LTG DSNT ALQDS TSB23E45 SLP118 T01670061 10178 20100 56005
3824189,TKI,2008-07-09 21:53,-96.59,33.18,93.02,68.00,44.12,120.00,6.00,M,29.99,1014.70,10.00,M,CLR,   ,   ,M,M,M,M,M,M,M,M,M,M,M,M,97.45,METAR KTKI 092153Z 12006KT 10SM CLR 34/20 A2999 RMK AO2 SLP147 T03390200
3742731,AXA,2008-07-05 19:37,-94.2724,43.0796,83.00,64.00,52.76,160.00,18.00,M,29.91,M,10.00,22.00,M,M,M,M,M,M,M,M,M,M,M,M,M,M,M,84.41,M
2413253,AVL,2008-04-29 20:54,-82.5375,35.4319,53.06,26.96,36.22,340.00,14.00,M,30.02,1016.20,10.00,19.00,CLR,   ,   ,M,M,M,M,M,M,M,M,M,M,M,M,53.06,METAR KAVL 292054Z 34014G19KT 10SM CLR 12/M03 A3002 RMK AO2 SLP162 T01171028 56011
5711582,CKP,2008-10-10 09:55,-95.5538,42.7304,53.60,32.00,M,M,M,M,29.98,M,10.00,-99.00,M,M,M,M,M,M,M,M,M,M,M,M,M,M,M,M,M
7296550,IKV,2008-12-25 20:13,-93.5695,41.6878,27.00,15.00,60.10,160.00,17.00,M,30.07,M,10.00,23.00,M,M,M,M,M,M,M,M,M,M,M,M,M,M,M,13.52,M
1136832,SUT,2008-02-25 21:40,-78.0747,33.9292,55.40,44.60,66.91,190.00,8.00,M,29.98,M,10.00,M,CLR,   ,   ,M,M,M,M,M,M,M,M,M,M,M,M,55.40,METAR KSUT 252140Z AUTO 19008KT 10SM CLR 13/07 A2998 RMK AO2
4608600,AWO,2008-08-19 08:15,-122.159,48.1608,60.80,57.20,87.92,200.00,5.00,M,29.83,M,10.00,M,BKN,OVC,   ,M,1700.00,2600.00,M,M,M,M,M,M,M,M,M,60.80,METAR KAWO 190815Z AUTO 20005KT 10SM BKN017 OVC026 16/14 A2983 RMK AO1
6234298,SLR,2008-11-04 22:28,-95.62,33.16,75.20,46.40,35.94,150.00,10.00,M,30.02,M,10.00,15.00,CLR,   ,   ,M,M,M,M,M,M,M,M,M,M,M,M,74.11,METAR KSLR 042228Z AUTO 15010G15KT 10SM CLR 24/08 A3002 RMK AO2
4224233,DPL,2008-07-29 19:41,-77.98,35.0,91.40,69.80,49.36,200.00,4.00,M,29.92,M,10.00,M,CLR,   ,   ,M,M,M,M,M,M,M,M,M,M,M,M,96.99,METAR KDPL 291941Z AUTO 20004KT 10SM CLR 33/21 A2992 RMK AO2
3105402,CIN,2008-06-04 10:32,-94.7889,42.0444,65.00,62.00,90.01,120.00,4.00,M,29.58,M,2.00,M,M,M,M,M,M,M,M,M,M,M,M,M,M,M,M,65.00,M
2214410,PRO,2008-04-19 16:58,-94.1637,41.8278,46.00,46.00,100.00,320.00,12.00,M,29.93,M,10.00,M,M,M,M,M,M,M,M,M,M,M,M,M,M,M,M,39.82,M
5095888,SHL,2008-09-11 22:15,-95.8353,43.2082,72.00,66.00,81.41,290.00,12.00,M,29.95,M,10.00,16.00,M,M,M,M,M,M,M,M,M,M,M,M,M,M,M,72.00,M
321662,HHF,2008-01-16 22:07,-100.404,35.895,30.20,21.20,68.83,360.00,20.00,M,30.02,M,7.00,24.00,BKN,OVC,   ,M,2000.00,2800.00,M,M,-SN,M,M,M,M,M,M,16.75,METAR KHHF 162207Z AUTO 36020G24KT 7SM -SN BKN020 OVC028 M01/M06 A3002 RMK AO2
4817156,FWS,2008-08-29 06:45,-97.3033,32.573,77.00,68.00,73.78,140.00,3.00,M,29.92,M,10.00,M,CLR,   ,   ,M,M,M,M,M,M,M,M,M,M,M,M,77.00,METAR KFWS 290645Z AUTO 14003KT 10SM CLR 25/20 A2992 RMK AO2 LTG DSNT S
1912341,RDK,2008-04-04 00:35,-95.2624,41.0106,39.20,35.60,86.79,50.00,9.00,M,29.96,M,10.00,-99.00,M,M,M,M,M,M,M,M,M,M,M,M,M,M,M,32.47,M
5393539,EOK,2008-09-25 20:15,-91.4274,40.4615,82.40,62.60,M,M,M,M,30.23,M,10.00,-99.00,M,M,M,M,M,M,M,M,M,M,M,M,M,M,M,M,M
5978201,AQO,2008-10-22 11:05,-98.6619,30.7836,62.60,60.80,93.83,0.00,0.00,M,30.01,M,5.00,M,OVC,   ,   ,M,1800.00,M,M,M,BR,M,M,M,M,M,M,62.60,METAR KAQO 221105Z AUTO 00000KT 5SM BR OVC018 17/16 A3001 RMK AO2
5641097,SDA,2008-10-07 06:32,-95.4112,40.7533,66.00,61.00,83.91,160.00,8.00,M,29.91,M,10.00,M,M,M,M,M,M,M,M,M,M,M,M,M,M,M,M,66.00,M
1445881,CNC,2008-03-12 06:42,-93.3608,41.0184,38.00,33.00,82.00,70.00,4.00,M,29.89,M,7.00,M,M,M,M,M,M,M,M,M,M,M,M,M,M,M,M,34.43,M
6331848,MRN,2008-11-09 23:00,-81.61,35.82,50.00,32.00,49.81,10.00,7.00,M,29.99,M,10.00,M,CLR,   ,   ,M,M,M,M,M,M,M,M,M,M,M,M,46.72,METAR KMRN 092300Z AUTO 01007KT 10SM CLR 10/00 A2999 RMK AO2
4186984,XBP,2008-07-27 15:09,-97.8284,33.1753,89.60,60.80,38.18,260.00,5.00,M,29.96,M,7.00,M,CLR,   ,   ,M,M,M,M,M,M,M,M,M,M,M,M,89.60,METAR KXBP 271509Z AUTO 26005KT 7SM CLR 32/16 A2996 RMK AO2
5532834,ELZ,2008-10-02 08:56,-77.99,42.11,41.00,39.02,92.59,280.00,7.00,M,29.67,1005.60,10.00,M,FEW,OVC,   ,   ,1600.00,3700.00,M,M,M,M,M,M,M,M,M,35.75,METAR KELZ 020856Z AUTO 28007KT 10SM FEW016 OVC037 05/04 A2967 RMK AO2 RAB13E36 SLP056 P0000 60000 T00500039 53002
4030141,EHO,2008-07-20 00:40,-81.6011,35.2556,86.00,64.40,48.58,0.00,0.00,M,30.01,M,10.00,M,CLR,   ,   ,M,M,M,M,M,M,M,M,M,M,M,M,87.49,METAR KEHO 200040Z AUTO 00000KT 10SM CLR 30/18 A3001 RMK AO2
6809287,GGI,2008-12-02 19:15,-92.7332,41.7097,35.60,28.40,74.80,180.00,14.00,M,29.70,M,10.00,-99.00,M,M,M,M,M,M,M,M,M,M,M,M,M,M,M,25.80,M
1728807,CTZ,2008-03-25 10:02,-78.3644,34.9756,37.40,30.20,74.98,330.00,4.00,M,30.32,M,10.00,M,CLR,   ,   ,M,M,M,M,M,M,M,M,M,M,M,M,33.73,METAR KCTZ 251002Z AUTO 33004KT 10SM CLR 03/M01 A3032 RMK AO2
3208118,SEP,2008-06-09 14:25,-98.1777,32.2153,80.60,68.00,65.54,180.00,10.00,M,29.91,M,10.00,16.00,SCT,SCT,   ,M,2600.00,3300.00,M,M,M,M,M,M,M,M,M,83.29,METAR KSEP 091425Z AUTO 18010G16KT 10SM SCT026 SCT033 27/20 A2991 RMK AO1
678471,ORC,2008-02-03 11:15,-96.0606,42.9895,15.80,14.00,92.44,140.00,3.00,M,29.98,M,4.00,-99.00,M,M,M,M,M,M,M,M,M,M,M,M,M,M,M,10.17,M
6962868,GLE,2008-12-09 22:05,-97.1969,33.6514,35.60,28.40,74.80,330.00,24.00,M,29.98,M,10.00,28.00,OVC,   ,   ,M,2000.00,M,M,M,M,M,M,M,M,M,M,22.92,METAR KGLE 092205Z AUTO 33024G28KT 10SM OVC020 02/M02 A2998 RMK AO2
6766242,PRO,2008-11-30 12:35,-94.1637,41.8278,32.00,32.00,100.00,330.00,9.00,M,29.54,M,5.00,-99.00,M,M,M,M,M,M,M,M,M,M,M,M,M,M,M,23.51,M
3497485,PVW,2008-06-23 15:45,-101.7173,34.1681,77.00,55.40,47.25,210.00,10.00,M,30.10,M,10.00,14.00,CLR,   ,   ,M,M,M,M,M,M,M,M,M,M,M,M,77.00,METAR KPVW 231545Z AUTO 21010G14KT 10SM CLR 25/13 A3010 RMK AO2
7189112,MAF,2008-12-20 14:53,-102.1892,31.9425,50.00,28.04,42.39,240.00,6.00,M,30.02,1014.50,10.00,M,CLR,   ,   ,M,M,M,M,M,M,M,M,M,M,M,M,47.21,METAR KMAF 201453Z 24006KT 10SM CLR 10/M02 A3002 RMK AO2 SLP145 T01001022 51010
4284179,LRJ,2008-08-02 04:55,-96.1923,42.7754,71.00,60.00,68.20,110.00,7.00,M,29.97,M,10.00,M,M,M,M,M,M,M,M,M,M,M,M,M,M,M,M,71.00,M
5451180,UKF,2008-09-28 09:44,-81.0983,36.2228,62.60,62.60,100.00,0.00,0.00,M,29.97,M,0.25,M,OVC,   ,   ,M,100.00,M,M,M,M,M,M,M,M,M,M,62.60,METAR KUKF 280944Z AUTO 00000KT 1/4SM OVC001 17/17 A2997 RMK AO1
4893663,IKV,2008-09-02 00:33,-93.5695,41.6878,83.00,74.00,74.33,150.00,7.00,M,29.91,M,10.00,M,M,M,M,M,M,M,M,M,M,M,M,M,M,M,M,89.60,M
1499428,MXO,2008-03-14 16:15,-91.1605,42.2204,44.60,39.20,81.20,340.00,5.00,M,29.73,M,10.00,-99.00,M,M,M,M,M,M,M,M,M,M,M,M,M,M,M,41.36,M
5632109,CPT,2008-10-06 20:45,-97.4338,32.3537,78.80,69.80,73.95,170.00,12.00,M,29.89,M,10.00,M,SCT,BKN,   ,M,2100.00,7500.00,M,M,M,M,M,M,M,M,M,81.39,METAR KCPT 062045Z AUTO 17012KT 10SM SCT021 BKN075 26/21 A2989 RMK AO2
3367498,OLZ,2008-06-17 07:55,-91.976,42.6831,51.80,46.40,81.74,320.00,4.00,M,30.10,M,10.00,-99.00,M,M,M,M,M,M,M,M,M,M,M,M,M,M,M,51.80,M
7060864,ADU,2008-12-14 09:42,-94.9204,41.6994,48.00,45.00,89.29,180.00,12.00,M,29.29,M,10.00,17.00,M,M,M,M,M,M,M,M,M,M,M,M,M,M,M,42.37,M
